<?xml version="1.0" encoding="UTF-8"?>
<kml xmlns="http://www.opengis.net/kml/2.2" xmlns:gx="http://www.google.com/kml/ext/2.2" xmlns:kml="http://www.opengis.net/kml/2.2" xmlns:atom="http://www.w3.org/2005/Atom">
<Document id="document">
	<name>Untitled map</name>
	<visibility>0</visibility>
	<gx:CascadingStyle kml:id="__managed_style_11C3FB39733F8D06A247_highlight">
		<Style>
			<IconStyle>
				<scale>1.2</scale>
				<Icon>
					<href>https://earth.google.com/earth/document/icon?color=1976d2&amp;id=2000&amp;scale=4</href>
				</Icon>
				<hotSpot x="64" y="128" xunits="pixels" yunits="insetPixels"/>
			</IconStyle>
			<LabelStyle>
			</LabelStyle>
			<LineStyle>
				<color>ffff5500</color>
				<width>3</width>
			</LineStyle>
			<PolyStyle>
				<color>00ffffff</color>
			</PolyStyle>
			<BalloonStyle>
				<displayMode>hide</displayMode>
			</BalloonStyle>
		</Style>
	</gx:CascadingStyle>
	<gx:CascadingStyle kml:id="__managed_style_11C3FB39733F8D06A247_normal">
		<Style>
			<IconStyle>
				<Icon>
					<href>https://earth.google.com/earth/document/icon?color=1976d2&amp;id=2000&amp;scale=4</href>
				</Icon>
				<hotSpot x="64" y="128" xunits="pixels" yunits="insetPixels"/>
			</IconStyle>
			<LabelStyle>
			</LabelStyle>
			<LineStyle>
				<color>ffff5500</color>
				<width>2</width>
			</LineStyle>
			<PolyStyle>
				<color>00ffffff</color>
			</PolyStyle>
			<BalloonStyle>
				<displayMode>hide</displayMode>
			</BalloonStyle>
		</Style>
	</gx:CascadingStyle>
	<StyleMap id="__managed_style_11C3FB39733F8D06A247">
		<Pair>
			<key>normal</key>
			<styleUrl>#__managed_style_11C3FB39733F8D06A247_normal</styleUrl>
		</Pair>
		<Pair>
			<key>highlight</key>
			<styleUrl>#__managed_style_11C3FB39733F8D06A247_highlight</styleUrl>
		</Pair>
	</StyleMap>
	<gx:CascadingStyle kml:id="__managed_style_01086133BD3F8D06A247_highlight">
		<Style>
			<IconStyle>
				<scale>1.2</scale>
				<Icon>
					<href>https://earth.google.com/earth/document/icon?color=1976d2&amp;id=2000&amp;scale=4</href>
				</Icon>
				<hotSpot x="64" y="128" xunits="pixels" yunits="insetPixels"/>
			</IconStyle>
			<LabelStyle>
			</LabelStyle>
			<LineStyle>
				<color>ff2dc0fb</color>
				<width>3</width>
			</LineStyle>
			<PolyStyle>
				<color>40ffffff</color>
			</PolyStyle>
			<BalloonStyle>
				<displayMode>hide</displayMode>
			</BalloonStyle>
		</Style>
	</gx:CascadingStyle>
	<gx:CascadingStyle kml:id="__managed_style_01086133BD3F8D06A247_normal">
		<Style>
			<IconStyle>
				<Icon>
					<href>https://earth.google.com/earth/document/icon?color=1976d2&amp;id=2000&amp;scale=4</href>
				</Icon>
				<hotSpot x="64" y="128" xunits="pixels" yunits="insetPixels"/>
			</IconStyle>
			<LabelStyle>
			</LabelStyle>
			<LineStyle>
				<color>ff2dc0fb</color>
				<width>2</width>
			</LineStyle>
			<PolyStyle>
				<color>40ffffff</color>
			</PolyStyle>
			<BalloonStyle>
				<displayMode>hide</displayMode>
			</BalloonStyle>
		</Style>
	</gx:CascadingStyle>
	<StyleMap id="__managed_style_01086133BD3F8D06A247">
		<Pair>
			<key>normal</key>
			<styleUrl>#__managed_style_01086133BD3F8D06A247_normal</styleUrl>
		</Pair>
		<Pair>
			<key>highlight</key>
			<styleUrl>#__managed_style_01086133BD3F8D06A247_highlight</styleUrl>
		</Pair>
	</StyleMap>
	<Folder id="5C6AB5FE32000001">
		<name>Mexico-Aztlán / Texas Border</name>
		<open>1</open>
		<styleUrl>#__managed_style_01086133BD3F8D06A247</styleUrl>
		<Folder id="5C6AB5FE32000002">
			<name>Proposed Border</name>
			<open>1</open>
			<styleUrl>#__managed_style_01086133BD3F8D06A247</styleUrl>
			<Placemark id="5C6AB5FE32000003">
				<name>Border (Pecos → Rio Grande → County Lines → San Antonio River)</name>
				<description><![CDATA[
          <p><b>Segments (1809 pts):</b></p>
          <ol>
            <li><b>Pecos River</b> (Natural Earth 10m)</li>
            <li><b>Rio Grande</b> (Natural Earth 10m)</li>
            <li><b>County boundaries</b> (TIGER/Line)</li>
            <li><b>San Antonio River</b> (1086 pts, OSM relation 7719215, RDP + densified to ~333m)</li>
          </ol>
        ]]></description>
				<styleUrl>#__managed_style_11C3FB39733F8D06A247</styleUrl>
				<LineString>
					<coordinates>
						-126.1792398477446,48.56799701484942,0 -102.1830972970997,37.35577095303015,0 -103.0023572507977,36.50052019270915,0 -103.0416983293325,36.50054147742518,0 -103.0425016485935,34.4005019426579,0 -103.0452981652636,33.93914115374663,0 -103.0486429203364,33.75605319473662,0 -103.0640605159084,33.03578994125692,0 -103.0645094474158,32.00042371783734,0 -103.956485,32.000129,0 -103.942432,31.990302,0 -103.927295,31.974555,0 -103.910254,31.945136,0 -103.89624,31.923407,0 -103.882495,31.917255,0 -103.880469,31.916327,0 -103.870459,31.909003,0 -103.858398,31.887152,0 -103.852539,31.88161,0 -103.841162,31.88288,0 -103.825928,31.898261,0 -103.814697,31.902118,0 -103.806494,31.892597,0 -103.798584,31.826972,0 -103.789355,31.809101,0 -103.778491,31.797431,0 -103.736133,31.762323,0 -103.720312,31.759101,0 -103.68125,31.758661,0 -103.665137,31.750434,0 -103.636157,31.723505,0 -103.60625,31.714423,0 -103.607275,31.70624400000001,0 -103.611011,31.695917,0 -103.609229,31.686103,0 -103.601074,31.67768,0 -103.592822,31.672065,0 -103.549658,31.65351,0 -103.527686,31.639716,0 -103.510596,31.621283,0 -103.503711,31.59728399999999,0 -103.502246,31.55622,0 -103.496094,31.541083,0 -103.45542,31.467157,0 -103.444751,31.453315,0 -103.433203,31.446796,0 -103.414307,31.450556,0 -103.403809,31.446479,0 -103.398975,31.443866,0 -103.393359,31.442939,0 -103.387744,31.443793,0 -103.382983,31.446479,0 -103.375244,31.449897,0 -103.369873,31.445917,0 -103.365088,31.439765,0 -103.359131,31.436591,0 -103.2396,31.436591,0 -103.239014,31.43122,0 -103.221924,31.402411,0 -103.190723,31.383246,0 -103.143848,31.37287,0 -103.094971,31.372016,0 -103.057471,31.381293,0 -103.040332,31.39064400000001,0 -103.024219,31.396259,0 -103.006836,31.393573,0 -102.967456,31.36579,0 -102.900391,31.347187,0 -102.878174,31.334345,0 -102.845801,31.30456,0 -102.828125,31.298774,0 -102.821533,31.2956,0 -102.816162,31.28852,0 -102.811035,31.278266,0 -102.803711,31.278827,0 -102.792773,31.283881,0 -102.772021,31.28869,0 -102.760254,31.294745,0 -102.748877,31.295966,0 -102.735352,31.285102,0 -102.716553,31.299091,0 -102.700195,31.315009,0 -102.681812,31.32807,0 -102.656787,31.333515,0 -102.636816,31.327997,0 -102.565112,31.277216,0 -102.557788,31.27453,0 -102.510303,31.265815,0 -102.498828,31.265253,0 -102.480151,31.259345,0 -102.45874,31.245429,0 -102.426807,31.216815,0 -102.412646,31.182563,0 -102.409668,31.144794,0 -102.400073,31.11037,0 -102.366016,31.086493,0 -102.322607,31.076288,0 -102.30437,31.069452,0 -102.286548,31.056024,0 -102.266895,31.045673,0 -102.244727,31.045282,0 -102.222168,31.047675,0 -102.200928,31.045526,0 -102.19126,31.039618,0 -102.179126,31.023749,0 -102.172949,31.018817,0 -102.159106,31.014521,0 -102.125781,31.01142,0 -102.090186,31.000434,0 -102.077979,31.000678,0 -102.065527,31.006171,0 -102.042407,31.01037000000001,0 -102.016211,31.01068799999999,0 -101.991309,31.005194,0 -101.971924,30.991962,0 -101.969897,30.988471,0 -101.967041,30.979999,0 -101.964697,30.975849,0 -101.958496,30.968573,0 -101.951221,30.961786,0 -101.942969,30.956488,0 -101.933887,30.953388,0 -101.91416,30.951117,0 -101.905322,30.948749,0 -101.89707,30.943232,0 -101.883716,30.929023,0 -101.872314,30.912958,0 -101.869434,30.904242,0 -101.868457,30.865253,0 -101.865967,30.857733,0 -101.855396,30.842719,0 -101.839209,30.824335,0 -101.834473,30.817401,0 -101.830811,30.80836800000001,0 -101.829272,30.799189,0 -101.828369,30.73664,0 -101.821338,30.717157,0 -101.804297,30.706122,0 -101.786621,30.697773,0 -101.707935,30.681464,0 -101.698901,30.677436,0 -101.691748,30.670966,0 -101.688281,30.662665,0 -101.687598,30.645209,0 -101.685889,30.636737,0 -101.681641,30.630487,0 -101.669678,30.620795,0 -101.664478,30.61518,0 -101.660571,30.606513,0 -101.658862,30.597284,0 -101.657324,30.560981,0 -101.658008,30.552191,0 -101.660986,30.544379,0 -101.668994,30.537055,0 -101.70249,30.52265,0 -101.712402,30.514228,0 -101.718848,30.503974,0 -101.722705,30.492255,0 -101.72478,30.479438,0 -101.723389,30.454462,0 -101.715625,30.431952,0 -101.690771,30.384784,0 -101.681812,30.375751,0 -101.678809,30.371601,0 -101.67334,30.359442,0 -101.679541,30.356147,0 -101.718018,30.343695,0 -101.724707,30.338886,0 -101.727637,30.329535,0 -101.726978,30.320746,0 -101.719653,30.29206,0 -101.708911,30.274042,0 -101.690918,30.263544,0 -101.670581,30.25539,0 -101.652832,30.244208,0 -101.644946,30.233832,0 -101.638281,30.222431,0 -101.631201,30.213251,0 -101.622119,30.209418,0 -101.598633,30.20697699999999,0 -101.583545,30.199482,0 -101.573291,30.186713,0 -101.555518,30.150019,0 -101.546387,30.13703,0 -101.531543,30.129413,0 -101.505713,30.126899,0 -101.491699,30.121161,0 -101.490039,30.107123,0 -101.491943,30.089423,0 -101.48833,30.07287,0 -101.477051,30.063544,0 -101.466357,30.059345,0 -101.463184,30.053168,0 -101.474658,30.038153,0 -101.499854,30.036322,0 -101.510986,30.032099,0 -101.505713,30.021064,0 -101.466895,29.988715,0 -101.458911,29.971015,0 -101.468506,29.948798,0 -101.504736,29.92956,0 -101.52207,29.914814,0 -101.519385,29.897895,0 -101.501709,29.889228,0 -101.481445,29.890082,0 -101.460376,29.893988,0 -101.440527,29.89411,0 -101.402148,29.877997,0 -101.380957,29.866083,0 -101.37168,29.856879,0 -101.380298,29.843036,0 -101.396655,29.827948,0 -101.406299,29.813422,0 -101.394873,29.801142,0 -101.387061,29.798896,0 -101.379004,29.797724,0 -101.36272,29.797724,0 -101.350513,29.79918899999999,0 -101.344287,29.798896,0 -101.338965,29.796503,0 -101.332129,29.783075,0 -101.33042,29.7633,0 -101.334082,29.727607,0 -101.338232,29.71308,0 -101.345459,29.699482,0 -101.356445,29.690253,0 -101.37168,29.688739,0 -101.37312,29.691773,0 -101.374561,29.694806,0 -101.376001,29.69784,0 -101.377441,29.700873,0 -101.365161,29.676874,0 -101.358569,29.667597,0 -101.349854,29.660346,0 -101.337085,29.65456,0 -101.310596,29.654731,0 -101.301929,29.649726,0 -101.303516,29.634101,0 -101.311694,29.612982,0 -101.312988,29.59809,0 -101.301807,29.594355,0 -101.284424,29.608026,0 -101.259619,29.620429,0 -101.234717,29.62287,0 -101.219824,29.610468,0 -101.218604,29.584418,0 -101.227295,29.554633,0 -101.22356,29.540961,0 -101.213672,29.531806,0 -101.202637,29.530878,0 -101.192236,29.528339,0 -101.183521,29.522528,0 -101.164404,29.501532,0 -101.135596,29.48786,0 -101.068774,29.469672,0 -101.038989,29.46039499999999,0 -100.990553,29.483681,0 -100.942116,29.506967,0 -100.893679,29.530253,0 -100.845242,29.553539,0 -100.796806,29.576825,0 -100.748369,29.600111,0 -100.699932,29.623397,0 -100.699932,29.623897,0 -100.112098,29.623263,0 -99.75176500000001,29.624772,0 -99.60312999999999,29.627181,0 -99.411817,29.627514,0 -98.98378700000001,29.62345,0 -98.98054000000002,29.620297,0 -98.97612599999998,29.613264,0 -98.975697,29.609778,0 -98.978655,29.598817,0 -98.981218,29.594748,0 -98.984859,29.590936,0 -98.98671299999999,29.586931,0 -98.98706799999999,29.584663,0 -98.98577400000001,29.581929,0 -98.979822,29.579183,0 -98.97887099999998,29.57761,0 -98.97927299999999,29.57545500000001,0 -98.98120299999999,29.573282,0 -98.985765,29.570106,0 -98.985944,29.567048,0 -98.985202,29.564079,0 -98.97934200000002,29.555402,0 -98.974172,29.551941,0 -98.97138300000002,29.551842,0 -98.968541,29.553862,0 -98.96627299999999,29.557689,0 -98.962501,29.559879,0 -98.957853,29.560238,0 -98.94969400000001,29.558332,0 -98.943561,29.55798,0 -98.941076,29.558498,0 -98.935474,29.562399,0 -98.931664,29.563547,0 -98.927161,29.56225,0 -98.80655200000001,29.690709,0 -98.77878200000001,29.720167,0 -98.77512400000001,29.719689,0 -98.771518,29.720458,0 -98.770843,29.721365,0 -98.76775499999999,29.720748,0 -98.766665,29.719554,0 -98.76225199999999,29.72201099999999,0 -98.760052,29.722319,0 -98.759139,29.721554,0 -98.757052,29.722026,0 -98.751543,29.720257,0 -98.750359,29.721016,0 -98.748051,29.720555,0 -98.744659,29.718427,0 -98.744017,29.716475,0 -98.74105400000001,29.717048,0 -98.73815999999999,29.716576,0 -98.735703,29.718585,0 -98.73424900000001,29.721364,0 -98.728954,29.722306,0 -98.730532,29.725667,0 -98.733709,29.7279,0 -98.734126,29.729451,0 -98.72606299999998,29.727748,0 -98.72323400000001,29.729614,0 -98.71767,29.725306,0 -98.715592,29.72582,0 -98.71069199999999,29.730851,0 -98.70778900000001,29.732372,0 -98.705271,29.733136,0 -98.699888,29.732706,0 -98.70113499999999,29.735719,0 -98.700416,29.737397,0 -98.69272500000001,29.735208,0 -98.68754899999999,29.73872,0 -98.682935,29.739351,0 -98.68141000000001,29.738305,0 -98.676575,29.737271,0 -98.67450099999999,29.738805,0 -98.673832,29.742117,0 -98.66957600000002,29.743536,0 -98.663241,29.741027,0 -98.66025299999998,29.741571,0 -98.659736,29.742033,0 -98.66056700000001,29.743722,0 -98.66339099999999,29.745131,0 -98.663738,29.746275,0 -98.66139200000001,29.749146,0 -98.65865100000001,29.74922,0 -98.65797499999999,29.748238,0 -98.65599899999999,29.747774,0 -98.65305099999999,29.748831,0 -98.652552,29.749865,0 -98.65334699999998,29.75135,0 -98.65250099999999,29.75354,0 -98.65093800000001,29.754002,0 -98.64977799999998,29.7535,0 -98.64776000000001,29.749809,0 -98.64546600000001,29.747855,0 -98.646231,29.743602,0 -98.643545,29.740357,0 -98.634021,29.741562,0 -98.628756,29.744146,0 -98.61782599999999,29.743851,0 -98.616924,29.742916,0 -98.61738200000001,29.739642,0 -98.61434300000001,29.737602,0 -98.61272299999999,29.738236,0 -98.611599,29.740063,0 -98.603381,29.739933,0 -98.600469,29.741265,0 -98.599997,29.743031,0 -98.60129000000001,29.744874,0 -98.60473899999998,29.747255,0 -98.603404,29.749522,0 -98.60040600000001,29.74998,0 -98.59697199999999,29.747362,0 -98.593113,29.745679,0 -98.59141200000001,29.747215,0 -98.58849299999999,29.747595,0 -98.58749599999999,29.74641799999999,0 -98.58668199999998,29.742451,0 -98.582849,29.741137,0 -98.581475,29.742782,0 -98.578928,29.743597,0 -98.57929400000002,29.745478,0 -98.57640700000002,29.747107,0 -98.574567,29.750419,0 -98.56857099999999,29.748329,0 -98.56683799999999,29.751922,0 -98.565545,29.752659,0 -98.562614,29.751476,0 -98.55930399999998,29.751482,0 -98.555117,29.755255,0 -98.554997,29.758633,0 -98.55301700000001,29.76019,0 -98.55048899999998,29.760713,0 -98.54806700000002,29.75999699999999,0 -98.54688199999998,29.757301,0 -98.547867,29.754391,0 -98.54730599999999,29.753615,0 -98.54371800000001,29.752052,0 -98.538996,29.751903,0 -98.535043,29.752981,0 -98.534015,29.752353,0 -98.533959,29.74679,0 -98.52828599999999,29.743659,0 -98.52819200000002,29.742228,0 -98.52678099999999,29.740445,0 -98.52538100000001,29.740786,0 -98.52608600000001,29.743416,0 -98.523374,29.745242,0 -98.51794100000001,29.74414,0 -98.503974,29.738644,0 -98.49695699999999,29.73849,0 -98.49302299999999,29.737034,0 -98.49235400000001,29.735934,0 -98.479778,29.73508,0 -98.476991,29.733436,0 -98.46597399999999,29.738538,0 -98.46495899999998,29.738115,0 -98.462127,29.733505,0 -98.45955499999999,29.731839,0 -98.457494,29.731564,0 -98.452595,29.732802,0 -98.45120299999999,29.734403,0 -98.44805199999999,29.735817,0 -98.445978,29.735884,0 -98.44367099999999,29.734646,0 -98.44268100000001,29.732286,0 -98.44460599999998,29.726149,0 -98.444704,29.722466,0 -98.44385200000001,29.71965,0 -98.44084099999999,29.716464,0 -98.43834400000001,29.715627,0 -98.43092599999999,29.715754,0 -98.42684199999999,29.71769,0 -98.43000499999998,29.723285,0 -98.42972199999998,29.723978,0 -98.42590800000001,29.727015,0 -98.41862699999999,29.729489,0 -98.416887,29.731695,0 -98.417851,29.733318,0 -98.42048,29.733814,0 -98.421751,29.738719,0 -98.42067299999999,29.743529,0 -98.41534900000001,29.746793,0 -98.41208599999999,29.746922,0 -98.40804900000001,29.748471,0 -98.403871,29.749,0 -98.40236400000001,29.747998,0 -98.39812999999998,29.742248,0 -98.39975199999999,29.739278,0 -98.39917199999999,29.738111,0 -98.393632,29.736481,0 -98.39097199999999,29.73648,0 -98.388262,29.733943,0 -98.384353,29.735141,0 -98.37696699999999,29.732618,0 -98.373729,29.730594,0 -98.37350000000001,29.726022,0 -98.374999,29.724619,0 -98.37564399999999,29.722654,0 -98.37521,29.719975,0 -98.369828,29.720693,0 -98.364366,29.724332,0 -98.359382,29.729037,0 -98.35581699999999,29.734072,0 -98.35258899999999,29.734365,0 -98.352456,29.732159,0 -98.34965,29.728029,0 -98.34558399999999,29.726455,0 -98.338618,29.721786,0 -98.338031,29.720158,0 -98.338724,29.71705,0 -98.34036099999999,29.715819,0 -98.34036699999999,29.711795,0 -98.34135000000001,29.70965,0 -98.344689,29.707239,0 -98.354557,29.703864,0 -98.35721999999998,29.703912,0 -98.36232700000001,29.70597,0 -98.371274,29.705,0 -98.375068,29.706369,0 -98.38048700000002,29.703464,0 -98.38082700000001,29.696283,0 -98.37671099999999,29.689041,0 -98.37631500000001,29.687055,0 -98.37754,29.682621,0 -98.38411300000001,29.678591,0 -98.38434100000001,29.676534,0 -98.383139,29.674701,0 -98.381646,29.674085,0 -98.37890599999999,29.662949,0 -98.377117,29.662728,0 -98.36376399999999,29.666732,0 -98.36080200000001,29.665226,0 -98.356629,29.658648,0 -98.345108,29.655058,0 -98.342733,29.653442,0 -98.3434,29.650993,0 -98.347596,29.645051,0 -98.347261,29.642007,0 -98.340541,29.629709,0 -98.340861,29.627541,0 -98.342271,29.62556,0 -98.342715,29.62195,0 -98.345536,29.620041,0 -98.345252,29.618297,0 -98.34233999999999,29.617193,0 -98.339187,29.6131,0 -98.335328,29.611301,0 -98.32856499999998,29.610427,0 -98.32781699999998,29.605819,0 -98.32547300000002,29.603371,0 -98.319328,29.60199100000001,0 -98.31222200000001,29.601802,0 -98.31083099999999,29.598083,0 -98.310928,29.594473,0 -98.31205799999999,29.590854,0 -98.30412100000001,29.584736,0 -98.303927,29.582426,0 -98.306136,29.578635,0 -98.305438,29.576678,0 -98.302903,29.574654,0 -98.302537,29.569888,0 -98.29984999999999,29.566868,0 -98.29802100000001,29.561102,0 -98.294634,29.561558,0 -98.288456,29.559736,0 -98.285712,29.55732,0 -98.28552999999999,29.554763,0 -98.284178,29.553255,0 -98.27906900000002,29.551141,0 -98.273759,29.55126599999999,0 -98.27083999999999,29.548822,0 -98.27038899999999,29.54573,0 -98.26065800000001,29.542349,0 -98.25974600000001,29.541265,0 -98.255377,29.540491,0 -98.253882,29.540982,0 -98.253021,29.54320999999999,0 -98.257806,29.545714,0 -98.25937,29.547487,0 -98.260075,29.550161,0 -98.258826,29.554556,0 -98.257518,29.555248,0 -98.25531499999998,29.554791,0 -98.25457400000001,29.552826,0 -98.25536099999999,29.552332,0 -98.25379599999998,29.550311,0 -98.25144299999999,29.54983199999999,0 -98.248885,29.551521,0 -98.24842099999999,29.555377,0 -98.243162,29.557052,0 -98.23920399999999,29.556575,0 -98.232539,29.554019,0 -98.230695,29.550837,0 -98.229917,29.546846,0 -98.22740899999999,29.547003,0 -98.22635200000001,29.549642,0 -98.22311200000001,29.549236,0 -98.22094,29.546194,0 -98.22185799999998,29.543861,0 -98.229054,29.543436,0 -98.229439,29.54195,0 -98.22439900000001,29.540312,0 -98.222347,29.538464,0 -98.221357,29.53166,0 -98.218689,29.526956,0 -98.21914700000001,29.52393,0 -98.21643600000002,29.524294,0 -98.214372,29.52304,0 -98.210542,29.523393,0 -98.204779,29.52215,0 -98.20133200000001,29.519048,0 -98.20253300000002,29.517705,0 -98.20188500000002,29.516869,0 -98.19857099999999,29.517326,0 -98.196759,29.515335,0 -98.19969000000002,29.513596,0 -98.200237,29.51144499999999,0 -98.198573,29.509365,0 -98.19589100000002,29.510103,0 -98.195356,29.51111,0 -98.190894,29.509461,0 -98.18989999999999,29.505719,0 -98.186318,29.50132,0 -98.18974999999999,29.49665,0 -98.189964,29.492843,0 -98.187592,29.488212,0 -98.185085,29.486089,0 -98.18287100000001,29.484844,0 -98.177074,29.484838,0 -98.17760799999999,29.48717600000001,0 -98.17965100000001,29.489569,0 -98.179092,29.490911,0 -98.18045600000001,29.492782,0 -98.18432300000001,29.492716,0 -98.18491400000001,29.493393,0 -98.18308399999999,29.496655,0 -98.17811,29.497617,0 -98.17633600000001,29.496688,0 -98.17376400000001,29.496627,0 -98.17319900000001,29.494509,0 -98.17219899999999,29.49463,0 -98.17150699999999,29.496747,0 -98.17023000000002,29.497864,0 -98.168344,29.496153,0 -98.168288,29.491169,0 -98.166943,29.489622,0 -98.168767,29.487092,0 -98.166832,29.482036,0 -98.16682,29.479912,0 -98.164638,29.478091,0 -98.16129999999998,29.477716,0 -98.15912400000001,29.478651,0 -98.154163,29.477863,0 -98.15240899999999,29.478616,0 -98.15117600000002,29.480558,0 -98.150156,29.479752,0 -98.150989,29.476278,0 -98.150015,29.475667,0 -98.144229,29.47813,0 -98.14295900000002,29.479741,0 -98.142467,29.481611,0 -98.14398199999998,29.482492,0 -98.14446600000001,29.484231,0 -98.14279299999998,29.484027,0 -98.142792,29.486458,0 -98.13939999999998,29.485355,0 -98.14058,29.484152,0 -98.139449,29.482485,0 -98.13717200000001,29.484234,0 -98.135493,29.484013,0 -98.13709199999998,29.481191,0 -98.13601199999999,29.479136,0 -98.134263,29.478847,0 -98.12820600000001,29.482596,0 -98.126,29.481792,0 -98.122266,29.477497,0 -98.12488000000002,29.475642,0 -98.124087,29.474003,0 -98.122276,29.473019,0 -98.12073599999998,29.473366,0 -98.120853,29.471803,0 -98.118319,29.46863099999999,0 -98.11690200000001,29.463884,0 -98.117774,29.46023,0 -98.12011699999999,29.457567,0 -98.12559399999999,29.45824,0 -98.126864,29.457223,0 -98.12677100000001,29.454736,0 -98.120497,29.449667,0 -98.12107499999999,29.449048,0 -98.12070199999999,29.446982,0 -98.12254700000001,29.446028,0 -98.12519399999999,29.446405,0 -98.128681,29.445363,0 -98.12997499999999,29.443711,0 -98.137187,29.440428,0 -98.28701999999998,29.257626,0 -98.32716292777287,29.20985759095151,0 -98.32643133492137,29.20973850838201,0 -98.32607899999999,29.210715,0 -98.323493,29.211428,0 -98.32131200000001,29.21202,0 -98.31925300000002,29.213507,0 -98.31727100000001,29.212044,0 -98.317246,29.210559,0 -98.31524699999999,29.20928200000001,0 -98.31267800000001,29.208699,0 -98.31144500000001,29.21009,0 -98.312198,29.211623,0 -98.309468,29.212847,0 -98.307997,29.210975,0 -98.306286,29.208923,0 -98.30398700000001,29.210539,0 -98.302351,29.212521,0 -98.299661,29.212126,0 -98.30014599999998,29.209276,0 -98.297899,29.209851,0 -98.29624200000001,29.210771,0 -98.293465,29.210808,0 -98.29156699999999,29.209583,0 -98.28910999999999,29.208686,0 -98.28625200000002,29.209612,0 -98.285175,29.211495,0 -98.28581500000001,29.214226,0 -98.28524400000001,29.215438,0 -98.28380599999998,29.216806,0 -98.28085300000001,29.216728,0 -98.27811,29.21694,0 -98.276242,29.218989,0 -98.27383999999999,29.220337,0 -98.272424,29.221838,0 -98.27074900000001,29.223618,0 -98.26904399999999,29.221889,0 -98.268292,29.219179,0 -98.266201,29.22007199999999,0 -98.26364799999999,29.219171,0 -98.263243,29.216821,0 -98.261763,29.21515,0 -98.259523,29.215379,0 -98.25855999999999,29.2179,0 -98.25567700000001,29.21748699999999,0 -98.25418200000001,29.215066,0 -98.256501,29.213983,0 -98.25913,29.21326,0 -98.25770800000001,29.211418,0 -98.254768,29.21111700000001,0 -98.256716,29.209807,0 -98.25607100000001,29.207797,0 -98.253552,29.206507,0 -98.25518700000001,29.20462,0 -98.2526,29.203305,0 -98.24968599999998,29.20384,0 -98.24717699999999,29.205453,0 -98.24552499999999,29.203512,0 -98.24587100000001,29.201585,0 -98.242926,29.202029,0 -98.24029,29.201439,0 -98.23782300000002,29.200885,0 -98.23631700000001,29.202089,0 -98.23410299999999,29.200928,0 -98.232935,29.203593,0 -98.23100100000001,29.201591,0 -98.22915699999999,29.199691,0 -98.227071,29.197757,0 -98.225088,29.19556,0 -98.22269399999999,29.194617,0 -98.219987,29.195808,0 -98.21909599999999,29.193684,0 -98.218941,29.190817,0 -98.216328,29.18957199999999,0 -98.213539,29.188508,0 -98.210613,29.188245,0 -98.20812599999999,29.18963,0 -98.20556000000001,29.188972,0 -98.20444200000001,29.187256,0 -98.20394400000001,29.184868,0 -98.204689,29.182272,0 -98.20663400000001,29.179983,0 -98.20755800000002,29.177219,0 -98.207188,29.174423,0 -98.20496199999999,29.173147,0 -98.20623500000001,29.170495,0 -98.204336,29.168806,0 -98.202584,29.167528,0 -98.203261,29.164928,0 -98.202602,29.163315,0 -98.199698,29.163976,0 -98.19743899999999,29.164026,0 -98.197119,29.161177,0 -98.194564,29.159946,0 -98.192953,29.157834,0 -98.195418,29.15625,0 -98.19732,29.15425,0 -98.196422,29.151674,0 -98.19518400000001,29.150083,0 -98.196264,29.147316,0 -98.195447,29.144912,0 -98.193,29.144839,0 -98.190321,29.144902,0 -98.18790199999999,29.144485,0 -98.185389,29.144036,0 -98.18677599999999,29.142004,0 -98.18858299999999,29.139923,0 -98.18592600000001,29.139082,0 -98.18356799999998,29.140012,0 -98.182176,29.137528,0 -98.18049000000001,29.135408,0 -98.17854500000001,29.133549,0 -98.17754800000002,29.130877,0 -98.175623,29.129171,0 -98.17317,29.127683,0 -98.17529699999999,29.126263,0 -98.17819899999999,29.126654,0 -98.18059599999998,29.124869,0 -98.182959,29.123014,0 -98.183211,29.120305,0 -98.182408,29.117992,0 -98.184499,29.116991,0 -98.183002,29.114527,0 -98.18049600000001,29.112911,0 -98.17855199999998,29.114785,0 -98.176812,29.116673,0 -98.17475,29.114794,0 -98.17450700000002,29.111951,0 -98.173467,29.109199,0 -98.17134799999999,29.107203,0 -98.16984100000001,29.109264,0 -98.16796999999998,29.108691,0 -98.16612399999998,29.110706,0 -98.16502899999999,29.113102,0 -98.16259800000002,29.112083,0 -98.16323699999998,29.109727,0 -98.162311,29.107629,0 -98.160033,29.109245,0 -98.159723,29.112038,0 -98.15751299999999,29.113578,0 -98.155682,29.111444,0 -98.15583400000001,29.108713,0 -98.156605,29.105837,0 -98.15892100000001,29.104944,0 -98.16174599999999,29.105966,0 -98.163618,29.104718,0 -98.16203500000002,29.10281000000001,0 -98.159407,29.103676,0 -98.158536,29.102107,0 -98.16133700000002,29.101436,0 -98.161648,29.099945,0 -98.160329,29.098271,0 -98.163003,29.09693800000001,0 -98.16467299999999,29.094991,0 -98.162907,29.092706,0 -98.161477,29.090874,0 -98.15859199999998,29.091615,0 -98.155751,29.092591,0 -98.154079,29.091084,0 -98.154848,29.088179,0 -98.15486500000002,29.085255,0 -98.15597599999998,29.082688,0 -98.158261,29.08349,0 -98.16084399999998,29.083669,0 -98.16153300000001,29.081125,0 -98.16086900000001,29.078265,0 -98.161393,29.075425,0 -98.162263,29.073093,0 -98.161446,29.07044,0 -98.16140000000001,29.067563,0 -98.159115,29.065712,0 -98.15938400000002,29.063157,0 -98.16217000000002,29.062584,0 -98.16491599999999,29.0614,0 -98.166079,29.058799,0 -98.16323699999998,29.05881,0 -98.16036099999999,29.059259,0 -98.15813599999998,29.061105,0 -98.155506,29.06199,0 -98.152609,29.061262,0 -98.150842,29.059133,0 -98.148385,29.059004,0 -98.14612200000001,29.058387,0 -98.14444999999999,29.05594899999999,0 -98.14287400000002,29.053561,0 -98.143907,29.051315,0 -98.145476,29.048989,0 -98.14314400000001,29.047956,0 -98.140455,29.04689,0 -98.13835,29.047528,0 -98.136152,29.04885,0 -98.13432700000001,29.04666,0 -98.13193699999999,29.044839,0 -98.131418,29.042226,0 -98.13046799999999,29.039592,0 -98.12776599999999,29.040458,0 -98.12543699999999,29.04064,0 -98.123914,29.038594,0 -98.12127999999998,29.039327,0 -98.11830399999999,29.039652,0 -98.11720200000001,29.037008,0 -98.118617,29.035219,0 -98.116218,29.034404,0 -98.114475,29.032291,0 -98.111796,29.032111,0 -98.112252,29.029319,0 -98.11465800000001,29.027997,0 -98.11585700000001,29.027109,0 -98.113328,29.025807,0 -98.112042,29.023542,0 -98.114008,29.024372,0 -98.11604300000002,29.022765,0 -98.11402499999998,29.021526,0 -98.114408,29.018869,0 -98.113317,29.016737,0 -98.110771,29.018137,0 -98.10982900000002,29.020253,0 -98.108126,29.018013,0 -98.10786299999999,29.015188,0 -98.105008,29.015515,0 -98.10245399999999,29.014811,0 -98.10155299999998,29.011945,0 -98.103368,29.010071,0 -98.10616300000001,29.009516,0 -98.10616400000001,29.006676,0 -98.10592100000001,29.004257,0 -98.10713800000001,29.001764,0 -98.10553400000001,28.999309,0 -98.103762,28.997256,0 -98.10078799999999,28.997007,0 -98.09910000000001,28.995604,0 -98.10029400000002,28.993079,0 -98.10077899999999,28.990189,0 -98.09835699999999,28.988706,0 -98.095794,28.988411,0 -98.09497,28.985537,0 -98.092157,28.985389,0 -98.08918800000001,28.985817,0 -98.086252,28.985177,0 -98.083406,28.985057,0 -98.084234,28.982312,0 -98.086491,28.980387,0 -98.08850199999999,28.978194,0 -98.08776400000001,28.975567,0 -98.086991,28.972776,0 -98.088943,28.970502,0 -98.090721,28.968104,0 -98.092915,28.966052,0 -98.09396700000002,28.963526,0 -98.09188500000002,28.961439,0 -98.0895,28.95962,0 -98.08687399999999,28.958451,0 -98.08399599999998,28.959243,0 -98.08143099999999,28.958904,0 -98.080778,28.955972,0 -98.079339,28.953377,0 -98.076532,28.95321,0 -98.073761,28.954263,0 -98.07078400000002,28.95467,0 -98.067849,28.954598,0 -98.06546099999998,28.952817,0 -98.06423400000001,28.950231,0 -98.06479,28.947343,0 -98.064843,28.944558,0 -98.06701200000001,28.94258,0 -98.06821100000001,28.939896,0 -98.065713,28.939349,0 -98.063205,28.940966,0 -98.06039699999999,28.942018,0 -98.05745399999999,28.942588,0 -98.05503,28.944362,0 -98.05254800000002,28.946039,0 -98.04981899999999,28.947295,0 -98.04732799999999,28.94897,0 -98.044855,28.950675,0 -98.04319899999999,28.953101,0 -98.042946,28.956021,0 -98.044574,28.95846,0 -98.044749,28.96123,0 -98.042687,28.96332,0 -98.040206,28.964785,0 -98.037846,28.966323,0 -98.035402,28.96801,0 -98.032607,28.968842,0 -98.030276,28.967171,0 -98.02856900000002,28.964699,0 -98.026055,28.963246,0 -98.023725,28.964929,0 -98.02215700000002,28.967491,0 -98.02072300000002,28.970115,0 -98.020753,28.973004,0 -98.02115700000002,28.97595,0 -98.019317,28.977645,0 -98.016402,28.977619,0 -98.013499,28.977098,0 -98.010499,28.977245,0 -98.007688,28.978188,0 -98.00506899999999,28.979604,0 -98.00231700000002,28.97848,0 -97.99956599999999,28.977271,0 -97.996645,28.977031,0 -97.993734,28.97662,0 -97.99137400000001,28.97478,0 -97.988708,28.97344,0 -97.98752199999998,28.970726,0 -97.985055,28.969291,0 -97.98362499999999,28.966669,0 -97.982184,28.964041,0 -97.98087599999999,28.961392,0 -97.980532,28.958415,0 -97.97888599999999,28.956282,0 -97.97682500000001,28.954122,0 -97.97589000000001,28.951286,0 -97.974256,28.948909,0 -97.97155600000001,28.947592,0 -97.96945700000001,28.948467,0 -97.969514,28.95122,0 -97.96677099999999,28.951992,0 -97.963871,28.952339,0 -97.96329400000002,28.949682,0 -97.96401299999999,28.946964,0 -97.96151100000002,28.945329,0 -97.959299,28.943296,0 -97.95722800000001,28.941127,0 -97.95489500000001,28.939273,0 -97.954319,28.936509,0 -97.95342100000001,28.934112,0 -97.950971,28.935341,0 -97.948629,28.937153,0 -97.94623399999999,28.936086,0 -97.94679400000001,28.933229,0 -97.94638399999999,28.930639,0 -97.94352399999998,28.931406,0 -97.940551,28.931362,0 -97.93774399999998,28.932396,0 -97.935141,28.933851,0 -97.93264299999998,28.935485,0 -97.93032799999999,28.934121,0 -97.928877,28.931527,0 -97.92618000000002,28.930618,0 -97.92335199999999,28.931523,0 -97.92156,28.933602,0 -97.922078,28.936527,0 -97.92058599999999,28.938633,0 -97.91792199999999,28.938331,0 -97.917646,28.935528,0 -97.915021,28.93645,0 -97.91251800000001,28.938111,0 -97.90965,28.938966,0 -97.906784,28.9396,0 -97.904911,28.9419,0 -97.902748,28.943953,0 -97.90006900000002,28.944792,0 -97.897367,28.943646,0 -97.895212,28.94425,0 -97.893036,28.946086,0 -97.89046299999998,28.947637,0 -97.88761599999999,28.948341,0 -97.884623,28.948314,0 -97.88165499999999,28.947885,0 -97.878715,28.947267,0 -97.875719,28.947285,0 -97.87469900000001,28.949489,0 -97.87508699999999,28.952459,0 -97.872243,28.95265699999999,0 -97.86926,28.952722,0 -97.86638300000001,28.952018,0 -97.86340799999999,28.951897,0 -97.860646,28.950921,0 -97.858198,28.952025,0 -97.85541000000001,28.953108,0 -97.852582,28.953193,0 -97.85158699999999,28.95104299999999,0 -97.85393599999999,28.949171,0 -97.854598,28.946434,0 -97.852726,28.944373,0 -97.85015600000001,28.943011,0 -97.84751199999998,28.942783,0 -97.845082,28.94455,0 -97.84233,28.944364,0 -97.839331,28.944538,0 -97.837577,28.942759,0 -97.83627300000001,28.94028,0 -97.834569,28.937884,0 -97.83171500000002,28.936952,0 -97.82896399999998,28.937602,0 -97.826216,28.938665,0 -97.82329399999999,28.938634,0 -97.82049499999999,28.937701,0 -97.819525,28.934977,0 -97.82118700000001,28.933267,0 -97.824071,28.93244899999999,0 -97.824719,28.930315,0 -97.82305500000001,28.928069,0 -97.820104,28.927683,0 -97.818062,28.928447,0 -97.816779,28.93108700000001,0 -97.81614500000001,28.933935,0 -97.8146,28.936342,0 -97.812597,28.935086,0 -97.81201799999999,28.932138,0 -97.813447,28.929593,0 -97.81238500000001,28.92684,0 -97.811082,28.924133,0 -97.809573,28.921541,0 -97.80779,28.919144,0 -97.80484999999999,28.918536,0 -97.80199500000001,28.917646,0 -97.79905599999999,28.917089,0 -97.79608399999999,28.916654,0 -97.793311,28.91576299999999,0 -97.794135,28.913365,0 -97.79689999999999,28.912322,0 -97.79888699999999,28.910329,0 -97.797113,28.908336,0 -97.794521,28.906962,0 -97.792153,28.905302,0 -97.789823,28.903561,0 -97.786939,28.903047,0 -97.78730900000001,28.900618,0 -97.789973,28.899229,0 -97.791122,28.896607,0 -97.79116500000001,28.89361,0 -97.789822,28.890996,0 -97.78826599999999,28.888562,0 -97.78650000000002,28.886136,0 -97.784015,28.884824,0 -97.781149,28.885723,0 -97.778864,28.88756,0 -97.77623299999999,28.887773,0 -97.774153,28.885692,0 -97.772884,28.882978,0 -97.76988,28.882998,0 -97.76822900000002,28.881001,0 -97.77007399999999,28.878723,0 -97.77262,28.877138,0 -97.77364900000001,28.874439,0 -97.771677,28.873472,0 -97.769001,28.874152,0 -97.767056,28.87641500000001,0 -97.765216,28.87876,0 -97.762694,28.880309,0 -97.75976799999998,28.88086,0 -97.756816,28.880525,0 -97.754881,28.878317,0 -97.75462,28.875518,0 -97.756202,28.87444,0 -97.756603,28.872051,0 -97.755376,28.869309,0 -97.75645799999999,28.86652,0 -97.756923,28.863667,0 -97.75416299999999,28.86289,0 -97.75161600000001,28.861397,0 -97.749624,28.85918,0 -97.749146,28.856279,0 -97.74810100000001,28.853658,0 -97.750714,28.853034,0 -97.753112,28.852089,0 -97.753545,28.849674,0 -97.75161799999999,28.847843,0 -97.74883199999999,28.848771,0 -97.74861899999999,28.850861,0 -97.74570900000001,28.851607,0 -97.742777,28.85155,0 -97.73993299999999,28.85208,0 -97.74070000000002,28.854521,0 -97.737904,28.855072,0 -97.73510600000002,28.854882,0 -97.734967,28.852528,0 -97.73723699999999,28.850559,0 -97.73688300000001,28.848498,0 -97.735133,28.846095,0 -97.73281299999999,28.844539,0 -97.729904,28.843788,0 -97.726995,28.843037,0 -97.72408700000001,28.842286,0 -97.722032,28.84063,0 -97.72174800000001,28.837639,0 -97.721464,28.834649,0 -97.722891,28.832237,0 -97.725567,28.830893,0 -97.72806,28.829317,0 -97.72865600000002,28.826604,0 -97.72829299999999,28.823625,0 -97.72753999999999,28.820721,0 -97.72717400000001,28.817739,0 -97.72667799999999,28.814781,0 -97.72588399999999,28.811903,0 -97.72408900000001,28.809494,0 -97.721988,28.807397,0 -97.71920799999999,28.80672,0 -97.716347,28.807614,0 -97.713419,28.807427,0 -97.712641,28.805664,0 -97.71511199999999,28.804398,0 -97.71525300000002,28.80198,0 -97.713308,28.799692,0 -97.711607,28.797215,0 -97.709491,28.795112,0 -97.707069,28.793359,0 -97.705353,28.791324,0 -97.70516199999999,28.788325,0 -97.70496999999999,28.785327,0 -97.70426399999999,28.78244,0 -97.70398400000001,28.779462,0 -97.702494,28.777121,0 -97.699617,28.776281,0 -97.69738700000001,28.775311,0 -97.69542899999999,28.773783,0 -97.693071,28.772367,0 -97.693342,28.769392,0 -97.694723,28.766877,0 -97.696276,28.764434,0 -97.695447,28.761604,0 -97.69401099999999,28.758965,0 -97.693378,28.756033,0 -97.691568,28.753646,0 -97.689724,28.751274,0 -97.68711799999998,28.750092,0 -97.684116,28.750053,0 -97.68115400000001,28.750424,0 -97.68007000000001,28.752641,0 -97.68047300000001,28.75559,0 -97.67955799999999,28.758396,0 -97.67771399999999,28.760723,0 -97.67502599999999,28.762004,0 -97.672106,28.76271,0 -97.66916000000001,28.763225,0 -97.66616500000001,28.763157,0 -97.66318600000001,28.76277,0 -97.66025,28.762178,0 -97.65742899999999,28.761178,0 -97.655162,28.759283,0 -97.653772,28.756724,0 -97.65386700000001,28.753721,0 -97.65255500000001,28.751074,0 -97.65030899999998,28.749259,0 -97.64734300000001,28.748882,0 -97.64512900000001,28.747938,0 -97.64512299999998,28.745098,0 -97.64481499999998,28.742575,0 -97.645021,28.739702,0 -97.64398,28.736924,0 -97.643108,28.734067,0 -97.643269,28.731369,0 -97.64466999999999,28.728931,0 -97.64406200000001,28.726055,0 -97.64275600000001,28.72335,0 -97.64124199999999,28.720773,0 -97.638863,28.718995,0 -97.637197,28.716667,0 -97.63444699999998,28.716836,0 -97.63154299999999,28.716064,0 -97.62856600000001,28.715671,0 -97.625579,28.715663,0 -97.62263400000002,28.716139,0 -97.619715,28.715926,0 -97.61689,28.716578,0 -97.613973,28.717291,0 -97.611096,28.716453,0 -97.61000300000001,28.714114,0 -97.610203,28.71112,0 -97.610591,28.708235,0 -97.608479,28.706133,0 -97.60692299999999,28.703931,0 -97.60865200000001,28.701528,0 -97.610589,28.699407,0 -97.60939399999999,28.696757,0 -97.60698600000002,28.694975,0 -97.604297,28.693635,0 -97.60180399999999,28.691965,0 -97.59908,28.690747,0 -97.59644500000002,28.691785,0 -97.593559,28.692618,0 -97.590704,28.693521,0 -97.587891,28.694281,0 -97.585645,28.692371,0 -97.584287,28.689896,0 -97.58271000000001,28.687726,0 -97.57986000000001,28.686974,0 -97.57689100000002,28.687101,0 -97.57394799999999,28.6865,0 -97.571389,28.685394,0 -97.57197900000001,28.682534,0 -97.572952,28.679692,0 -97.57155899999999,28.67781,0 -97.569033,28.678283,0 -97.566845,28.680263,0 -97.56421,28.681646,0 -97.56194000000001,28.680817,0 -97.561093,28.678058,0 -97.563773,28.677711,0 -97.56598099999999,28.676007,0 -97.565291,28.673232,0 -97.564826,28.670264,0 -97.56287200000001,28.668662,0 -97.561258,28.666244,0 -97.55838400000002,28.665717,0 -97.55543299999999,28.665633,0 -97.55466,28.667394,0 -97.55630600000001,28.66981,0 -97.557619,28.672469,0 -97.557508,28.67541,0 -97.55660899999999,28.678027,0 -97.55369900000001,28.67728,0 -97.55169299999999,28.675474,0 -97.55138599999999,28.672505,0 -97.54980999999999,28.669978,0 -97.54695300000002,28.669693,0 -97.544009,28.669973,0 -97.54270699999999,28.672588,0 -97.540487,28.67406,0 -97.54057300000001,28.671648,0 -97.54013999999999,28.668906,0 -97.538599,28.666403,0 -97.537093,28.663896,0 -97.53595199999999,28.661117,0 -97.53481100000002,28.658338,0 -97.532697,28.656268,0 -97.530067,28.654923,0 -97.527625,28.653512,0 -97.525921,28.651085,0 -97.52439699999998,28.648534,0 -97.52368599999998,28.645615,0 -97.52477400000001,28.6433,0 -97.527117,28.642648,0 -97.52888700000001,28.644538,0 -97.52894499999999,28.641698,0 -97.52652200000001,28.639978,0 -97.52353499999998,28.639656,0 -97.520691,28.640497,0 -97.518124,28.642022,0 -97.515647,28.643722,0 -97.51326,28.645535,0 -97.512603,28.648209,0 -97.511055,28.650163,0 -97.508612,28.648413,0 -97.50616999999998,28.646664,0 -97.50416800000001,28.644483,0 -97.501316,28.643928,0 -97.49834300000001,28.644319,0 -97.495344,28.64416,0 -97.492484,28.643255,0 -97.489799,28.641909,0 -97.487011,28.642354,0 -97.48459,28.644132,0 -97.48216899999998,28.645911,0 -97.479491,28.647251,0 -97.476671,28.648014,0 -97.47398699999998,28.64698,0 -97.47159499999999,28.645181,0 -97.46877200000002,28.644834,0 -97.466279,28.64651,0 -97.46344199999999,28.647016,0 -97.460815,28.64847200000001,0 -97.457914,28.648691,0 -97.45523900000001,28.647747,0 -97.453945,28.645645,0 -97.454519,28.642732,0 -97.452254,28.641317,0 -97.44956000000001,28.642205,0 -97.446934,28.643664,0 -97.44430699999998,28.645122,0 -97.44145899999999,28.645676,0 -97.43964699999999,28.647849,0 -97.43988800000001,28.650772,0 -97.441345,28.653377,0 -97.44138599999999,28.655836,0 -97.43850099999999,28.656433,0 -97.435513,28.656386,0 -97.433267,28.654856,0 -97.43335300000001,28.651941,0 -97.431151,28.650252,0 -97.428229,28.649655,0 -97.42545800000001,28.648535,0 -97.422917,28.646933,0 -97.42139400000001,28.644436,0 -97.420813,28.641545,0 -97.42139899999999,28.638624,0 -97.42228799999999,28.635755,0 -97.42178099999998,28.632984,0 -97.419078,28.632918,0 -97.417034,28.63512,0 -97.415401,28.63758,0 -97.41367200000001,28.640027,0 -97.411883,28.642441,0 -97.41078400000001,28.6452,0 -97.40808500000001,28.645646,0 -97.40597,28.643574,0 -97.403891,28.643681,0 -97.402941,28.646162,0 -97.40292499999998,28.64906,0 -97.40230500000001,28.65148,0 -97.399851,28.653215,0 -97.397398,28.654949,0 -97.395501,28.657226,0 -97.393536,28.659464,0 -97.39151200000002,28.661668,0 -97.388772,28.661467,0 -97.387539,28.659182,0 -97.389652,28.657125,0 -97.39001899999998,28.654423,0 -97.38854499999999,28.651887,0 -97.386432,28.649791,0 -97.383498,28.650134,0 -97.38167199999999,28.652287,0 -97.38017600000001,28.654893,0 -97.377995,28.656206,0 -97.37550900000001,28.654593,0 -97.372573,28.65454799999999,0 -97.369573,28.654705,0 -97.366629,28.654202,0 -97.36369700000002,28.653544,0 -97.36110000000001,28.652142,0 -97.359745,28.650257,0 -97.36149300000001,28.647887,0 -97.36085199999998,28.645138,0 -97.358041,28.645314,0 -97.35535299999999,28.646569,0 -97.35263700000002,28.64543,0 -97.34967899999999,28.645077,0 -97.346682,28.64487,0 -97.34383199999999,28.644096,0 -97.34095799999999,28.643364,0 -97.33821500000002,28.642367,0 -97.335658,28.640804,0 -97.33452800000001,28.638852,0 -97.33454899999998,28.636048,0 -97.33239799999998,28.6343,0 -97.330186,28.63586,0 -97.32780300000002,28.637557,0 -97.32499,28.638518,0 -97.322025,28.639001,0 -97.319059,28.639483,0 -97.316236,28.640465,0 -97.31379000000001,28.642132,0 -97.31105700000002,28.64338,0 -97.308166,28.643414,0 -97.30546200000001,28.642261,0 -97.304536,28.639459,0 -97.303884,28.636639,0 -97.30610400000002,28.634824,0 -97.30901699999998,28.635557,0 -97.31188,28.635004,0 -97.31463100000001,28.633796,0 -97.31713300000001,28.632263,0 -97.316676,28.629439,0 -97.31552599999999,28.626691,0 -97.31338599999999,28.624634,0 -97.31063599999999,28.623666,0 -97.30820500000002,28.625243,0 -97.305572,28.626483,0 -97.302616,28.626714,0 -97.299623,28.626451,0 -97.29745200000001,28.628263,0 -97.295879,28.630823,0 -97.29430000000001,28.633378,0 -97.292395,28.635701,0 -97.29093799999998,28.638237,0 -97.29033999999999,28.641181,0 -97.28974200000002,28.644125,0 -97.28845800000001,28.646831,0 -97.28693100000001,28.649408,0 -97.285168,28.651841,0 -97.283185,28.654086,0 -97.28061099999998,28.65529799999999,0 -97.27781400000002,28.654348,0 -97.275469,28.652549,0 -97.273944,28.649975,0 -97.27271999999999,28.647232,0 -97.271111,28.644697,0 -97.27020899999999,28.641849,0 -97.26942099999999,28.63895,0 -97.26778899999999,28.636526,0 -97.26525700000002,28.634976,0 -97.26232299999999,28.634557,0 -97.25943599999999,28.634985,0 -97.257087,28.636801,0 -97.256986,28.639534,0 -97.25418999999999,28.640529,0 -97.251205,28.640619,0 -97.25003599999999,28.638406,0 -97.25059299999999,28.63553,0 -97.249461,28.632756,0 -97.24806,28.63022,0 -97.24628300000001,28.62787,0 -97.24528899999999,28.625098,0 -97.242919,28.623278,0 -97.241167,28.620867,0 -97.241862,28.61798,0 -97.242306,28.615191,0 -97.24226600000001,28.612218,0 -97.242074,28.609321,0 -97.239636,28.608658,0 -97.237995,28.61108,0 -97.235174,28.611483,0 -97.232179,28.611246,0 -97.22946,28.612358,0 -97.22675999999998,28.612643,0 -97.226237,28.609732,0 -97.225262,28.607078,0 -97.22245499999998,28.606387,0 -97.220015,28.604912,0 -97.21775300000002,28.602936,0 -97.21490100000001,28.602715,0 -97.21467,28.60501,0 -97.215777,28.607527,0 -97.215738,28.610531,0 -97.214732,28.613031,0 -97.212249,28.614462,0 -97.21029999999999,28.616714,0 -97.20742300000001,28.61753,0 -97.20513699999998,28.619152,0 -97.20352099999999,28.621644,0 -97.200883,28.623057,0 -97.198427,28.624786,0 -97.19627499999999,28.626786,0 -97.19593199999998,28.629743,0 -97.195235,28.632666,0 -97.193664,28.635079,0 -97.191006,28.63533,0 -97.18887100000001,28.633302,0 -97.186217,28.632296,0 -97.18708700000001,28.630345,0 -97.18834200000001,28.628222,0 -97.18563399999999,28.627292,0 -97.18301099999998,28.627982,0 -97.181009,28.626653,0 -97.18309199999999,28.624656,0 -97.18606399999999,28.624776,0 -97.18607900000002,28.62314900000001,0 -97.184476,28.620961,0 -97.183145,28.618271,0 -97.18233099999999,28.615482,0 -97.18364,28.61288,0 -97.182276,28.610349,0 -97.18133899999999,28.607495,0 -97.18011700000001,28.604759,0 -97.17832300000001,28.602391,0 -97.176222,28.600243,0 -97.175321,28.597574,0 -97.17594200000001,28.594695,0 -97.173489,28.593781,0 -97.17098199999998,28.592824,0 -97.170176,28.590092,0 -97.167675,28.588609,0 -97.16503400000001,28.587176,0 -97.16239299999999,28.585743,0 -97.163794,28.584102,0 -97.165817,28.585199,0 -97.16859100000002,28.586315,0 -97.171369,28.586656,0 -97.17017000000001,28.584273,0 -97.167458,28.58336299999999,0 -97.165764,28.581046,0 -97.168514,28.580478,0 -97.17063900000001,28.578846,0 -97.16897899999998,28.576732,0 -97.166803,28.577449,0 -97.164542,28.577141,0 -97.163124,28.57462,0 -97.16272499999999,28.571651,0 -97.16045099999999,28.571942,0 -97.15866800000001,28.574327,0 -97.15744999999998,28.572873,0 -97.15579099999999,28.571043,0 -97.153633,28.569271,0 -97.155187,28.567557,0 -97.15815499999998,28.567916,0 -97.15786900000001,28.56563299999999,0 -97.15978699999998,28.564366,0 -97.16239000000002,28.565555,0 -97.16394700000001,28.564116,0 -97.161345,28.563918,0 -97.16086300000001,28.561854,0 -97.163715,28.561042,0 -97.163783,28.559266,0 -97.161703,28.557971,0 -97.162741,28.555799,0 -97.160839,28.553529,0 -97.160691,28.550569,0 -97.158114,28.551202,0 -97.156256,28.550064,0 -97.15562199999999,28.547914,0 -97.15324800000002,28.54961,0 -97.151533,28.549613,0 -97.149907,28.547547,0 -97.14733200000001,28.5465,0 -97.14666300000002,28.549333,0 -97.14445000000001,28.548669,0 -97.14239499999999,28.54969,0 -97.14105599999999,28.552245,0 -97.13915999999999,28.553992,0 -97.13751000000001,28.551611,0 -97.13555100000001,28.549504,0 -97.13359399999999,28.551128,0 -97.130989,28.550217,0 -97.131052,28.547848,0 -97.12869499999998,28.546203,0 -97.12693400000001,28.546482,0 -97.12581,28.54898,0 -97.125309,28.546439,0 -97.12352,28.54521,0 -97.123058,28.547233,0 -97.122359,28.549239,0 -97.11981900000001,28.547856,0 -97.11882600000001,28.546738,0 -97.11730300000001,28.548815,0 -97.114676,28.549517,0 -97.112846,28.551753,0 -97.110388,28.55348,0 -97.107516,28.55422,0 -97.10456100000002,28.554761,0 -97.103171,28.552567,0 -97.103341,28.550181,0 -97.100413,28.550053,0 -97.09980000000002,28.549043,0 -97.10266,28.548481,0 -97.101073,28.546865,0 -97.09810900000001,28.54735700000001,0 -97.09674700000001,28.546262,0 -97.09827,28.544107,0 -97.09573899999999,28.544512,0 -97.094919,28.543674,0 -97.095642,28.541348,0 -97.09472700000001,28.538487,0 -97.092263,28.538003,0 -97.091724,28.540103,0 -97.09050799999999,28.537702,0 -97.09099399999999,28.534932,0 -97.08884099999999,28.534039,0 -97.08911000000001,28.536623,0 -97.08655199999998,28.535736,0 -97.08728000000001,28.53322,0 -97.08508600000002,28.533328,0 -97.08296099999998,28.534738,0 -97.08209899999999,28.532237,0 -97.080623,28.534628,0 -97.079472,28.533946,0 -97.07737,28.534306,0 -97.077279,28.537309,0 -97.07983,28.536923,0 -97.08027499999999,28.539546,0 -97.082367,28.541628,0 -97.081153,28.543349,0 -97.079628,28.545564,0 -97.076949,28.544396,0 -97.07501499999999,28.544946,0 -97.07256100000001,28.546653,0 -97.07046800000001,28.545494,0 -97.07099100000002,28.543422,0 -97.07027799999999,28.542658,0 -97.06791800000001,28.544353,0 -97.06588499999998,28.542681,0 -97.06368999999998,28.543714,0 -97.06241199999999,28.542976,0 -97.062895,28.540851,0 -97.060132,28.541731,0 -97.05984100000001,28.543368,0 -97.059157,28.545193,0 -97.061892,28.546131,0 -97.061176,28.547507,0 -97.058286,28.54708,0 -97.056343,28.548999,0 -97.054717,28.549274,0 -97.05226399999999,28.548931,0 -97.052391,28.546327,0 -97.04985900000001,28.546184,0 -97.048778,28.548853,0 -97.04753799999999,28.549499,0 -97.04517800000001,28.550051,0 -97.04636499999999,28.548338,0 -97.04777799999999,28.546698,0 -97.04574899999999,28.544763,0 -97.04409,28.542656,0 -97.04624200000002,28.541518,0 -97.04754699999999,28.539742,0 -97.04836400000001,28.538945,0 -97.047797,28.536731,0 -97.05073600000001,28.536815,0 -97.05095900000002,28.53503,0 -97.04795799999999,28.535153,0 -97.045281,28.534575,0 -97.04458,28.531894,0 -97.041596,28.531549,0 -97.03931300000001,28.533164,0 -97.037052,28.534975,0 -97.03427600000001,28.534177,0 -97.03316399999999,28.531562,0 -97.03166699999998,28.529001,0 -97.030919,28.52634,0 -97.02870799999998,28.52432,0 -97.027922,28.52152,0 -97.027136,28.518687,0 -97.02622100000001,28.515829,0 -97.024649,28.513305,0 -97.02262,28.511119,0 -97.02022900000001,28.509329,0 -97.01742799999998,28.508243,0 -97.01465400000001,28.50883,0 -97.011731,28.508964,0 -97.00873200000001,28.508776,0 -97.00573799999999,28.508818,0 -97.00275499999999,28.508918,0 -96.99978,28.50869,0 -96.99678500000002,28.508923,0 -96.994812,28.508157,0 -96.99480100000001,28.505436,0 -96.99287900000002,28.503296,0 -96.990077,28.502262,0 -96.987435,28.500831,0 -96.98466200000001,28.500099,0 -96.98191799999999,28.499803,0 -96.97965900000001,28.501528,0 -96.97775000000001,28.503014,0 -96.974919,28.503959,0 -96.97199000000001,28.504629,0 -96.969048,28.505058,0 -96.96606400000002,28.504715,0 -96.963528,28.503596,0 -96.960977,28.503378,0 -96.958022,28.503724,0 -96.95545399999999,28.504121,0 -96.952906,28.503601,0 -96.95098400000001,28.502125,0 -96.948774,28.501056,0 -96.94607499999999,28.500441,0 -96.943411,28.499358,0 -96.94063199999999,28.4989,0 -96.93785600000001,28.497827,0 -96.93524900000001,28.496636,0 -96.93325299999998,28.494391,0 -96.931107,28.493053,0 -96.928905,28.491437,0 -96.926609,28.489508,0 -96.92401099999999,28.488376,0 -96.921094,28.488145,0 -96.91844500000001,28.487234,0 -96.916633,28.487033,0 -96.91482499999999,28.48669,0 -96.91229899999999,28.488012,0 -96.91069299999999,28.488813,0 -96.910207,28.490965,0 -96.911551,28.493472,0 -96.91343000000001,28.494902,0 -96.915727,28.49674,0 -96.91527000000002,28.499245,0 -96.912792,28.500851,0 -96.910619,28.502907,0 -96.908103,28.50455,0 -96.90573000000001,28.506344,0 -96.90283599999999,28.506679,0 -96.90229600000001,28.508812,0 -96.90089900000001,28.509222,0 -96.897929,28.508922,0 -96.895268,28.50781,0 -96.89294000000001,28.506031,0 -96.89084699999999,28.507261,0 -96.880212749688,28.50435005879224,0 -96.88056820056758,28.4962501482126,0 -96.86325382553183,28.48925254935468,0 -96.86335588411875,28.47655879023184,0 -96.84127097127195,28.46872137560274,0 -96.83967803916872,28.45798890814035,0 -96.82683463222037,28.44641642710312,0 -96.82173835021713,28.4581749840149,0 -96.79914143484422,28.46768080590961,0 -96.75773641995085,28.4286336580418,0 -96.76643680815762,28.36797675653211,0 -96.74852718995373,28.22781847886307,0 -96.82948115975677,28.18431518292729,0 -96.82860124525942,28.11331633439519,0 -96.84197349544333,28.08934729645362,0 -96.8494785609897,28.06336247523433,0 -96.80384540735938,27.85139831129043,0 -80.68932288522923,24.07235062154095,0 
					</coordinates>
				</LineString>
			</Placemark>
		</Folder>
	</Folder>
</Document>
</kml>
