<?xml version='1.0' encoding='UTF-8'?>
<kml xmlns="http://www.opengis.net/kml/2.2" xmlns:gx="http://www.google.com/kml/ext/2.2">
  <Document>
    <name>2050 Climate</name>
    <visibility>0</visibility>
    <gx:CascadingStyle id="__managed_style_0000000000000271">
      <Style>
        <IconStyle>
          <Icon>
            <href>https://earth.google.com/earth/document/icon?color=1976d2&amp;id=2000&amp;scale=4</href>
          </Icon>
          <hotSpot x="64" y="128" xunits="pixels" yunits="insetPixels"/>
        </IconStyle>
        <LabelStyle/>
        <LineStyle>
          <color>ff55b0b0</color>
          <width>0.5</width>
        </LineStyle>
        <PolyStyle>
          <color>4055b0b0</color>
        </PolyStyle>
        <BalloonStyle>
          <displayMode>hide</displayMode>
        </BalloonStyle>
      </Style>
    </gx:CascadingStyle>
    <gx:CascadingStyle id="__managed_style_0000000000000272">
      <Style>
        <IconStyle>
          <Icon>
            <href>https://earth.google.com/earth/document/icon?color=1976d2&amp;id=2000&amp;scale=4</href>
          </Icon>
          <hotSpot x="64" y="128" xunits="pixels" yunits="insetPixels"/>
        </IconStyle>
        <LabelStyle/>
        <LineStyle>
          <color>ff55b0b0</color>
          <width>1.0</width>
        </LineStyle>
        <PolyStyle>
          <color>4055b0b0</color>
        </PolyStyle>
        <BalloonStyle>
          <displayMode>hide</displayMode>
        </BalloonStyle>
      </Style>
    </gx:CascadingStyle>
    <StyleMap id="__managed_style_0000000000000273">
      <Pair>
        <key>normal</key>
        <styleUrl>#__managed_style_0000000000000271</styleUrl>
      </Pair>
      <Pair>
        <key>highlight</key>
        <styleUrl>#__managed_style_0000000000000272</styleUrl>
      </Pair>
    </StyleMap>
    <Folder id="2">
            <name>Köppen-Geiger Climate Classification (2050)</name>
            <Folder id="3">
                <name>A — Tropical Climates</name>
                <Folder id="8">
                    <Style id="13">
                        <LineStyle id="15">
                            <color>FF0000FF</color>
                            <colorMode>normal</colorMode>
                            <width>0.5</width>
                        </LineStyle>
                        <PolyStyle id="14">
                            <color>800000FF</color>
                            <colorMode>normal</colorMode>
                            <fill>1</fill>
                            <outline>1</outline>
                        </PolyStyle>
                    </Style>
                    <name>Af</name>
                    <Placemark id="10">
                        <name>Af</name>
                        <description>Köppen-Geiger climate zone: Af (Tropical Rainforest) — 2050 projection under SSP3-7.0. See: 2050-snapshot/domains/climate.md#global-climate-state</description>
                        <styleUrl>#13</styleUrl>
                        <Polygon id="9">
                            <altitudeMode>clampToGround</altitudeMode>
                            <outerBoundaryIs>
                                <LinearRing id="11">
                                    <coordinates>-60.0,-15.0,0 -60.0,15.0,0 -180.0,15.0,0 -180.0,-15.0,0 -60.0,-15.0,0</coordinates>
                                </LinearRing>
                            </outerBoundaryIs>
                        </Polygon>
                    </Placemark>
                </Folder>
                <Folder id="16">
                    <Style id="21">
                        <LineStyle id="23">
                            <color>FF0078FF</color>
                            <colorMode>normal</colorMode>
                            <width>0.5</width>
                        </LineStyle>
                        <PolyStyle id="22">
                            <color>800078FF</color>
                            <colorMode>normal</colorMode>
                            <fill>1</fill>
                            <outline>1</outline>
                        </PolyStyle>
                    </Style>
                    <name>Am</name>
                    <Placemark id="18">
                        <name>Am</name>
                        <description>Köppen-Geiger climate zone: Am (Tropical Monsoon) — 2050 projection under SSP3-7.0. See: 2050-snapshot/domains/climate.md#global-climate-state</description>
                        <styleUrl>#21</styleUrl>
                        <Polygon id="17">
                            <altitudeMode>clampToGround</altitudeMode>
                            <outerBoundaryIs>
                                <LinearRing id="19">
                                    <coordinates>60.0,-15.0,0 60.0,15.0,0 -60.0,15.0,0 -60.0,-15.0,0 60.0,-15.0,0</coordinates>
                                </LinearRing>
                            </outerBoundaryIs>
                        </Polygon>
                    </Placemark>
                </Folder>
                <Folder id="24">
                    <Style id="29">
                        <LineStyle id="31">
                            <color>FF46AAFA</color>
                            <colorMode>normal</colorMode>
                            <width>0.5</width>
                        </LineStyle>
                        <PolyStyle id="30">
                            <color>8046AAFA</color>
                            <colorMode>normal</colorMode>
                            <fill>1</fill>
                            <outline>1</outline>
                        </PolyStyle>
                    </Style>
                    <name>Aw</name>
                    <Placemark id="26">
                        <name>Aw</name>
                        <description>Köppen-Geiger climate zone: Aw (Tropical Savannah) — 2050 projection under SSP3-7.0. See: 2050-snapshot/domains/climate.md#global-climate-state</description>
                        <styleUrl>#29</styleUrl>
                        <Polygon id="25">
                            <altitudeMode>clampToGround</altitudeMode>
                            <outerBoundaryIs>
                                <LinearRing id="27">
                                    <coordinates>180.0,-15.0,0 180.0,15.0,0 60.0,15.0,0 60.0,-15.0,0 180.0,-15.0,0</coordinates>
                                </LinearRing>
                            </outerBoundaryIs>
                        </Polygon>
                    </Placemark>
                </Folder>
            </Folder>
            <Folder id="4">
                <name>B — Arid Climates</name>
                <Folder id="32">
                    <Style id="37">
                        <LineStyle id="39">
                            <color>FFFE0000</color>
                            <colorMode>normal</colorMode>
                            <width>0.5</width>
                        </LineStyle>
                        <PolyStyle id="38">
                            <color>80FE0000</color>
                            <colorMode>normal</colorMode>
                            <fill>1</fill>
                            <outline>1</outline>
                        </PolyStyle>
                    </Style>
                    <name>BWh</name>
                    <Placemark id="34">
                        <name>BWh</name>
                        <description>Köppen-Geiger climate zone: BWh (Hot Desert) — 2050 projection under SSP3-7.0. See: 2050-snapshot/domains/climate.md#global-climate-state</description>
                        <styleUrl>#37</styleUrl>
                        <Polygon id="33">
                            <altitudeMode>clampToGround</altitudeMode>
                            <outerBoundaryIs>
                                <LinearRing id="35">
                                    <coordinates>90.0,15.0,0 90.0,38.0,0 0.0,38.0,0 0.0,15.0,0 90.0,15.0,0</coordinates>
                                </LinearRing>
                            </outerBoundaryIs>
                        </Polygon>
                    </Placemark>
                </Folder>
                <Folder id="40">
                    <Style id="45">
                        <LineStyle id="47">
                            <color>FFFE9695</color>
                            <colorMode>normal</colorMode>
                            <width>0.5</width>
                        </LineStyle>
                        <PolyStyle id="46">
                            <color>80FE9695</color>
                            <colorMode>normal</colorMode>
                            <fill>1</fill>
                            <outline>1</outline>
                        </PolyStyle>
                    </Style>
                    <name>BWk</name>
                    <Placemark id="42">
                        <name>BWk</name>
                        <description>Köppen-Geiger climate zone: BWk (Cold Desert) — 2050 projection under SSP3-7.0. See: 2050-snapshot/domains/climate.md#global-climate-state</description>
                        <styleUrl>#45</styleUrl>
                        <Polygon id="41">
                            <altitudeMode>clampToGround</altitudeMode>
                            <outerBoundaryIs>
                                <LinearRing id="43">
                                    <coordinates>180.0,15.0,0 180.0,38.0,0 90.0,38.0,0 90.0,15.0,0 180.0,15.0,0</coordinates>
                                </LinearRing>
                            </outerBoundaryIs>
                        </Polygon>
                    </Placemark>
                </Folder>
                <Folder id="48">
                    <Style id="53">
                        <LineStyle id="55">
                            <color>FFF5A505</color>
                            <colorMode>normal</colorMode>
                            <width>0.5</width>
                        </LineStyle>
                        <PolyStyle id="54">
                            <color>80F5A505</color>
                            <colorMode>normal</colorMode>
                            <fill>1</fill>
                            <outline>1</outline>
                        </PolyStyle>
                    </Style>
                    <name>BSh</name>
                    <Placemark id="50">
                        <name>BSh</name>
                        <description>Köppen-Geiger climate zone: BSh (Hot Semi-arid) — 2050 projection under SSP3-7.0. See: 2050-snapshot/domains/climate.md#global-climate-state</description>
                        <styleUrl>#53</styleUrl>
                        <Polygon id="49">
                            <altitudeMode>clampToGround</altitudeMode>
                            <outerBoundaryIs>
                                <LinearRing id="51">
                                    <coordinates>-90.0,15.0,0 -90.0,38.0,0 -180.0,38.0,0 -180.0,15.0,0 -90.0,15.0,0</coordinates>
                                </LinearRing>
                            </outerBoundaryIs>
                        </Polygon>
                    </Placemark>
                </Folder>
                <Folder id="56">
                    <Style id="61">
                        <LineStyle id="63">
                            <color>FFFFDC7C</color>
                            <colorMode>normal</colorMode>
                            <width>0.5</width>
                        </LineStyle>
                        <PolyStyle id="62">
                            <color>80FFDC7C</color>
                            <colorMode>normal</colorMode>
                            <fill>1</fill>
                            <outline>1</outline>
                        </PolyStyle>
                    </Style>
                    <name>BSk</name>
                    <Placemark id="58">
                        <name>BSk</name>
                        <description>Köppen-Geiger climate zone: BSk (Cold Semi-arid) — 2050 projection under SSP3-7.0. See: 2050-snapshot/domains/climate.md#global-climate-state</description>
                        <styleUrl>#61</styleUrl>
                        <Polygon id="57">
                            <altitudeMode>clampToGround</altitudeMode>
                            <outerBoundaryIs>
                                <LinearRing id="59">
                                    <coordinates>0.0,15.0,0 0.0,38.0,0 -90.0,38.0,0 -90.0,15.0,0 0.0,15.0,0</coordinates>
                                </LinearRing>
                            </outerBoundaryIs>
                        </Polygon>
                    </Placemark>
                </Folder>
            </Folder>
            <Folder id="5">
                <name>C — Temperate Climates</name>
                <Folder id="64">
                    <Style id="69">
                        <LineStyle id="71">
                            <color>FFFFCC00</color>
                            <colorMode>normal</colorMode>
                            <width>0.5</width>
                        </LineStyle>
                        <PolyStyle id="70">
                            <color>80FFCC00</color>
                            <colorMode>normal</colorMode>
                            <fill>1</fill>
                            <outline>1</outline>
                        </PolyStyle>
                    </Style>
                    <name>Csa</name>
                    <Placemark id="66">
                        <name>Csa</name>
                        <description>Köppen-Geiger climate zone: Csa (Hot-summer Mediterranean) — 2050 projection under SSP3-7.0. See: 2050-snapshot/domains/climate.md#global-climate-state</description>
                        <styleUrl>#69</styleUrl>
                        <Polygon id="65">
                            <altitudeMode>clampToGround</altitudeMode>
                            <outerBoundaryIs>
                                <LinearRing id="67">
                                    <coordinates>0.0,30.0,0 0.0,55.0,0 -45.0,55.0,0 -45.0,30.0,0 0.0,30.0,0</coordinates>
                                </LinearRing>
                            </outerBoundaryIs>
                        </Polygon>
                    </Placemark>
                </Folder>
                <Folder id="72">
                    <Style id="77">
                        <LineStyle id="79">
                            <color>FFC9C800</color>
                            <colorMode>normal</colorMode>
                            <width>0.5</width>
                        </LineStyle>
                        <PolyStyle id="78">
                            <color>80C9C800</color>
                            <colorMode>normal</colorMode>
                            <fill>1</fill>
                            <outline>1</outline>
                        </PolyStyle>
                    </Style>
                    <name>Csb</name>
                    <Placemark id="74">
                        <name>Csb</name>
                        <description>Köppen-Geiger climate zone: Csb (Warm-summer Mediterranean) — 2050 projection under SSP3-7.0. See: 2050-snapshot/domains/climate.md#global-climate-state</description>
                        <styleUrl>#77</styleUrl>
                        <Polygon id="73">
                            <altitudeMode>clampToGround</altitudeMode>
                            <outerBoundaryIs>
                                <LinearRing id="75">
                                    <coordinates>45.0,30.0,0 45.0,55.0,0 0.0,55.0,0 0.0,30.0,0 45.0,30.0,0</coordinates>
                                </LinearRing>
                            </outerBoundaryIs>
                        </Polygon>
                    </Placemark>
                </Folder>
                <Folder id="80">
                    <Style id="85">
                        <LineStyle id="87">
                            <color>FFC6C76A</color>
                            <colorMode>normal</colorMode>
                            <width>0.5</width>
                        </LineStyle>
                        <PolyStyle id="86">
                            <color>80C6C76A</color>
                            <colorMode>normal</colorMode>
                            <fill>1</fill>
                            <outline>1</outline>
                        </PolyStyle>
                    </Style>
                    <name>Cwa</name>
                    <Placemark id="82">
                        <name>Cwa</name>
                        <description>Köppen-Geiger climate zone: Cwa (Monsoon humid subtropical) — 2050 projection under SSP3-7.0. See: 2050-snapshot/domains/climate.md#global-climate-state</description>
                        <styleUrl>#85</styleUrl>
                        <Polygon id="81">
                            <altitudeMode>clampToGround</altitudeMode>
                            <outerBoundaryIs>
                                <LinearRing id="83">
                                    <coordinates>90.0,30.0,0 90.0,55.0,0 45.0,55.0,0 45.0,30.0,0 90.0,30.0,0</coordinates>
                                </LinearRing>
                            </outerBoundaryIs>
                        </Polygon>
                    </Placemark>
                </Folder>
                <Folder id="88">
                    <Style id="93">
                        <LineStyle id="95">
                            <color>FF6C9A5E</color>
                            <colorMode>normal</colorMode>
                            <width>0.5</width>
                        </LineStyle>
                        <PolyStyle id="94">
                            <color>806C9A5E</color>
                            <colorMode>normal</colorMode>
                            <fill>1</fill>
                            <outline>1</outline>
                        </PolyStyle>
                    </Style>
                    <name>Cwb</name>
                    <Placemark id="90">
                        <name>Cwb</name>
                        <description>Köppen-Geiger climate zone: Cwb (Subtropical highland) — 2050 projection under SSP3-7.0. See: 2050-snapshot/domains/climate.md#global-climate-state</description>
                        <styleUrl>#93</styleUrl>
                        <Polygon id="89">
                            <altitudeMode>clampToGround</altitudeMode>
                            <outerBoundaryIs>
                                <LinearRing id="91">
                                    <coordinates>135.0,30.0,0 135.0,55.0,0 90.0,55.0,0 90.0,30.0,0 135.0,30.0,0</coordinates>
                                </LinearRing>
                            </outerBoundaryIs>
                        </Polygon>
                    </Placemark>
                </Folder>
                <Folder id="96">
                    <Style id="101">
                        <LineStyle id="103">
                            <color>FF7EAA7D</color>
                            <colorMode>normal</colorMode>
                            <width>0.5</width>
                        </LineStyle>
                        <PolyStyle id="102">
                            <color>807EAA7D</color>
                            <colorMode>normal</colorMode>
                            <fill>1</fill>
                            <outline>1</outline>
                        </PolyStyle>
                    </Style>
                    <name>Cwc</name>
                    <Placemark id="98">
                        <name>Cwc</name>
                        <description>Köppen-Geiger climate zone: Cwc (Cold subtropical highland) — 2050 projection under SSP3-7.0. See: 2050-snapshot/domains/climate.md#global-climate-state</description>
                        <styleUrl>#101</styleUrl>
                        <Polygon id="97">
                            <altitudeMode>clampToGround</altitudeMode>
                            <outerBoundaryIs>
                                <LinearRing id="99">
                                    <coordinates>180.0,30.0,0 180.0,55.0,0 135.0,55.0,0 135.0,30.0,0 180.0,30.0,0</coordinates>
                                </LinearRing>
                            </outerBoundaryIs>
                        </Polygon>
                    </Placemark>
                </Folder>
                <Folder id="104">
                    <Style id="109">
                        <LineStyle id="111">
                            <color>FF96FF96</color>
                            <colorMode>normal</colorMode>
                            <width>0.5</width>
                        </LineStyle>
                        <PolyStyle id="110">
                            <color>8096FF96</color>
                            <colorMode>normal</colorMode>
                            <fill>1</fill>
                            <outline>1</outline>
                        </PolyStyle>
                    </Style>
                    <name>Cfa</name>
                    <Placemark id="106">
                        <name>Cfa</name>
                        <description>Köppen-Geiger climate zone: Cfa (Humid subtropical) — 2050 projection under SSP3-7.0. See: 2050-snapshot/domains/climate.md#global-climate-state</description>
                        <styleUrl>#109</styleUrl>
                        <Polygon id="105">
                            <altitudeMode>clampToGround</altitudeMode>
                            <outerBoundaryIs>
                                <LinearRing id="107">
                                    <coordinates>-135.0,30.0,0 -135.0,55.0,0 -180.0,55.0,0 -180.0,30.0,0 -135.0,30.0,0</coordinates>
                                </LinearRing>
                            </outerBoundaryIs>
                        </Polygon>
                    </Placemark>
                </Folder>
                <Folder id="112">
                    <Style id="117">
                        <LineStyle id="119">
                            <color>FF6DB46D</color>
                            <colorMode>normal</colorMode>
                            <width>0.5</width>
                        </LineStyle>
                        <PolyStyle id="118">
                            <color>806DB46D</color>
                            <colorMode>normal</colorMode>
                            <fill>1</fill>
                            <outline>1</outline>
                        </PolyStyle>
                    </Style>
                    <name>Cfb</name>
                    <Placemark id="114">
                        <name>Cfb</name>
                        <description>Köppen-Geiger climate zone: Cfb (Oceanic) — 2050 projection under SSP3-7.0. See: 2050-snapshot/domains/climate.md#global-climate-state</description>
                        <styleUrl>#117</styleUrl>
                        <Polygon id="113">
                            <altitudeMode>clampToGround</altitudeMode>
                            <outerBoundaryIs>
                                <LinearRing id="115">
                                    <coordinates>-90.0,30.0,0 -90.0,55.0,0 -135.0,55.0,0 -135.0,30.0,0 -90.0,30.0,0</coordinates>
                                </LinearRing>
                            </outerBoundaryIs>
                        </Polygon>
                    </Placemark>
                </Folder>
                <Folder id="120">
                    <Style id="125">
                        <LineStyle id="127">
                            <color>FF40A040</color>
                            <colorMode>normal</colorMode>
                            <width>0.5</width>
                        </LineStyle>
                        <PolyStyle id="126">
                            <color>8040A040</color>
                            <colorMode>normal</colorMode>
                            <fill>1</fill>
                            <outline>1</outline>
                        </PolyStyle>
                    </Style>
                    <name>Cfc</name>
                    <Placemark id="122">
                        <name>Cfc</name>
                        <description>Köppen-Geiger climate zone: Cfc (Subpolar oceanic) — 2050 projection under SSP3-7.0. See: 2050-snapshot/domains/climate.md#global-climate-state</description>
                        <styleUrl>#125</styleUrl>
                        <Polygon id="121">
                            <altitudeMode>clampToGround</altitudeMode>
                            <outerBoundaryIs>
                                <LinearRing id="123">
                                    <coordinates>-45.0,30.0,0 -45.0,55.0,0 -90.0,55.0,0 -90.0,30.0,0 -45.0,30.0,0</coordinates>
                                </LinearRing>
                            </outerBoundaryIs>
                        </Polygon>
                    </Placemark>
                </Folder>
            </Folder>
            <Folder id="6">
                <name>D — Continental Climates</name>
                <Folder id="128">
                    <Style id="133">
                        <LineStyle id="135">
                            <color>FF5EBDC9</color>
                            <colorMode>normal</colorMode>
                            <width>0.5</width>
                        </LineStyle>
                        <PolyStyle id="134">
                            <color>805EBDC9</color>
                            <colorMode>normal</colorMode>
                            <fill>1</fill>
                            <outline>1</outline>
                        </PolyStyle>
                    </Style>
                    <name>Dsa</name>
                    <Placemark id="130">
                        <name>Dsa</name>
                        <description>Köppen-Geiger climate zone: Dsa (Mediterranean hot continental) — 2050 projection under SSP3-7.0. See: 2050-snapshot/domains/climate.md#global-climate-state</description>
                        <styleUrl>#133</styleUrl>
                        <Polygon id="129">
                            <altitudeMode>clampToGround</altitudeMode>
                            <outerBoundaryIs>
                                <LinearRing id="131">
                                    <coordinates>0.0,45.0,0 0.0,65.0,0 -36.0,65.0,0 -36.0,45.0,0 0.0,45.0,0</coordinates>
                                </LinearRing>
                            </outerBoundaryIs>
                        </Polygon>
                    </Placemark>
                </Folder>
                <Folder id="136">
                    <Style id="141">
                        <LineStyle id="143">
                            <color>FF4DA6B8</color>
                            <colorMode>normal</colorMode>
                            <width>0.5</width>
                        </LineStyle>
                        <PolyStyle id="142">
                            <color>804DA6B8</color>
                            <colorMode>normal</colorMode>
                            <fill>1</fill>
                            <outline>1</outline>
                        </PolyStyle>
                    </Style>
                    <name>Dsb</name>
                    <Placemark id="138">
                        <name>Dsb</name>
                        <description>Köppen-Geiger climate zone: Dsb (Mediterranean warm continental) — 2050 projection under SSP3-7.0. See: 2050-snapshot/domains/climate.md#global-climate-state</description>
                        <styleUrl>#141</styleUrl>
                        <Polygon id="137">
                            <altitudeMode>clampToGround</altitudeMode>
                            <outerBoundaryIs>
                                <LinearRing id="139">
                                    <coordinates>36.0,45.0,0 36.0,65.0,0 0.0,65.0,0 0.0,45.0,0 36.0,45.0,0</coordinates>
                                </LinearRing>
                            </outerBoundaryIs>
                        </Polygon>
                    </Placemark>
                </Folder>
                <Folder id="144">
                    <Style id="149">
                        <LineStyle id="151">
                            <color>FF2F8FA5</color>
                            <colorMode>normal</colorMode>
                            <width>0.5</width>
                        </LineStyle>
                        <PolyStyle id="150">
                            <color>802F8FA5</color>
                            <colorMode>normal</colorMode>
                            <fill>1</fill>
                            <outline>1</outline>
                        </PolyStyle>
                    </Style>
                    <name>Dsc</name>
                    <Placemark id="146">
                        <name>Dsc</name>
                        <description>Köppen-Geiger climate zone: Dsc (Mediterranean subarctic) — 2050 projection under SSP3-7.0. See: 2050-snapshot/domains/climate.md#global-climate-state</description>
                        <styleUrl>#149</styleUrl>
                        <Polygon id="145">
                            <altitudeMode>clampToGround</altitudeMode>
                            <outerBoundaryIs>
                                <LinearRing id="147">
                                    <coordinates>72.0,45.0,0 72.0,65.0,0 36.0,65.0,0 36.0,45.0,0 72.0,45.0,0</coordinates>
                                </LinearRing>
                            </outerBoundaryIs>
                        </Polygon>
                    </Placemark>
                </Folder>
                <Folder id="152">
                    <Style id="157">
                        <LineStyle id="159">
                            <color>FF5DF0F0</color>
                            <colorMode>normal</colorMode>
                            <width>0.5</width>
                        </LineStyle>
                        <PolyStyle id="158">
                            <color>805DF0F0</color>
                            <colorMode>normal</colorMode>
                            <fill>1</fill>
                            <outline>1</outline>
                        </PolyStyle>
                    </Style>
                    <name>Dwa</name>
                    <Placemark id="154">
                        <name>Dwa</name>
                        <description>Köppen-Geiger climate zone: Dwa (Monsoon hot continental) — 2050 projection under SSP3-7.0. See: 2050-snapshot/domains/climate.md#global-climate-state</description>
                        <styleUrl>#157</styleUrl>
                        <Polygon id="153">
                            <altitudeMode>clampToGround</altitudeMode>
                            <outerBoundaryIs>
                                <LinearRing id="155">
                                    <coordinates>108.0,45.0,0 108.0,65.0,0 72.0,65.0,0 72.0,45.0,0 108.0,45.0,0</coordinates>
                                </LinearRing>
                            </outerBoundaryIs>
                        </Polygon>
                    </Placemark>
                </Folder>
                <Folder id="160">
                    <Style id="165">
                        <LineStyle id="167">
                            <color>FF41C8C8</color>
                            <colorMode>normal</colorMode>
                            <width>0.5</width>
                        </LineStyle>
                        <PolyStyle id="166">
                            <color>8041C8C8</color>
                            <colorMode>normal</colorMode>
                            <fill>1</fill>
                            <outline>1</outline>
                        </PolyStyle>
                    </Style>
                    <name>Dwb</name>
                    <Placemark id="162">
                        <name>Dwb</name>
                        <description>Köppen-Geiger climate zone: Dwb (Monsoon warm continental) — 2050 projection under SSP3-7.0. See: 2050-snapshot/domains/climate.md#global-climate-state</description>
                        <styleUrl>#165</styleUrl>
                        <Polygon id="161">
                            <altitudeMode>clampToGround</altitudeMode>
                            <outerBoundaryIs>
                                <LinearRing id="163">
                                    <coordinates>144.0,45.0,0 144.0,65.0,0 108.0,65.0,0 108.0,45.0,0 144.0,45.0,0</coordinates>
                                </LinearRing>
                            </outerBoundaryIs>
                        </Polygon>
                    </Placemark>
                </Folder>
                <Folder id="168">
                    <Style id="173">
                        <LineStyle id="175">
                            <color>FF2CAAAA</color>
                            <colorMode>normal</colorMode>
                            <width>0.5</width>
                        </LineStyle>
                        <PolyStyle id="174">
                            <color>802CAAAA</color>
                            <colorMode>normal</colorMode>
                            <fill>1</fill>
                            <outline>1</outline>
                        </PolyStyle>
                    </Style>
                    <name>Dwc</name>
                    <Placemark id="170">
                        <name>Dwc</name>
                        <description>Köppen-Geiger climate zone: Dwc (Monsoon subarctic) — 2050 projection under SSP3-7.0. See: 2050-snapshot/domains/climate.md#global-climate-state</description>
                        <styleUrl>#173</styleUrl>
                        <Polygon id="169">
                            <altitudeMode>clampToGround</altitudeMode>
                            <outerBoundaryIs>
                                <LinearRing id="171">
                                    <coordinates>180.0,45.0,0 180.0,65.0,0 144.0,65.0,0 144.0,45.0,0 180.0,45.0,0</coordinates>
                                </LinearRing>
                            </outerBoundaryIs>
                        </Polygon>
                    </Placemark>
                </Folder>
                <Folder id="176">
                    <Style id="181">
                        <LineStyle id="183">
                            <color>FF00FFFF</color>
                            <colorMode>normal</colorMode>
                            <width>0.5</width>
                        </LineStyle>
                        <PolyStyle id="182">
                            <color>8000FFFF</color>
                            <colorMode>normal</colorMode>
                            <fill>1</fill>
                            <outline>1</outline>
                        </PolyStyle>
                    </Style>
                    <name>Dfa</name>
                    <Placemark id="178">
                        <name>Dfa</name>
                        <description>Köppen-Geiger climate zone: Dfa (Hot continental) — 2050 projection under SSP3-7.0. See: 2050-snapshot/domains/climate.md#global-climate-state</description>
                        <styleUrl>#181</styleUrl>
                        <Polygon id="177">
                            <altitudeMode>clampToGround</altitudeMode>
                            <outerBoundaryIs>
                                <LinearRing id="179">
                                    <coordinates>-144.0,45.0,0 -144.0,65.0,0 -180.0,65.0,0 -180.0,45.0,0 -144.0,45.0,0</coordinates>
                                </LinearRing>
                            </outerBoundaryIs>
                        </Polygon>
                    </Placemark>
                </Folder>
                <Folder id="184">
                    <Style id="189">
                        <LineStyle id="191">
                            <color>FF46D2D2</color>
                            <colorMode>normal</colorMode>
                            <width>0.5</width>
                        </LineStyle>
                        <PolyStyle id="190">
                            <color>8046D2D2</color>
                            <colorMode>normal</colorMode>
                            <fill>1</fill>
                            <outline>1</outline>
                        </PolyStyle>
                    </Style>
                    <name>Dfb</name>
                    <Placemark id="186">
                        <name>Dfb</name>
                        <description>Köppen-Geiger climate zone: Dfb (Warm continental) — 2050 projection under SSP3-7.0. See: 2050-snapshot/domains/climate.md#global-climate-state</description>
                        <styleUrl>#189</styleUrl>
                        <Polygon id="185">
                            <altitudeMode>clampToGround</altitudeMode>
                            <outerBoundaryIs>
                                <LinearRing id="187">
                                    <coordinates>-108.0,45.0,0 -108.0,65.0,0 -144.0,65.0,0 -144.0,45.0,0 -108.0,45.0,0</coordinates>
                                </LinearRing>
                            </outerBoundaryIs>
                        </Polygon>
                    </Placemark>
                </Folder>
                <Folder id="192">
                    <Style id="197">
                        <LineStyle id="199">
                            <color>FF64C8E4</color>
                            <colorMode>normal</colorMode>
                            <width>0.5</width>
                        </LineStyle>
                        <PolyStyle id="198">
                            <color>8064C8E4</color>
                            <colorMode>normal</colorMode>
                            <fill>1</fill>
                            <outline>1</outline>
                        </PolyStyle>
                    </Style>
                    <name>Dfc</name>
                    <Placemark id="194">
                        <name>Dfc</name>
                        <description>Köppen-Geiger climate zone: Dfc (Subarctic) — 2050 projection under SSP3-7.0. See: 2050-snapshot/domains/climate.md#global-climate-state</description>
                        <styleUrl>#197</styleUrl>
                        <Polygon id="193">
                            <altitudeMode>clampToGround</altitudeMode>
                            <outerBoundaryIs>
                                <LinearRing id="195">
                                    <coordinates>-72.0,45.0,0 -72.0,65.0,0 -108.0,65.0,0 -108.0,45.0,0 -72.0,45.0,0</coordinates>
                                </LinearRing>
                            </outerBoundaryIs>
                        </Polygon>
                    </Placemark>
                </Folder>
                <Folder id="200">
                    <Style id="205">
                        <LineStyle id="207">
                            <color>FF5EE0F0</color>
                            <colorMode>normal</colorMode>
                            <width>0.5</width>
                        </LineStyle>
                        <PolyStyle id="206">
                            <color>805EE0F0</color>
                            <colorMode>normal</colorMode>
                            <fill>1</fill>
                            <outline>1</outline>
                        </PolyStyle>
                    </Style>
                    <name>Dfd</name>
                    <Placemark id="202">
                        <name>Dfd</name>
                        <description>Köppen-Geiger climate zone: Dfd (Extreme subarctic) — 2050 projection under SSP3-7.0. See: 2050-snapshot/domains/climate.md#global-climate-state</description>
                        <styleUrl>#205</styleUrl>
                        <Polygon id="201">
                            <altitudeMode>clampToGround</altitudeMode>
                            <outerBoundaryIs>
                                <LinearRing id="203">
                                    <coordinates>-36.0,45.0,0 -36.0,65.0,0 -72.0,65.0,0 -72.0,45.0,0 -36.0,45.0,0</coordinates>
                                </LinearRing>
                            </outerBoundaryIs>
                        </Polygon>
                    </Placemark>
                </Folder>
            </Folder>
            <Folder id="7">
                <name>E — Polar Climates</name>
                <Folder id="208">
                    <Style id="213">
                        <LineStyle id="215">
                            <color>FF964696</color>
                            <colorMode>normal</colorMode>
                            <width>0.5</width>
                        </LineStyle>
                        <PolyStyle id="214">
                            <color>80964696</color>
                            <colorMode>normal</colorMode>
                            <fill>1</fill>
                            <outline>1</outline>
                        </PolyStyle>
                    </Style>
                    <name>ET</name>
                    <Placemark id="210">
                        <name>ET</name>
                        <description>Köppen-Geiger climate zone: ET (Tundra) — 2050 projection under SSP3-7.0. See: 2050-snapshot/domains/climate.md#global-climate-state</description>
                        <styleUrl>#213</styleUrl>
                        <Polygon id="209">
                            <altitudeMode>clampToGround</altitudeMode>
                            <outerBoundaryIs>
                                <LinearRing id="211">
                                    <coordinates>180.0,60.0,0 180.0,72.0,0 0.0,72.0,0 0.0,60.0,0 180.0,60.0,0</coordinates>
                                </LinearRing>
                            </outerBoundaryIs>
                        </Polygon>
                    </Placemark>
                </Folder>
                <Folder id="216">
                    <Style id="221">
                        <LineStyle id="223">
                            <color>FFFFFFFF</color>
                            <colorMode>normal</colorMode>
                            <width>0.5</width>
                        </LineStyle>
                        <PolyStyle id="222">
                            <color>80FFFFFF</color>
                            <colorMode>normal</colorMode>
                            <fill>1</fill>
                            <outline>1</outline>
                        </PolyStyle>
                    </Style>
                    <name>EF</name>
                    <Placemark id="218">
                        <name>EF</name>
                        <description>Köppen-Geiger climate zone: EF (Frost/Ice Cap) — 2050 projection under SSP3-7.0. See: 2050-snapshot/domains/climate.md#global-climate-state</description>
                        <styleUrl>#221</styleUrl>
                        <Polygon id="217">
                            <altitudeMode>clampToGround</altitudeMode>
                            <outerBoundaryIs>
                                <LinearRing id="219">
                                    <coordinates>0.0,72.0,0 0.0,85.0,0 -180.0,85.0,0 -180.0,72.0,0 0.0,72.0,0</coordinates>
                                </LinearRing>
                            </outerBoundaryIs>
                        </Polygon>
                    </Placemark>
                </Folder>
            </Folder>
        </Folder>
    <Folder id="2">
            <name>Ecological Biomes (2050)</name>
            <Folder id="3">
                <Style id="8">
                    <LineStyle id="10">
                        <color>FFA0A0A0</color>
                        <colorMode>normal</colorMode>
                        <width>0.5</width>
                    </LineStyle>
                    <PolyStyle id="9">
                        <color>60A0A0A0</color>
                        <colorMode>normal</colorMode>
                        <fill>1</fill>
                        <outline>1</outline>
                    </PolyStyle>
                </Style>
                <name>Tundra</name>
                <Placemark id="5">
                    <name>Tundra</name>
                    <description>Tundra — Arctic fringe ecosystems (mosses, lichens, shrubs, permafrost) — 2050 projection. APPROXIMATE — Replace with data-driven polygons when WWF T errestrial Ecoregions source becomes available. See: 2050-snapshot/domains/climate.md#global-climate-state</description>
                    <styleUrl>#8</styleUrl>
                    <Polygon id="4">
                        <altitudeMode>clampToGround</altitudeMode>
                        <outerBoundaryIs>
                            <LinearRing id="6">
                                <coordinates>-180.0,65.0,0 180.0,65.0,0 180.0,85.0,0 -180.0,85.0,0 -180.0,65.0,0</coordinates>
                            </LinearRing>
                        </outerBoundaryIs>
                    </Polygon>
                </Placemark>
            </Folder>
            <Folder id="11">
                <Style id="16">
                    <LineStyle id="18">
                        <color>FF3A7D3A</color>
                        <colorMode>normal</colorMode>
                        <width>0.5</width>
                    </LineStyle>
                    <PolyStyle id="17">
                        <color>603A7D3A</color>
                        <colorMode>normal</colorMode>
                        <fill>1</fill>
                        <outline>1</outline>
                    </PolyStyle>
                </Style>
                <Style id="23">
                    <LineStyle id="25">
                        <color>FF3A7D3A</color>
                        <colorMode>normal</colorMode>
                        <width>0.5</width>
                    </LineStyle>
                    <PolyStyle id="24">
                        <color>603A7D3A</color>
                        <colorMode>normal</colorMode>
                        <fill>1</fill>
                        <outline>1</outline>
                    </PolyStyle>
                </Style>
                <name>Boreal Forest/Taiga</name>
                <Placemark id="13">
                    <name>Boreal Forest/Taiga</name>
                    <description>Boreal Forest/Taiga — Cold-tolerant coniferous forests and woodlands — 2050 projection. APPROXIMATE — Replace with data-driven polygons when WWF T errestrial Ecoregions source becomes available. See: 2050-snapshot/domains/climate.md#global-climate-state</description>
                    <styleUrl>#16</styleUrl>
                    <Polygon id="12">
                        <altitudeMode>clampToGround</altitudeMode>
                        <outerBoundaryIs>
                            <LinearRing id="14">
                                <coordinates>-170.0,50.0,0 -55.0,50.0,0 -55.0,65.0,0 -170.0,65.0,0 -170.0,50.0,0</coordinates>
                            </LinearRing>
                        </outerBoundaryIs>
                    </Polygon>
                </Placemark>
                <Placemark id="20">
                    <name>Boreal Forest/Taiga</name>
                    <description>Boreal Forest/Taiga — Cold-tolerant coniferous forests and woodlands — 2050 projection. APPROXIMATE — Replace with data-driven polygons when WWF T errestrial Ecoregions source becomes available. See: 2050-snapshot/domains/climate.md#global-climate-state</description>
                    <styleUrl>#23</styleUrl>
                    <Polygon id="19">
                        <altitudeMode>clampToGround</altitudeMode>
                        <outerBoundaryIs>
                            <LinearRing id="21">
                                <coordinates>-15.0,50.0,0 180.0,50.0,0 180.0,65.0,0 -15.0,65.0,0 -15.0,50.0,0</coordinates>
                            </LinearRing>
                        </outerBoundaryIs>
                    </Polygon>
                </Placemark>
            </Folder>
            <Folder id="26">
                <Style id="31">
                    <LineStyle id="33">
                        <color>FF5CA65C</color>
                        <colorMode>normal</colorMode>
                        <width>0.5</width>
                    </LineStyle>
                    <PolyStyle id="32">
                        <color>605CA65C</color>
                        <colorMode>normal</colorMode>
                        <fill>1</fill>
                        <outline>1</outline>
                    </PolyStyle>
                </Style>
                <Style id="38">
                    <LineStyle id="40">
                        <color>FF5CA65C</color>
                        <colorMode>normal</colorMode>
                        <width>0.5</width>
                    </LineStyle>
                    <PolyStyle id="39">
                        <color>605CA65C</color>
                        <colorMode>normal</colorMode>
                        <fill>1</fill>
                        <outline>1</outline>
                    </PolyStyle>
                </Style>
                <Style id="45">
                    <LineStyle id="47">
                        <color>FF5CA65C</color>
                        <colorMode>normal</colorMode>
                        <width>0.5</width>
                    </LineStyle>
                    <PolyStyle id="46">
                        <color>605CA65C</color>
                        <colorMode>normal</colorMode>
                        <fill>1</fill>
                        <outline>1</outline>
                    </PolyStyle>
                </Style>
                <Style id="52">
                    <LineStyle id="54">
                        <color>FF5CA65C</color>
                        <colorMode>normal</colorMode>
                        <width>0.5</width>
                    </LineStyle>
                    <PolyStyle id="53">
                        <color>605CA65C</color>
                        <colorMode>normal</colorMode>
                        <fill>1</fill>
                        <outline>1</outline>
                    </PolyStyle>
                </Style>
                <Style id="59">
                    <LineStyle id="61">
                        <color>FF5CA65C</color>
                        <colorMode>normal</colorMode>
                        <width>0.5</width>
                    </LineStyle>
                    <PolyStyle id="60">
                        <color>605CA65C</color>
                        <colorMode>normal</colorMode>
                        <fill>1</fill>
                        <outline>1</outline>
                    </PolyStyle>
                </Style>
                <name>Temperate Forest</name>
                <Placemark id="28">
                    <name>Temperate Forest</name>
                    <description>Temperate Forest — Mixed deciduous and coniferous mid-latitude forests — 2050 projection. APPROXIMATE — Replace with data-driven polygons when WWF T errestrial Ecoregions source becomes available. See: 2050-snapshot/domains/climate.md#global-climate-state</description>
                    <styleUrl>#31</styleUrl>
                    <Polygon id="27">
                        <altitudeMode>clampToGround</altitudeMode>
                        <outerBoundaryIs>
                            <LinearRing id="29">
                                <coordinates>-100.0,30.0,0 -55.0,30.0,0 -55.0,50.0,0 -100.0,50.0,0 -100.0,30.0,0</coordinates>
                            </LinearRing>
                        </outerBoundaryIs>
                    </Polygon>
                </Placemark>
                <Placemark id="35">
                    <name>Temperate Forest</name>
                    <description>Temperate Forest — Mixed deciduous and coniferous mid-latitude forests — 2050 projection. APPROXIMATE — Replace with data-driven polygons when WWF T errestrial Ecoregions source becomes available. See: 2050-snapshot/domains/climate.md#global-climate-state</description>
                    <styleUrl>#38</styleUrl>
                    <Polygon id="34">
                        <altitudeMode>clampToGround</altitudeMode>
                        <outerBoundaryIs>
                            <LinearRing id="36">
                                <coordinates>-10.0,35.0,0 35.0,35.0,0 35.0,55.0,0 -10.0,55.0,0 -10.0,35.0,0</coordinates>
                            </LinearRing>
                        </outerBoundaryIs>
                    </Polygon>
                </Placemark>
                <Placemark id="42">
                    <name>Temperate Forest</name>
                    <description>Temperate Forest — Mixed deciduous and coniferous mid-latitude forests — 2050 projection. APPROXIMATE — Replace with data-driven polygons when WWF T errestrial Ecoregions source becomes available. See: 2050-snapshot/domains/climate.md#global-climate-state</description>
                    <styleUrl>#45</styleUrl>
                    <Polygon id="41">
                        <altitudeMode>clampToGround</altitudeMode>
                        <outerBoundaryIs>
                            <LinearRing id="43">
                                <coordinates>100.0,25.0,0 145.0,25.0,0 145.0,50.0,0 100.0,50.0,0 100.0,25.0,0</coordinates>
                            </LinearRing>
                        </outerBoundaryIs>
                    </Polygon>
                </Placemark>
                <Placemark id="49">
                    <name>Temperate Forest</name>
                    <description>Temperate Forest — Mixed deciduous and coniferous mid-latitude forests — 2050 projection. APPROXIMATE — Replace with data-driven polygons when WWF T errestrial Ecoregions source becomes available. See: 2050-snapshot/domains/climate.md#global-climate-state</description>
                    <styleUrl>#52</styleUrl>
                    <Polygon id="48">
                        <altitudeMode>clampToGround</altitudeMode>
                        <outerBoundaryIs>
                            <LinearRing id="50">
                                <coordinates>140.0,-47.0,0 180.0,-47.0,0 180.0,-25.0,0 140.0,-25.0,0 140.0,-47.0,0</coordinates>
                            </LinearRing>
                        </outerBoundaryIs>
                    </Polygon>
                </Placemark>
                <Placemark id="56">
                    <name>Temperate Forest</name>
                    <description>Temperate Forest — Mixed deciduous and coniferous mid-latitude forests — 2050 projection. APPROXIMATE — Replace with data-driven polygons when WWF T errestrial Ecoregions source becomes available. See: 2050-snapshot/domains/climate.md#global-climate-state</description>
                    <styleUrl>#59</styleUrl>
                    <Polygon id="55">
                        <altitudeMode>clampToGround</altitudeMode>
                        <outerBoundaryIs>
                            <LinearRing id="57">
                                <coordinates>-76.0,-56.0,0 -64.0,-56.0,0 -64.0,-35.0,0 -76.0,-35.0,0 -76.0,-56.0,0</coordinates>
                            </LinearRing>
                        </outerBoundaryIs>
                    </Polygon>
                </Placemark>
            </Folder>
            <Folder id="62">
                <Style id="67">
                    <LineStyle id="69">
                        <color>FFE8D44D</color>
                        <colorMode>normal</colorMode>
                        <width>0.5</width>
                    </LineStyle>
                    <PolyStyle id="68">
                        <color>60E8D44D</color>
                        <colorMode>normal</colorMode>
                        <fill>1</fill>
                        <outline>1</outline>
                    </PolyStyle>
                </Style>
                <Style id="74">
                    <LineStyle id="76">
                        <color>FFE8D44D</color>
                        <colorMode>normal</colorMode>
                        <width>0.5</width>
                    </LineStyle>
                    <PolyStyle id="75">
                        <color>60E8D44D</color>
                        <colorMode>normal</colorMode>
                        <fill>1</fill>
                        <outline>1</outline>
                    </PolyStyle>
                </Style>
                <Style id="81">
                    <LineStyle id="83">
                        <color>FFE8D44D</color>
                        <colorMode>normal</colorMode>
                        <width>0.5</width>
                    </LineStyle>
                    <PolyStyle id="82">
                        <color>60E8D44D</color>
                        <colorMode>normal</colorMode>
                        <fill>1</fill>
                        <outline>1</outline>
                    </PolyStyle>
                </Style>
                <Style id="88">
                    <LineStyle id="90">
                        <color>FFE8D44D</color>
                        <colorMode>normal</colorMode>
                        <width>0.5</width>
                    </LineStyle>
                    <PolyStyle id="89">
                        <color>60E8D44D</color>
                        <colorMode>normal</colorMode>
                        <fill>1</fill>
                        <outline>1</outline>
                    </PolyStyle>
                </Style>
                <Style id="95">
                    <LineStyle id="97">
                        <color>FFE8D44D</color>
                        <colorMode>normal</colorMode>
                        <width>0.5</width>
                    </LineStyle>
                    <PolyStyle id="96">
                        <color>60E8D44D</color>
                        <colorMode>normal</colorMode>
                        <fill>1</fill>
                        <outline>1</outline>
                    </PolyStyle>
                </Style>
                <name>Grassland/Savanna</name>
                <Placemark id="64">
                    <name>Grassland/Savanna</name>
                    <description>Grassland/Savanna — Open grasslands, savanna woodlands, and shrublands — 2050 projection. APPROXIMATE — Replace with data-driven polygons when WWF T errestrial Ecoregions source becomes available. See: 2050-snapshot/domains/climate.md#global-climate-state</description>
                    <styleUrl>#67</styleUrl>
                    <Polygon id="63">
                        <altitudeMode>clampToGround</altitudeMode>
                        <outerBoundaryIs>
                            <LinearRing id="65">
                                <coordinates>-18.0,8.0,0 40.0,8.0,0 40.0,18.0,0 -18.0,18.0,0 -18.0,8.0,0</coordinates>
                            </LinearRing>
                        </outerBoundaryIs>
                    </Polygon>
                </Placemark>
                <Placemark id="71">
                    <name>Grassland/Savanna</name>
                    <description>Grassland/Savanna — Open grasslands, savanna woodlands, and shrublands — 2050 projection. APPROXIMATE — Replace with data-driven polygons when WWF T errestrial Ecoregions source becomes available. See: 2050-snapshot/domains/climate.md#global-climate-state</description>
                    <styleUrl>#74</styleUrl>
                    <Polygon id="70">
                        <altitudeMode>clampToGround</altitudeMode>
                        <outerBoundaryIs>
                            <LinearRing id="72">
                                <coordinates>28.0,-5.0,0 42.0,-5.0,0 42.0,5.0,0 28.0,5.0,0 28.0,-5.0,0</coordinates>
                            </LinearRing>
                        </outerBoundaryIs>
                    </Polygon>
                </Placemark>
                <Placemark id="78">
                    <name>Grassland/Savanna</name>
                    <description>Grassland/Savanna — Open grasslands, savanna woodlands, and shrublands — 2050 projection. APPROXIMATE — Replace with data-driven polygons when WWF T errestrial Ecoregions source becomes available. See: 2050-snapshot/domains/climate.md#global-climate-state</description>
                    <styleUrl>#81</styleUrl>
                    <Polygon id="77">
                        <altitudeMode>clampToGround</altitudeMode>
                        <outerBoundaryIs>
                            <LinearRing id="79">
                                <coordinates>50.0,40.0,0 90.0,40.0,0 90.0,55.0,0 50.0,55.0,0 50.0,40.0,0</coordinates>
                            </LinearRing>
                        </outerBoundaryIs>
                    </Polygon>
                </Placemark>
                <Placemark id="85">
                    <name>Grassland/Savanna</name>
                    <description>Grassland/Savanna — Open grasslands, savanna woodlands, and shrublands — 2050 projection. APPROXIMATE — Replace with data-driven polygons when WWF T errestrial Ecoregions source becomes available. See: 2050-snapshot/domains/climate.md#global-climate-state</description>
                    <styleUrl>#88</styleUrl>
                    <Polygon id="84">
                        <altitudeMode>clampToGround</altitudeMode>
                        <outerBoundaryIs>
                            <LinearRing id="86">
                                <coordinates>-105.0,28.0,0 -95.0,28.0,0 -95.0,52.0,0 -105.0,52.0,0 -105.0,28.0,0</coordinates>
                            </LinearRing>
                        </outerBoundaryIs>
                    </Polygon>
                </Placemark>
                <Placemark id="92">
                    <name>Grassland/Savanna</name>
                    <description>Grassland/Savanna — Open grasslands, savanna woodlands, and shrublands — 2050 projection. APPROXIMATE — Replace with data-driven polygons when WWF T errestrial Ecoregions source becomes available. See: 2050-snapshot/domains/climate.md#global-climate-state</description>
                    <styleUrl>#95</styleUrl>
                    <Polygon id="91">
                        <altitudeMode>clampToGround</altitudeMode>
                        <outerBoundaryIs>
                            <LinearRing id="93">
                                <coordinates>-65.0,-40.0,0 -55.0,-40.0,0 -55.0,-25.0,0 -65.0,-25.0,0 -65.0,-40.0,0</coordinates>
                            </LinearRing>
                        </outerBoundaryIs>
                    </Polygon>
                </Placemark>
            </Folder>
            <Folder id="98">
                <Style id="103">
                    <LineStyle id="105">
                        <color>FFEDC58E</color>
                        <colorMode>normal</colorMode>
                        <width>0.5</width>
                    </LineStyle>
                    <PolyStyle id="104">
                        <color>60EDC58E</color>
                        <colorMode>normal</colorMode>
                        <fill>1</fill>
                        <outline>1</outline>
                    </PolyStyle>
                </Style>
                <Style id="110">
                    <LineStyle id="112">
                        <color>FFEDC58E</color>
                        <colorMode>normal</colorMode>
                        <width>0.5</width>
                    </LineStyle>
                    <PolyStyle id="111">
                        <color>60EDC58E</color>
                        <colorMode>normal</colorMode>
                        <fill>1</fill>
                        <outline>1</outline>
                    </PolyStyle>
                </Style>
                <Style id="117">
                    <LineStyle id="119">
                        <color>FFEDC58E</color>
                        <colorMode>normal</colorMode>
                        <width>0.5</width>
                    </LineStyle>
                    <PolyStyle id="118">
                        <color>60EDC58E</color>
                        <colorMode>normal</colorMode>
                        <fill>1</fill>
                        <outline>1</outline>
                    </PolyStyle>
                </Style>
                <Style id="124">
                    <LineStyle id="126">
                        <color>FFEDC58E</color>
                        <colorMode>normal</colorMode>
                        <width>0.5</width>
                    </LineStyle>
                    <PolyStyle id="125">
                        <color>60EDC58E</color>
                        <colorMode>normal</colorMode>
                        <fill>1</fill>
                        <outline>1</outline>
                    </PolyStyle>
                </Style>
                <Style id="131">
                    <LineStyle id="133">
                        <color>FFEDC58E</color>
                        <colorMode>normal</colorMode>
                        <width>0.5</width>
                    </LineStyle>
                    <PolyStyle id="132">
                        <color>60EDC58E</color>
                        <colorMode>normal</colorMode>
                        <fill>1</fill>
                        <outline>1</outline>
                    </PolyStyle>
                </Style>
                <Style id="138">
                    <LineStyle id="140">
                        <color>FFEDC58E</color>
                        <colorMode>normal</colorMode>
                        <width>0.5</width>
                    </LineStyle>
                    <PolyStyle id="139">
                        <color>60EDC58E</color>
                        <colorMode>normal</colorMode>
                        <fill>1</fill>
                        <outline>1</outline>
                    </PolyStyle>
                </Style>
                <name>Desert</name>
                <Placemark id="100">
                    <name>Desert</name>
                    <description>Desert — Hyper-arid and semi-arid desert ecosystems — 2050 projection. APPROXIMATE — Replace with data-driven polygons when WWF T errestrial Ecoregions source becomes available. See: 2050-snapshot/domains/climate.md#global-climate-state</description>
                    <styleUrl>#103</styleUrl>
                    <Polygon id="99">
                        <altitudeMode>clampToGround</altitudeMode>
                        <outerBoundaryIs>
                            <LinearRing id="101">
                                <coordinates>-18.0,18.0,0 40.0,18.0,0 40.0,35.0,0 -18.0,35.0,0 -18.0,18.0,0</coordinates>
                            </LinearRing>
                        </outerBoundaryIs>
                    </Polygon>
                </Placemark>
                <Placemark id="107">
                    <name>Desert</name>
                    <description>Desert — Hyper-arid and semi-arid desert ecosystems — 2050 projection. APPROXIMATE — Replace with data-driven polygons when WWF T errestrial Ecoregions source becomes available. See: 2050-snapshot/domains/climate.md#global-climate-state</description>
                    <styleUrl>#110</styleUrl>
                    <Polygon id="106">
                        <altitudeMode>clampToGround</altitudeMode>
                        <outerBoundaryIs>
                            <LinearRing id="108">
                                <coordinates>35.0,12.0,0 60.0,12.0,0 60.0,32.0,0 35.0,32.0,0 35.0,12.0,0</coordinates>
                            </LinearRing>
                        </outerBoundaryIs>
                    </Polygon>
                </Placemark>
                <Placemark id="114">
                    <name>Desert</name>
                    <description>Desert — Hyper-arid and semi-arid desert ecosystems — 2050 projection. APPROXIMATE — Replace with data-driven polygons when WWF T errestrial Ecoregions source becomes available. See: 2050-snapshot/domains/climate.md#global-climate-state</description>
                    <styleUrl>#117</styleUrl>
                    <Polygon id="113">
                        <altitudeMode>clampToGround</altitudeMode>
                        <outerBoundaryIs>
                            <LinearRing id="115">
                                <coordinates>85.0,40.0,0 115.0,40.0,0 115.0,48.0,0 85.0,48.0,0 85.0,40.0,0</coordinates>
                            </LinearRing>
                        </outerBoundaryIs>
                    </Polygon>
                </Placemark>
                <Placemark id="121">
                    <name>Desert</name>
                    <description>Desert — Hyper-arid and semi-arid desert ecosystems — 2050 projection. APPROXIMATE — Replace with data-driven polygons when WWF T errestrial Ecoregions source becomes available. See: 2050-snapshot/domains/climate.md#global-climate-state</description>
                    <styleUrl>#124</styleUrl>
                    <Polygon id="120">
                        <altitudeMode>clampToGround</altitudeMode>
                        <outerBoundaryIs>
                            <LinearRing id="122">
                                <coordinates>115.0,-35.0,0 150.0,-35.0,0 150.0,-18.0,0 115.0,-18.0,0 115.0,-35.0,0</coordinates>
                            </LinearRing>
                        </outerBoundaryIs>
                    </Polygon>
                </Placemark>
                <Placemark id="128">
                    <name>Desert</name>
                    <description>Desert — Hyper-arid and semi-arid desert ecosystems — 2050 projection. APPROXIMATE — Replace with data-driven polygons when WWF T errestrial Ecoregions source becomes available. See: 2050-snapshot/domains/climate.md#global-climate-state</description>
                    <styleUrl>#131</styleUrl>
                    <Polygon id="127">
                        <altitudeMode>clampToGround</altitudeMode>
                        <outerBoundaryIs>
                            <LinearRing id="129">
                                <coordinates>12.0,-30.0,0 30.0,-30.0,0 30.0,-18.0,0 12.0,-18.0,0 12.0,-30.0,0</coordinates>
                            </LinearRing>
                        </outerBoundaryIs>
                    </Polygon>
                </Placemark>
                <Placemark id="135">
                    <name>Desert</name>
                    <description>Desert — Hyper-arid and semi-arid desert ecosystems — 2050 projection. APPROXIMATE — Replace with data-driven polygons when WWF T errestrial Ecoregions source becomes available. See: 2050-snapshot/domains/climate.md#global-climate-state</description>
                    <styleUrl>#138</styleUrl>
                    <Polygon id="134">
                        <altitudeMode>clampToGround</altitudeMode>
                        <outerBoundaryIs>
                            <LinearRing id="136">
                                <coordinates>-75.0,-52.0,0 -65.0,-52.0,0 -65.0,-24.0,0 -75.0,-24.0,0 -75.0,-52.0,0</coordinates>
                            </LinearRing>
                        </outerBoundaryIs>
                    </Polygon>
                </Placemark>
            </Folder>
            <Folder id="141">
                <Style id="146">
                    <LineStyle id="148">
                        <color>FF1A5C1A</color>
                        <colorMode>normal</colorMode>
                        <width>0.5</width>
                    </LineStyle>
                    <PolyStyle id="147">
                        <color>601A5C1A</color>
                        <colorMode>normal</colorMode>
                        <fill>1</fill>
                        <outline>1</outline>
                    </PolyStyle>
                </Style>
                <Style id="153">
                    <LineStyle id="155">
                        <color>FF1A5C1A</color>
                        <colorMode>normal</colorMode>
                        <width>0.5</width>
                    </LineStyle>
                    <PolyStyle id="154">
                        <color>601A5C1A</color>
                        <colorMode>normal</colorMode>
                        <fill>1</fill>
                        <outline>1</outline>
                    </PolyStyle>
                </Style>
                <Style id="160">
                    <LineStyle id="162">
                        <color>FF1A5C1A</color>
                        <colorMode>normal</colorMode>
                        <width>0.5</width>
                    </LineStyle>
                    <PolyStyle id="161">
                        <color>601A5C1A</color>
                        <colorMode>normal</colorMode>
                        <fill>1</fill>
                        <outline>1</outline>
                    </PolyStyle>
                </Style>
                <Style id="167">
                    <LineStyle id="169">
                        <color>FF1A5C1A</color>
                        <colorMode>normal</colorMode>
                        <width>0.5</width>
                    </LineStyle>
                    <PolyStyle id="168">
                        <color>601A5C1A</color>
                        <colorMode>normal</colorMode>
                        <fill>1</fill>
                        <outline>1</outline>
                    </PolyStyle>
                </Style>
                <name>Tropical Rainforest</name>
                <Placemark id="143">
                    <name>Tropical Rainforest</name>
                    <description>Tropical Rainforest — Equatorial moist broadleaf forests — 2050 projection. APPROXIMATE — Replace with data-driven polygons when WWF T errestrial Ecoregions source becomes available. See: 2050-snapshot/domains/climate.md#global-climate-state</description>
                    <styleUrl>#146</styleUrl>
                    <Polygon id="142">
                        <altitudeMode>clampToGround</altitudeMode>
                        <outerBoundaryIs>
                            <LinearRing id="144">
                                <coordinates>-82.0,-15.0,0 -45.0,-15.0,0 -45.0,5.0,0 -82.0,5.0,0 -82.0,-15.0,0</coordinates>
                            </LinearRing>
                        </outerBoundaryIs>
                    </Polygon>
                </Placemark>
                <Placemark id="150">
                    <name>Tropical Rainforest</name>
                    <description>Tropical Rainforest — Equatorial moist broadleaf forests — 2050 projection. APPROXIMATE — Replace with data-driven polygons when WWF T errestrial Ecoregions source becomes available. See: 2050-snapshot/domains/climate.md#global-climate-state</description>
                    <styleUrl>#153</styleUrl>
                    <Polygon id="149">
                        <altitudeMode>clampToGround</altitudeMode>
                        <outerBoundaryIs>
                            <LinearRing id="151">
                                <coordinates>8.0,-8.0,0 32.0,-8.0,0 32.0,6.0,0 8.0,6.0,0 8.0,-8.0,0</coordinates>
                            </LinearRing>
                        </outerBoundaryIs>
                    </Polygon>
                </Placemark>
                <Placemark id="157">
                    <name>Tropical Rainforest</name>
                    <description>Tropical Rainforest — Equatorial moist broadleaf forests — 2050 projection. APPROXIMATE — Replace with data-driven polygons when WWF T errestrial Ecoregions source becomes available. See: 2050-snapshot/domains/climate.md#global-climate-state</description>
                    <styleUrl>#160</styleUrl>
                    <Polygon id="156">
                        <altitudeMode>clampToGround</altitudeMode>
                        <outerBoundaryIs>
                            <LinearRing id="158">
                                <coordinates>95.0,-12.0,0 150.0,-12.0,0 150.0,12.0,0 95.0,12.0,0 95.0,-12.0,0</coordinates>
                            </LinearRing>
                        </outerBoundaryIs>
                    </Polygon>
                </Placemark>
                <Placemark id="164">
                    <name>Tropical Rainforest</name>
                    <description>Tropical Rainforest — Equatorial moist broadleaf forests — 2050 projection. APPROXIMATE — Replace with data-driven polygons when WWF T errestrial Ecoregions source becomes available. See: 2050-snapshot/domains/climate.md#global-climate-state</description>
                    <styleUrl>#167</styleUrl>
                    <Polygon id="163">
                        <altitudeMode>clampToGround</altitudeMode>
                        <outerBoundaryIs>
                            <LinearRing id="165">
                                <coordinates>-92.0,5.0,0 -78.0,5.0,0 -78.0,18.0,0 -92.0,18.0,0 -92.0,5.0,0</coordinates>
                            </LinearRing>
                        </outerBoundaryIs>
                    </Polygon>
                </Placemark>
            </Folder>
        </Folder>
    <Folder id="2">
            <Style id="7">
                <LineStyle id="9">
                    <color>ff55b0b0</color>
                    <colorMode>normal</colorMode>
                    <width>0.5</width>
                </LineStyle>
                <PolyStyle id="8">
                    <color>6055b0b0</color>
                    <colorMode>normal</colorMode>
                    <fill>1</fill>
                    <outline>1</outline>
                </PolyStyle>
            </Style>
            <Style id="14">
                <LineStyle id="16">
                    <color>ff55b0b0</color>
                    <colorMode>normal</colorMode>
                    <width>0.5</width>
                </LineStyle>
                <PolyStyle id="15">
                    <color>6055b0b0</color>
                    <colorMode>normal</colorMode>
                    <fill>1</fill>
                    <outline>1</outline>
                </PolyStyle>
            </Style>
            <Style id="21">
                <LineStyle id="23">
                    <color>ff55b0b0</color>
                    <colorMode>normal</colorMode>
                    <width>0.5</width>
                </LineStyle>
                <PolyStyle id="22">
                    <color>6055b0b0</color>
                    <colorMode>normal</colorMode>
                    <fill>1</fill>
                    <outline>1</outline>
                </PolyStyle>
            </Style>
            <Style id="28">
                <LineStyle id="30">
                    <color>ff55b0b0</color>
                    <colorMode>normal</colorMode>
                    <width>0.5</width>
                </LineStyle>
                <PolyStyle id="29">
                    <color>6055b0b0</color>
                    <colorMode>normal</colorMode>
                    <fill>1</fill>
                    <outline>1</outline>
                </PolyStyle>
            </Style>
            <Style id="35">
                <LineStyle id="37">
                    <color>ff55b0b0</color>
                    <colorMode>normal</colorMode>
                    <width>0.5</width>
                </LineStyle>
                <PolyStyle id="36">
                    <color>6055b0b0</color>
                    <colorMode>normal</colorMode>
                    <fill>1</fill>
                    <outline>1</outline>
                </PolyStyle>
            </Style>
            <Style id="42">
                <LineStyle id="44">
                    <color>ff55b0b0</color>
                    <colorMode>normal</colorMode>
                    <width>0.5</width>
                </LineStyle>
                <PolyStyle id="43">
                    <color>6055b0b0</color>
                    <colorMode>normal</colorMode>
                    <fill>1</fill>
                    <outline>1</outline>
                </PolyStyle>
            </Style>
            <Style id="49">
                <LineStyle id="51">
                    <color>ff55b0b0</color>
                    <colorMode>normal</colorMode>
                    <width>0.5</width>
                </LineStyle>
                <PolyStyle id="50">
                    <color>6055b0b0</color>
                    <colorMode>normal</colorMode>
                    <fill>1</fill>
                    <outline>1</outline>
                </PolyStyle>
            </Style>
            <Style id="56">
                <LineStyle id="58">
                    <color>ff55b0b0</color>
                    <colorMode>normal</colorMode>
                    <width>0.5</width>
                </LineStyle>
                <PolyStyle id="57">
                    <color>6055b0b0</color>
                    <colorMode>normal</colorMode>
                    <fill>1</fill>
                    <outline>1</outline>
                </PolyStyle>
            </Style>
            <Style id="63">
                <LineStyle id="65">
                    <color>ff55b0b0</color>
                    <colorMode>normal</colorMode>
                    <width>0.5</width>
                </LineStyle>
                <PolyStyle id="64">
                    <color>6055b0b0</color>
                    <colorMode>normal</colorMode>
                    <fill>1</fill>
                    <outline>1</outline>
                </PolyStyle>
            </Style>
            <name>Sea Level Rise Inundation (0.35m)</name>
            <Placemark id="4">
                <name>Bangladesh Delta Inundation Zone</name>
                <description>Sea level rise inundation zone (+0.35m by 2050). APPROXIMATE — Replace with DEM-derived polygon when elevation source data becomes available. +0.35m is a global mean; local effects vary due to subsidence, tides, and storm surge. Ganges-Brahmaputra-Meghna delta — densely populated low-lying coastal zone See: 2050-snapshot/domains/climate.md#sea-level</description>
                <styleUrl>#7</styleUrl>
                <Polygon id="3">
                    <altitudeMode>clampToGround</altitudeMode>
                    <outerBoundaryIs>
                        <LinearRing id="5">
                            <coordinates>93.0,21.0,0 93.0,24.0,0 88.0,24.0,0 88.0,21.0,0 93.0,21.0,0</coordinates>
                        </LinearRing>
                    </outerBoundaryIs>
                </Polygon>
            </Placemark>
            <Placemark id="11">
                <name>Mekong Delta Inundation Zone</name>
                <description>Sea level rise inundation zone (+0.35m by 2050). APPROXIMATE — Replace with DEM-derived polygon when elevation source data becomes available. +0.35m is a global mean; local effects vary due to subsidence, tides, and storm surge. Vietnam's Mekong Delta — primary rice-growing region, extreme flood risk See: 2050-snapshot/domains/climate.md#sea-level</description>
                <styleUrl>#14</styleUrl>
                <Polygon id="10">
                    <altitudeMode>clampToGround</altitudeMode>
                    <outerBoundaryIs>
                        <LinearRing id="12">
                            <coordinates>107.0,8.5,0 107.0,10.5,0 105.0,10.5,0 105.0,8.5,0 107.0,8.5,0</coordinates>
                        </LinearRing>
                    </outerBoundaryIs>
                </Polygon>
            </Placemark>
            <Placemark id="18">
                <name>Nile Delta Inundation Zone</name>
                <description>Sea level rise inundation zone (+0.35m by 2050). APPROXIMATE — Replace with DEM-derived polygon when elevation source data becomes available. +0.35m is a global mean; local effects vary due to subsidence, tides, and storm surge. Egypt's Nile Delta fan — agricultural heartland and population center See: 2050-snapshot/domains/climate.md#sea-level</description>
                <styleUrl>#21</styleUrl>
                <Polygon id="17">
                    <altitudeMode>clampToGround</altitudeMode>
                    <outerBoundaryIs>
                        <LinearRing id="19">
                            <coordinates>32.0,30.0,0 32.0,31.5,0 30.0,31.5,0 30.0,30.0,0 32.0,30.0,0</coordinates>
                        </LinearRing>
                    </outerBoundaryIs>
                </Polygon>
            </Placemark>
            <Placemark id="25">
                <name>US Gulf Coast Inundation Zone</name>
                <description>Sea level rise inundation zone (+0.35m by 2050). APPROXIMATE — Replace with DEM-derived polygon when elevation source data becomes available. +0.35m is a global mean; local effects vary due to subsidence, tides, and storm surge. Houston to Mobile — hurricane-prone coastal urban corridor See: 2050-snapshot/domains/climate.md#sea-level</description>
                <styleUrl>#28</styleUrl>
                <Polygon id="24">
                    <altitudeMode>clampToGround</altitudeMode>
                    <outerBoundaryIs>
                        <LinearRing id="26">
                            <coordinates>-88.0,28.0,0 -88.0,31.0,0 -96.0,31.0,0 -96.0,28.0,0 -88.0,28.0,0</coordinates>
                        </LinearRing>
                    </outerBoundaryIs>
                </Polygon>
            </Placemark>
            <Placemark id="32">
                <name>Pacific Atolls Inundation Zone — Tuvalu</name>
                <description>Sea level rise inundation zone (+0.35m by 2050). APPROXIMATE — Replace with DEM-derived polygon when elevation source data becomes available. +0.35m is a global mean; local effects vary due to subsidence, tides, and storm surge. Low-lying atoll nations — maximum elevation &lt;2m, extreme SLR vulnerability See: 2050-snapshot/domains/climate.md#sea-level</description>
                <styleUrl>#35</styleUrl>
                <Polygon id="31">
                    <altitudeMode>clampToGround</altitudeMode>
                    <outerBoundaryIs>
                        <LinearRing id="33">
                            <coordinates>179.22,-8.52,0 179.22,-8.48,0 179.17999999999998,-8.48,0 179.17999999999998,-8.52,0 179.22,-8.52,0</coordinates>
                        </LinearRing>
                    </outerBoundaryIs>
                </Polygon>
            </Placemark>
            <Placemark id="39">
                <name>Pacific Atolls Inundation Zone — Kiribati</name>
                <description>Sea level rise inundation zone (+0.35m by 2050). APPROXIMATE — Replace with DEM-derived polygon when elevation source data becomes available. +0.35m is a global mean; local effects vary due to subsidence, tides, and storm surge. Low-lying atoll nations — maximum elevation &lt;2m, extreme SLR vulnerability See: 2050-snapshot/domains/climate.md#sea-level</description>
                <styleUrl>#42</styleUrl>
                <Polygon id="38">
                    <altitudeMode>clampToGround</altitudeMode>
                    <outerBoundaryIs>
                        <LinearRing id="40">
                            <coordinates>173.02,1.48,0 173.02,1.52,0 172.98,1.52,0 172.98,1.48,0 173.02,1.48,0</coordinates>
                        </LinearRing>
                    </outerBoundaryIs>
                </Polygon>
            </Placemark>
            <Placemark id="46">
                <name>Pacific Atolls Inundation Zone — Marshall Islands</name>
                <description>Sea level rise inundation zone (+0.35m by 2050). APPROXIMATE — Replace with DEM-derived polygon when elevation source data becomes available. +0.35m is a global mean; local effects vary due to subsidence, tides, and storm surge. Low-lying atoll nations — maximum elevation &lt;2m, extreme SLR vulnerability See: 2050-snapshot/domains/climate.md#sea-level</description>
                <styleUrl>#49</styleUrl>
                <Polygon id="45">
                    <altitudeMode>clampToGround</altitudeMode>
                    <outerBoundaryIs>
                        <LinearRing id="47">
                            <coordinates>171.02,6.98,0 171.02,7.02,0 170.98,7.02,0 170.98,6.98,0 171.02,6.98,0</coordinates>
                        </LinearRing>
                    </outerBoundaryIs>
                </Polygon>
            </Placemark>
            <Placemark id="53">
                <name>Pacific Atolls Inundation Zone — Maldives</name>
                <description>Sea level rise inundation zone (+0.35m by 2050). APPROXIMATE — Replace with DEM-derived polygon when elevation source data becomes available. +0.35m is a global mean; local effects vary due to subsidence, tides, and storm surge. Low-lying atoll nations — maximum elevation &lt;2m, extreme SLR vulnerability See: 2050-snapshot/domains/climate.md#sea-level</description>
                <styleUrl>#56</styleUrl>
                <Polygon id="52">
                    <altitudeMode>clampToGround</altitudeMode>
                    <outerBoundaryIs>
                        <LinearRing id="54">
                            <coordinates>73.52,2.98,0 73.52,3.02,0 73.48,3.02,0 73.48,2.98,0 73.52,2.98,0</coordinates>
                        </LinearRing>
                    </outerBoundaryIs>
                </Polygon>
            </Placemark>
            <Placemark id="60">
                <name>Netherlands Inundation Zone</name>
                <description>Sea level rise inundation zone (+0.35m by 2050). APPROXIMATE — Replace with DEM-derived polygon when elevation source data becomes available. +0.35m is a global mean; local effects vary due to subsidence, tides, and storm surge. Dutch coastal zone — polder landscape already below sea level See: 2050-snapshot/domains/climate.md#sea-level</description>
                <styleUrl>#63</styleUrl>
                <Polygon id="59">
                    <altitudeMode>clampToGround</altitudeMode>
                    <outerBoundaryIs>
                        <LinearRing id="61">
                            <coordinates>8.0,51.0,0 8.0,54.0,0 3.0,54.0,0 3.0,51.0,0 8.0,51.0,0</coordinates>
                        </LinearRing>
                    </outerBoundaryIs>
                </Polygon>
            </Placemark>
        </Folder>
    <Folder>
      <name>Climate</name>
      <Placemark>
        <name>Arctic Permafrost Degradation Zone</name>
        <description>See: 2050-snapshot/domains/climate.md#arctic</description>
        <Polygon>
          <altitudeMode>clampToGround</altitudeMode>
          <outerBoundaryIs>
            <LinearRing>
              <coordinates>-180.000000,65.000000,0 180.000000,65.000000,0 180.000000,90.000000,0 -180.000000,90.000000,0 -180.000000,65.000000,0</coordinates>
            </LinearRing>
          </outerBoundaryIs>
        </Polygon>
      </Placemark>
      <Placemark>
        <name>Greenland Ice Sheet Retreat Zone</name>
        <description>See: 2050-snapshot/domains/climate.md#greenland</description>
        <Polygon>
          <altitudeMode>clampToGround</altitudeMode>
          <outerBoundaryIs>
            <LinearRing>
              <coordinates>-55.000000,60.000000,0 -15.000000,60.000000,0 -15.000000,85.000000,0 -55.000000,85.000000,0 -55.000000,60.000000,0</coordinates>
            </LinearRing>
          </outerBoundaryIs>
        </Polygon>
      </Placemark>
      <Placemark>
        <name>Glacier Mass Loss Extent</name>
        <description>See: 2050-snapshot/domains/climate.md#glaciers</description>
        <Polygon>
          <altitudeMode>clampToGround</altitudeMode>
          <outerBoundaryIs>
            <LinearRing>
              <coordinates>-180.000000,-90.000000,0 180.000000,-90.000000,0 180.000000,90.000000,0 -180.000000,90.000000,0 -180.000000,-90.000000,0</coordinates>
            </LinearRing>
          </outerBoundaryIs>
        </Polygon>
      </Placemark>
      <Placemark>
        <name>Sea Level Impact Zones</name>
        <description>See: 2050-snapshot/domains/climate.md#sea-level</description>
        <Polygon>
          <altitudeMode>clampToGround</altitudeMode>
          <outerBoundaryIs>
            <LinearRing>
              <coordinates>-180.000000,-90.000000,0 180.000000,-90.000000,0 180.000000,90.000000,0 -180.000000,90.000000,0 -180.000000,-90.000000,0</coordinates>
            </LinearRing>
          </outerBoundaryIs>
        </Polygon>
      </Placemark>
      <Placemark>
        <name>Extreme Heat Zones</name>
        <description>See: 2050-snapshot/domains/climate.md#heatwaves</description>
        <Polygon>
          <altitudeMode>clampToGround</altitudeMode>
          <outerBoundaryIs>
            <LinearRing>
              <coordinates>40.000000,10.000000,0 100.000000,10.000000,0 100.000000,40.000000,0 40.000000,40.000000,0 40.000000,10.000000,0</coordinates>
            </LinearRing>
          </outerBoundaryIs>
        </Polygon>
      </Placemark>
      <Placemark>
        <name>Fire Regime Shift</name>
        <description>See: 2050-snapshot/domains/climate.md#wildfire</description>
        <Polygon>
          <altitudeMode>clampToGround</altitudeMode>
          <outerBoundaryIs>
            <LinearRing>
              <coordinates>-130.000000,30.000000,0 -100.000000,30.000000,0 -100.000000,60.000000,0 -130.000000,60.000000,0 -130.000000,30.000000,0</coordinates>
            </LinearRing>
          </outerBoundaryIs>
        </Polygon>
      </Placemark>
      <Placemark>
        <name>Sahel Degradation Zone</name>
        <description>See: 2050-snapshot/domains/climate.md#africa</description>
        <Polygon>
          <altitudeMode>clampToGround</altitudeMode>
          <outerBoundaryIs>
            <LinearRing>
              <coordinates>-18.000000,10.000000,0 40.000000,10.000000,0 40.000000,20.000000,0 -18.000000,20.000000,0 -18.000000,10.000000,0</coordinates>
            </LinearRing>
          </outerBoundaryIs>
        </Polygon>
      </Placemark>
      <Placemark>
        <name>Extreme Heat — Persian Gulf</name>
        <description>See: 2050-snapshot/domains/climate.md#west-asia--middle-east</description>
        <Polygon>
          <altitudeMode>clampToGround</altitudeMode>
          <outerBoundaryIs>
            <LinearRing>
              <coordinates>40.000000,22.000000,0 60.000000,22.000000,0 60.000000,32.000000,0 40.000000,32.000000,0 40.000000,22.000000,0</coordinates>
            </LinearRing>
          </outerBoundaryIs>
        </Polygon>
      </Placemark>
      <Placemark>
        <name>Transboundary Water Conflict Basins</name>
        <description>See: 2050-snapshot/domains/climate.md#water-scarcity</description>
        <Polygon>
          <altitudeMode>clampToGround</altitudeMode>
          <outerBoundaryIs>
            <LinearRing>
              <coordinates>-180.000000,-90.000000,0 180.000000,-90.000000,0 180.000000,90.000000,0 -180.000000,90.000000,0 -180.000000,-90.000000,0</coordinates>
            </LinearRing>
          </outerBoundaryIs>
        </Polygon>
      </Placemark>
      <Placemark>
        <name>Arctic Resource Zones</name>
        <description>See: 2050-snapshot/domains/climate.md#arctic-resource-competition</description>
        <Polygon>
          <altitudeMode>clampToGround</altitudeMode>
          <outerBoundaryIs>
            <LinearRing>
              <coordinates>-180.000000,66.000000,0 180.000000,66.000000,0 180.000000,90.000000,0 -180.000000,90.000000,0 -180.000000,66.000000,0</coordinates>
            </LinearRing>
          </outerBoundaryIs>
        </Polygon>
      </Placemark>
      <Placemark>
        <name>Desalination and Adaptation Infrastructure</name>
        <description>See: 2050-snapshot/domains/climate.md#to-technology</description>
        <Polygon>
          <altitudeMode>clampToGround</altitudeMode>
          <outerBoundaryIs>
            <LinearRing>
              <coordinates>-180.000000,-90.000000,0 180.000000,-90.000000,0 180.000000,90.000000,0 -180.000000,90.000000,0 -180.000000,-90.000000,0</coordinates>
            </LinearRing>
          </outerBoundaryIs>
        </Polygon>
      </Placemark>
    </Folder>
  </Document>
</kml>
