<?xml version='1.0' encoding='UTF-8'?>
<kml xmlns="http://www.opengis.net/kml/2.2" xmlns:gx="http://www.google.com/kml/ext/2.2">
  <Document xmlns:ns0="http://www.opengis.net/kml/2.2">
    <name>2050 Technology</name>
    <visibility>0</visibility>
    <gx:CascadingStyle ns0:id="__managed_style_0000000000000013">
      <Style>
        <IconStyle>
          <Icon>
            <href>https://earth.google.com/earth/document/icon?color=1976d2&amp;id=2000&amp;scale=4</href>
          </Icon>
          <hotSpot x="64" y="128" xunits="pixels" yunits="insetPixels"/>
        </IconStyle>
        <LabelStyle/>
        <LineStyle>
          <color>ffb055b0</color>
          <width>0.5</width>
        </LineStyle>
        <PolyStyle>
          <color>40b055b0</color>
        </PolyStyle>
        <BalloonStyle>
          <displayMode>hide</displayMode>
        </BalloonStyle>
      </Style>
    </gx:CascadingStyle>
    <gx:CascadingStyle ns0:id="__managed_style_0000000000000014">
      <Style>
        <IconStyle>
          <Icon>
            <href>https://earth.google.com/earth/document/icon?color=1976d2&amp;id=2000&amp;scale=4</href>
          </Icon>
          <hotSpot x="64" y="128" xunits="pixels" yunits="insetPixels"/>
        </IconStyle>
        <LabelStyle/>
        <LineStyle>
          <color>ffb055b0</color>
          <width>1.0</width>
        </LineStyle>
        <PolyStyle>
          <color>40b055b0</color>
        </PolyStyle>
        <BalloonStyle>
          <displayMode>hide</displayMode>
        </BalloonStyle>
      </Style>
    </gx:CascadingStyle>
    <StyleMap ns0:id="__managed_style_0000000000000015">
      <Pair>
        <key>normal</key>
        <styleUrl>#__managed_style_0000000000000013</styleUrl>
      </Pair>
      <Pair>
        <key>highlight</key>
        <styleUrl>#__managed_style_0000000000000014</styleUrl>
      </Pair>
    </StyleMap>
    <Folder>
      <name>Technology</name>
      <Placemark>
        <name>PPR AI Regulation Zone</name>
        <styleUrl>#__managed_style_0000000000000015</styleUrl>
        <description>See: 2050-snapshot/domains/technology.md#ai-governance-regimes</description>
        <Polygon>
          <altitudeMode>clampToGround</altitudeMode>
          <outerBoundaryIs>
            <LinearRing>
              <coordinates>-123.053504,38.299385,0 -123.085572,38.390525,0 -123.166428,38.474947,0 -123.331899,38.565542,0 -123.441774,38.699744,0 -123.710540,38.913230,0 -123.732892,38.954994,0 -123.690740,39.021293,0 -123.825331,39.360814,0 -123.766475,39.552803,0 -123.851714,39.832041,0 -124.068908,40.021307,0 -124.087086,40.078442,0 -124.363414,40.260974,0 -124.353124,40.331425,0 -124.409591,40.438076,0 -124.118147,40.989263,0 -124.163988,41.138675,0 -124.122677,41.189726,0 -124.063076,41.439579,0 -124.143479,41.709284,0 -124.245027,41.792300,0 -124.211605,41.998460,0 -124.314289,42.067864,0 -124.410982,42.250547,0 -124.435105,42.440163,0 -124.399065,42.539928,0 -124.413119,42.657934,0 -124.510017,42.734746,0 -124.552441,42.840568,0 -124.436198,43.071312,0 -124.382460,43.270167,0 -124.400404,43.302121,0 -124.286896,43.436296,0 -124.233534,43.557130,0 -124.150267,43.910850,0 -124.065008,44.632504,0 -124.074066,44.798107,0 -123.975425,45.145476,0 -123.976544,45.489733,0 -123.939005,45.661923,0 -123.993703,45.946431,0 -123.937471,45.977306,0 -123.929330,46.041978,0 -123.959190,46.141675,0 -124.041128,46.197672,0 -123.998052,46.235327,0 -123.912405,46.179450,0 -123.757589,46.213001,0 -123.718149,46.188989,0 -123.547659,46.259109,0 -123.669501,46.266832,0 -123.700764,46.305278,0 -123.875525,46.239787,0 -123.969427,46.291398,0 -124.080671,46.267239,0 -124.069583,46.630651,0 -123.960642,46.636364,0 -123.923269,46.672708,0 -124.080983,46.735003,0 -124.138225,46.905534,0 -124.180111,46.926357,0 -124.188544,47.157859,0 -124.236349,47.287287,0 -124.319379,47.355559,0 -124.412106,47.691199,0 -124.672427,47.964414,0 -124.721725,48.153185,0 -124.669265,48.296353,0 -124.725839,48.386012,0 -124.653243,48.390691,0 -124.050734,48.177747,0 -123.314578,48.113725,0 -123.239129,48.118217,0 -123.144783,48.175943,0 -123.004128,48.090516,0 -122.760448,48.143240,0 -122.698465,48.103102,0 -122.701294,47.972979,0 -122.651063,47.920985,0 -122.546824,47.967215,0 -122.542924,47.996404,0 -122.607342,48.030992,0 -122.598301,48.110616,0 -122.633167,48.163281,0 -122.711508,48.193573,0 -122.752563,48.260061,0 -122.665338,48.416453,0 -122.689121,48.476849,0 -122.642597,48.588339,0 -122.732506,48.838097,0 -122.821631,48.941369,0 -122.758020,49.002357,0 -117.032351,48.999188,0 -117.035545,46.410012,0 -117.062748,46.353624,0 -116.997260,46.303151,0 -116.962966,46.199680,0 -116.923958,46.170920,0 -116.981962,46.084915,0 -116.859795,45.907264,0 -116.787520,45.840204,0 -116.593004,45.778541,0 -116.463504,45.615785,0 -116.674648,45.314342,0 -116.754643,45.113972,0 -116.841314,45.030907,0 -116.858313,44.978761,0 -116.833632,44.928976,0 -116.865338,44.870599,0 -116.931800,44.787181,0 -117.062273,44.727143,0 -117.142930,44.557236,0 -117.225932,44.479389,0 -117.215072,44.427162,0 -117.243027,44.390974,0 -117.192203,44.328630,0 -117.216974,44.288357,0 -116.971958,44.235677,0 -116.965498,44.194126,0 -116.895931,44.154295,0 -116.977351,44.085364,0 -116.937342,44.029376,0 -117.023577,43.823811,0 -117.026197,41.999890,0 -119.999168,41.994540,0 -120.001014,38.999574,0 -117.680610,37.353399,0 -115.846114,35.963553,0 -115.845803,36.122048,0 -115.895753,36.172227,0 -115.896925,36.842085,0 -114.050161,36.843142,0 -114.046838,36.194069,0 -114.151725,36.024563,0 -114.270645,36.035720,0 -114.372106,36.143114,0 -114.627855,36.141012,0 -114.736165,36.104367,0 -114.743342,36.070535,0 -114.731159,35.943916,0 -114.669687,35.865084,0 -114.703710,35.814585,0 -114.689407,35.651412,0 -114.653406,35.610789,0 -114.664500,35.449497,0 -114.627137,35.409504,0 -114.572747,35.138725,0 -114.619905,35.121632,0 -114.634382,34.872890,0 -114.465246,34.691202,0 -114.378223,34.516521,0 -114.378852,34.450376,0 -114.335372,34.450038,0 -114.140930,34.305919,0 -114.139055,34.259538,0 -114.229715,34.186928,0 -114.428026,34.092787,0 -114.454807,34.010968,0 -114.534987,33.928499,0 -114.508708,33.900640,0 -114.496565,33.719155,0 -114.524599,33.552231,0 -114.635183,33.422726,0 -114.725282,33.405048,0 -114.723259,33.288079,0 -114.674491,33.255597,0 -114.706175,33.105335,0 -114.670803,33.037984,0 -114.511343,33.023455,0 -114.468971,32.845155,0 -114.570675,32.747417,0 -114.719633,32.718763,0 -117.124862,32.534156,0 -117.168866,32.671952,0 -117.246069,32.669352,0 -117.282170,32.839547,0 -117.254470,32.900146,0 -117.362572,33.168437,0 -117.645582,33.440728,0 -117.715349,33.460556,0 -118.115077,33.743803,0 -118.059040,33.846195,0 -117.976575,33.906406,0 -117.976498,33.946050,0 -117.783252,33.946261,0 -117.802445,33.968308,0 -117.767657,34.023508,0 -117.729416,34.025479,0 -117.646374,34.289170,0 -117.667459,34.822528,0 -118.894634,34.817972,0 -118.632494,34.240391,0 -118.693834,34.168557,0 -118.788889,34.168214,0 -118.944480,34.046739,0 -119.227743,34.161728,0 -119.270144,34.252903,0 -119.477947,34.378838,0 -119.440414,34.441842,0 -119.443691,34.901171,0 -119.535757,34.897576,0 -120.082084,35.114678,0 -120.167616,35.075297,0 -120.188383,35.030378,0 -120.334548,35.006315,0 -120.301827,34.905571,0 -120.435473,34.986759,0 -120.650305,34.975166,0 -120.635787,35.123805,0 -120.896790,35.247877,0 -120.862133,35.360763,0 -120.884757,35.430196,0 -121.003359,35.460710,0 -121.166712,35.635399,0 -121.272322,35.666711,0 -121.332449,35.783106,0 -121.462264,35.885618,0 -121.486200,35.970348,0 -121.574602,36.025156,0 -121.680145,36.165818,0 -121.888491,36.302810,0 -121.970427,36.582754,0 -121.923866,36.634559,0 -121.860604,36.611136,0 -121.814462,36.682858,0 -121.791544,36.815186,0 -121.862266,36.931552,0 -121.906468,36.968950,0 -122.105976,36.955951,0 -122.397065,37.187249,0 -122.409258,37.374805,0 -122.445987,37.461541,0 -122.516689,37.521340,0 -122.511983,37.771130,0 -122.398139,37.805630,0 -122.356784,37.729505,0 -122.393190,37.707531,0 -122.360219,37.592501,0 -122.168449,37.504143,0 -122.111998,37.528851,0 -122.163049,37.667933,0 -122.333711,37.809797,0 -122.303931,37.830087,0 -122.334530,37.908791,0 -122.378709,37.905191,0 -122.425258,37.955672,0 -122.262861,38.051473,0 -122.301804,38.105142,0 -122.393588,38.143449,0 -122.491283,38.108087,0 -122.499465,38.032165,0 -122.452995,37.996167,0 -122.488665,37.966714,0 -122.486375,37.921881,0 -122.418470,37.852721,0 -122.537285,37.830328,0 -122.678474,37.906604,0 -122.702640,37.893820,0 -122.856573,38.016717,0 -122.939711,38.031908,0 -122.974390,37.992429,0 -123.011533,38.003438,0 -122.953629,38.175670,0 -123.004122,38.297012,0 -123.053504,38.299385,0</coordinates>
            </LinearRing>
          </outerBoundaryIs>
        </Polygon>
        <Polygon>
          <altitudeMode>clampToGround</altitudeMode>
          <outerBoundaryIs>
            <LinearRing>
              <coordinates>-122.799010,48.604683,0 -122.771206,48.562426,0 -122.779124,48.508911,0 -122.817912,48.483888,0 -122.803521,48.428748,0 -122.874135,48.418196,0 -123.141478,48.505291,0 -123.237148,48.683466,0 -123.070427,48.699971,0 -122.937925,48.790315,0 -122.818436,48.744629,0 -122.743049,48.661991,0 -122.799010,48.604683,0</coordinates>
            </LinearRing>
          </outerBoundaryIs>
        </Polygon>
        <Polygon>
          <altitudeMode>clampToGround</altitudeMode>
          <outerBoundaryIs>
            <LinearRing>
              <coordinates>-119.487720,33.996515,0 -119.721206,33.959583,0 -119.873358,33.980375,0 -119.916216,34.058351,0 -119.470737,34.053997,0 -119.487720,33.996515,0</coordinates>
            </LinearRing>
          </outerBoundaryIs>
        </Polygon>
        <Polygon>
          <altitudeMode>clampToGround</altitudeMode>
          <outerBoundaryIs>
            <LinearRing>
              <coordinates>-118.465368,33.326056,0 -118.593969,33.467198,0 -118.484785,33.487483,0 -118.286261,33.351463,0 -118.325244,33.299075,0 -118.465368,33.326056,0</coordinates>
            </LinearRing>
          </outerBoundaryIs>
        </Polygon>
      </Placemark>
      <Placemark>
        <name>European AI Regulation Zone</name>
        <styleUrl>#__managed_style_0000000000000015</styleUrl>
        <description>See: 2050-snapshot/domains/technology.md#ai-governance-regimes</description>
        <Polygon>
          <altitudeMode>clampToGround</altitudeMode>
          <outerBoundaryIs>
            <LinearRing>
              <coordinates>16.011664,46.683611,0 16.202298,46.852386,0 16.534268,47.496171,0 16.340584,47.712902,0 16.903754,47.714866,0 16.979667,48.123497,0 17.488473,47.867466,0 17.857133,47.758429,0 18.696513,47.880954,0 18.777025,48.081768,0 19.174365,48.111379,0 19.661364,48.266615,0 19.769471,48.202691,0 20.239054,48.327567,0 20.473562,48.562850,0 20.801294,48.623854,0 21.872236,48.319971,0 22.085608,48.422264,0 22.640820,48.150240,0 22.710531,47.882194,0 22.099768,47.672439,0 21.626515,46.994238,0 21.021952,46.316088,0 20.220192,46.127469,0 19.596045,46.171730,0 18.456062,45.759481,0 17.630066,45.951769,0 16.882515,46.380632,0 16.564808,46.503751,0 15.768733,46.238108,0 15.671530,45.834154,0 15.323954,45.731783,0 15.327675,45.452316,0 14.935244,45.471695,0 14.595109,45.634941,0 14.411968,45.466166,0 13.715060,45.500324,0 13.937630,45.591016,0 13.698110,46.016778,0 13.806475,46.509306,0 14.632472,46.431817,0 15.137092,46.658703,0 16.011664,46.683611,0</coordinates>
            </LinearRing>
          </outerBoundaryIs>
        </Polygon>
        <Polygon>
          <altitudeMode>clampToGround</altitudeMode>
          <outerBoundaryIs>
            <LinearRing>
              <coordinates>5.674052,49.529484,0 4.799222,49.985373,0 4.286023,49.907497,0 3.588184,50.378992,0 3.123252,50.780363,0 2.658422,50.796848,0 2.513573,51.148506,0 3.315011,51.345777,0 3.830289,51.620545,0 4.705997,53.091798,0 6.074183,53.510403,0 6.905140,53.482162,0 7.092053,53.144043,0 6.842870,52.228440,0 6.589397,51.852029,0 5.988658,51.851616,0 6.156658,50.803721,0 6.043073,50.128052,0 6.242751,49.902226,0 6.186320,49.463803,0 5.897759,49.442667,0 5.674052,49.529484,0</coordinates>
            </LinearRing>
          </outerBoundaryIs>
        </Polygon>
        <Polygon>
          <altitudeMode>clampToGround</altitudeMode>
          <outerBoundaryIs>
            <LinearRing>
              <coordinates>8.089977,56.540012,0 8.256582,56.809969,0 8.543438,57.110003,0 9.424469,57.172066,0 9.775559,57.447941,0 10.580006,57.730017,0 10.546106,57.215733,0 10.250000,56.890016,0 10.369993,56.609982,0 10.912182,56.458621,0 10.667804,56.081383,0 10.369993,56.190007,0 9.649985,55.469999,0 9.921906,54.983104,0 9.282049,54.830865,0 8.526229,54.962744,0 8.120311,55.517723,0 8.089977,56.540012,0</coordinates>
            </LinearRing>
          </outerBoundaryIs>
        </Polygon>
        <Polygon>
          <altitudeMode>clampToGround</altitudeMode>
          <outerBoundaryIs>
            <LinearRing>
              <coordinates>-14.909834,64.364082,0 -18.656246,63.496383,0 -22.762972,63.960179,0 -21.778484,64.402116,0 -23.955044,64.891130,0 -22.184403,65.084968,0 -22.227423,65.378594,0 -24.326184,65.611189,0 -23.650515,66.262519,0 -22.134922,66.410469,0 -20.576284,65.732112,0 -19.056842,66.276601,0 -17.798624,65.993853,0 -16.167819,66.526792,0 -14.508695,66.455892,0 -14.739637,65.808748,0 -13.609732,65.126671,0 -14.909834,64.364082,0</coordinates>
            </LinearRing>
          </outerBoundaryIs>
        </Polygon>
        <Polygon>
          <altitudeMode>clampToGround</altitudeMode>
          <outerBoundaryIs>
            <LinearRing>
              <coordinates>18.251830,79.701750,0 21.543830,78.956110,0 19.027370,78.562600,0 18.471720,77.826690,0 17.594410,77.637960,0 17.118200,76.809410,0 15.913150,76.770450,0 13.762590,77.380350,0 14.669560,77.735650,0 13.170600,78.024930,0 11.222310,78.869300,0 10.444530,79.652390,0 13.170770,80.010460,0 13.718520,79.660390,0 15.142820,79.674310,0 15.522550,80.016080,0 16.990850,80.050860,0 18.251830,79.701750,0</coordinates>
            </LinearRing>
          </outerBoundaryIs>
        </Polygon>
        <Polygon>
          <altitudeMode>clampToGround</altitudeMode>
          <outerBoundaryIs>
            <LinearRing>
              <coordinates>24.450684,53.905702,0 23.484128,53.912498,0 23.243987,54.220567,0 22.731099,54.327537,0 22.651052,54.582741,0 22.757764,54.856574,0 22.315724,55.015299,0 21.268449,55.190482,0 21.055800,56.031076,0 21.090424,56.783873,0 21.581866,57.411871,0 22.524341,57.753374,0 23.318453,57.006236,0 24.120730,57.025693,0 24.428928,58.383413,0 24.061198,58.257375,0 23.426560,58.612753,0 23.339795,59.187240,0 24.604214,59.465854,0 25.864189,59.611090,0 26.949136,59.445803,0 27.981114,59.475388,0 28.131699,59.300825,0 27.420150,58.724570,0 27.716686,57.791899,0 27.288185,57.474528,0 27.770016,57.244258,0 27.855282,56.759326,0 28.176709,56.169130,0 27.102460,55.783314,0 26.494331,55.615107,0 26.588279,55.167176,0 25.768433,54.846963,0 25.536354,54.282423,0 24.450684,53.905702,0</coordinates>
            </LinearRing>
          </outerBoundaryIs>
        </Polygon>
        <Polygon>
          <altitudeMode>clampToGround</altitudeMode>
          <outerBoundaryIs>
            <LinearRing>
              <coordinates>11.992064,61.800362,0 11.930569,63.128318,0 12.579935,64.066219,0 13.571916,64.049114,0 13.919905,64.445421,0 13.555690,64.787028,0 15.108411,66.193867,0 16.768879,68.013937,0 17.729182,68.010552,0 17.993868,68.567391,0 19.878560,68.407194,0 20.025269,69.065139,0 20.645593,69.106247,0 21.244936,69.370443,0 22.356238,68.841741,0 23.662050,68.891247,0 24.735679,68.649557,0 25.689213,69.092114,0 26.179622,69.825299,0 27.732292,70.164193,0 29.015573,69.766491,0 28.591930,69.064777,0 28.445944,68.364613,0 29.977426,67.698297,0 29.054589,66.944286,0 30.217650,65.805980,0 29.544430,64.948672,0 30.444685,64.204453,0 30.035872,63.552814,0 31.516092,62.867687,0 31.139991,62.357693,0 28.069998,60.503517,0 26.255173,60.423961,0 24.496624,60.057316,0 22.869695,59.846373,0 22.290764,60.391921,0 21.322244,60.720170,0 21.544866,61.705329,0 21.059211,62.607393,0 21.536029,63.189735,0 22.442744,63.817810,0 24.730512,64.902344,0 25.398068,65.111427,0 25.294043,65.534346,0 23.903379,66.006927,0 22.183173,65.723741,0 21.213517,65.026005,0 21.369631,64.413588,0 19.778876,63.609554,0 17.847779,62.749400,0 17.119555,61.341166,0 17.831346,60.636583,0 18.787722,60.081914,0 17.869225,58.953766,0 16.829185,58.719827,0 16.447710,57.041118,0 15.879786,56.104302,0 14.666681,56.200885,0 14.100721,55.407781,0 12.942911,55.361737,0 12.625101,56.307080,0 11.787942,57.441817,0 11.027369,58.856149,0 11.468272,59.432393,0 12.300366,60.117933,0 12.631147,61.293572,0 11.992064,61.800362,0</coordinates>
            </LinearRing>
          </outerBoundaryIs>
        </Polygon>
      </Placemark>
      <Placemark>
        <name>BRICS+ AI Deployment Zone</name>
        <styleUrl>#__managed_style_0000000000000015</styleUrl>
        <description>See: 2050-snapshot/domains/technology.md#ai-governance-regimes</description>
        <Polygon>
          <altitudeMode>clampToGround</altitudeMode>
          <outerBoundaryIs>
            <LinearRing>
              <coordinates>60.000000,-40.000000,0 160.000000,-40.000000,0 160.000000,60.000000,0 60.000000,60.000000,0 60.000000,-40.000000,0</coordinates>
            </LinearRing>
          </outerBoundaryIs>
        </Polygon>
      </Placemark>
      <Placemark>
        <name>Reactionary AI Vacuum Zone</name>
        <styleUrl>#__managed_style_0000000000000015</styleUrl>
        <description>See: 2050-snapshot/domains/technology.md#ai-governance-regimes</description>
        <Polygon>
          <altitudeMode>clampToGround</altitudeMode>
          <outerBoundaryIs>
            <LinearRing>
              <coordinates>-100.000000,25.000000,0 -75.000000,25.000000,0 -75.000000,40.000000,0 -100.000000,40.000000,0 -100.000000,25.000000,0</coordinates>
            </LinearRing>
          </outerBoundaryIs>
        </Polygon>
      </Placemark>
      <Placemark>
        <name>AI Datacenter Concentration Zones</name>
        <styleUrl>#__managed_style_0000000000000015</styleUrl>
        <description>See: 2050-snapshot/domains/technology.md#computational-infrastructure</description>
        <Polygon>
          <altitudeMode>clampToGround</altitudeMode>
          <outerBoundaryIs>
            <LinearRing>
              <coordinates>-130.000000,32.000000,0 -115.000000,32.000000,0 -115.000000,50.000000,0 -130.000000,50.000000,0 -130.000000,32.000000,0</coordinates>
            </LinearRing>
          </outerBoundaryIs>
        </Polygon>
      </Placemark>
      <Placemark>
        <name>Revolutionary State Energy Systems</name>
        <styleUrl>#__managed_style_0000000000000015</styleUrl>
        <description>See: 2050-snapshot/domains/technology.md#energy-systems</description>
        <Polygon>
          <altitudeMode>clampToGround</altitudeMode>
          <outerBoundaryIs>
            <LinearRing>
              <coordinates>-123.053504,38.299385,0 -123.085572,38.390525,0 -123.166428,38.474947,0 -123.331899,38.565542,0 -123.441774,38.699744,0 -123.710540,38.913230,0 -123.732892,38.954994,0 -123.690740,39.021293,0 -123.825331,39.360814,0 -123.766475,39.552803,0 -123.851714,39.832041,0 -124.068908,40.021307,0 -124.087086,40.078442,0 -124.363414,40.260974,0 -124.353124,40.331425,0 -124.409591,40.438076,0 -124.118147,40.989263,0 -124.163988,41.138675,0 -124.122677,41.189726,0 -124.063076,41.439579,0 -124.143479,41.709284,0 -124.245027,41.792300,0 -124.211605,41.998460,0 -124.314289,42.067864,0 -124.410982,42.250547,0 -124.435105,42.440163,0 -124.399065,42.539928,0 -124.413119,42.657934,0 -124.510017,42.734746,0 -124.552441,42.840568,0 -124.436198,43.071312,0 -124.382460,43.270167,0 -124.400404,43.302121,0 -124.286896,43.436296,0 -124.233534,43.557130,0 -124.150267,43.910850,0 -124.065008,44.632504,0 -124.074066,44.798107,0 -123.975425,45.145476,0 -123.976544,45.489733,0 -123.939005,45.661923,0 -123.993703,45.946431,0 -123.937471,45.977306,0 -123.929330,46.041978,0 -123.959190,46.141675,0 -124.041128,46.197672,0 -123.998052,46.235327,0 -123.912405,46.179450,0 -123.757589,46.213001,0 -123.718149,46.188989,0 -123.547659,46.259109,0 -123.669501,46.266832,0 -123.700764,46.305278,0 -123.875525,46.239787,0 -123.969427,46.291398,0 -124.080671,46.267239,0 -124.069583,46.630651,0 -123.960642,46.636364,0 -123.923269,46.672708,0 -124.080983,46.735003,0 -124.138225,46.905534,0 -124.180111,46.926357,0 -124.188544,47.157859,0 -124.236349,47.287287,0 -124.319379,47.355559,0 -124.412106,47.691199,0 -124.672427,47.964414,0 -124.721725,48.153185,0 -124.669265,48.296353,0 -124.725839,48.386012,0 -124.653243,48.390691,0 -124.050734,48.177747,0 -123.314578,48.113725,0 -123.239129,48.118217,0 -123.144783,48.175943,0 -123.004128,48.090516,0 -122.760448,48.143240,0 -122.698465,48.103102,0 -122.701294,47.972979,0 -122.651063,47.920985,0 -122.546824,47.967215,0 -122.542924,47.996404,0 -122.607342,48.030992,0 -122.598301,48.110616,0 -122.633167,48.163281,0 -122.711508,48.193573,0 -122.752563,48.260061,0 -122.665338,48.416453,0 -122.689121,48.476849,0 -122.642597,48.588339,0 -122.732506,48.838097,0 -122.821631,48.941369,0 -122.758020,49.002357,0 -117.032351,48.999188,0 -117.035545,46.410012,0 -117.062748,46.353624,0 -116.997260,46.303151,0 -116.962966,46.199680,0 -116.923958,46.170920,0 -116.981962,46.084915,0 -116.859795,45.907264,0 -116.787520,45.840204,0 -116.593004,45.778541,0 -116.463504,45.615785,0 -116.674648,45.314342,0 -116.754643,45.113972,0 -116.841314,45.030907,0 -116.858313,44.978761,0 -116.833632,44.928976,0 -116.865338,44.870599,0 -116.931800,44.787181,0 -117.062273,44.727143,0 -117.142930,44.557236,0 -117.225932,44.479389,0 -117.215072,44.427162,0 -117.243027,44.390974,0 -117.192203,44.328630,0 -117.216974,44.288357,0 -116.971958,44.235677,0 -116.965498,44.194126,0 -116.895931,44.154295,0 -116.977351,44.085364,0 -116.937342,44.029376,0 -117.023577,43.823811,0 -117.026197,41.999890,0 -119.999168,41.994540,0 -120.001014,38.999574,0 -117.680610,37.353399,0 -115.846114,35.963553,0 -115.845803,36.122048,0 -115.895753,36.172227,0 -115.896925,36.842085,0 -114.050161,36.843142,0 -114.046838,36.194069,0 -114.151725,36.024563,0 -114.270645,36.035720,0 -114.372106,36.143114,0 -114.627855,36.141012,0 -114.736165,36.104367,0 -114.743342,36.070535,0 -114.731159,35.943916,0 -114.669687,35.865084,0 -114.703710,35.814585,0 -114.689407,35.651412,0 -114.653406,35.610789,0 -114.664500,35.449497,0 -114.627137,35.409504,0 -114.572747,35.138725,0 -114.619905,35.121632,0 -114.634382,34.872890,0 -114.465246,34.691202,0 -114.378223,34.516521,0 -114.378852,34.450376,0 -114.335372,34.450038,0 -114.140930,34.305919,0 -114.139055,34.259538,0 -114.229715,34.186928,0 -114.428026,34.092787,0 -114.454807,34.010968,0 -114.534987,33.928499,0 -114.508708,33.900640,0 -114.496565,33.719155,0 -114.524599,33.552231,0 -114.635183,33.422726,0 -114.725282,33.405048,0 -114.723259,33.288079,0 -114.674491,33.255597,0 -114.706175,33.105335,0 -114.670803,33.037984,0 -114.511343,33.023455,0 -114.468971,32.845155,0 -114.570675,32.747417,0 -114.719633,32.718763,0 -117.124862,32.534156,0 -117.168866,32.671952,0 -117.246069,32.669352,0 -117.282170,32.839547,0 -117.254470,32.900146,0 -117.362572,33.168437,0 -117.645582,33.440728,0 -117.715349,33.460556,0 -118.115077,33.743803,0 -118.059040,33.846195,0 -117.976575,33.906406,0 -117.976498,33.946050,0 -117.783252,33.946261,0 -117.802445,33.968308,0 -117.767657,34.023508,0 -117.729416,34.025479,0 -117.646374,34.289170,0 -117.667459,34.822528,0 -118.894634,34.817972,0 -118.632494,34.240391,0 -118.693834,34.168557,0 -118.788889,34.168214,0 -118.944480,34.046739,0 -119.227743,34.161728,0 -119.270144,34.252903,0 -119.477947,34.378838,0 -119.440414,34.441842,0 -119.443691,34.901171,0 -119.535757,34.897576,0 -120.082084,35.114678,0 -120.167616,35.075297,0 -120.188383,35.030378,0 -120.334548,35.006315,0 -120.301827,34.905571,0 -120.435473,34.986759,0 -120.650305,34.975166,0 -120.635787,35.123805,0 -120.896790,35.247877,0 -120.862133,35.360763,0 -120.884757,35.430196,0 -121.003359,35.460710,0 -121.166712,35.635399,0 -121.272322,35.666711,0 -121.332449,35.783106,0 -121.462264,35.885618,0 -121.486200,35.970348,0 -121.574602,36.025156,0 -121.680145,36.165818,0 -121.888491,36.302810,0 -121.970427,36.582754,0 -121.923866,36.634559,0 -121.860604,36.611136,0 -121.814462,36.682858,0 -121.791544,36.815186,0 -121.862266,36.931552,0 -121.906468,36.968950,0 -122.105976,36.955951,0 -122.397065,37.187249,0 -122.409258,37.374805,0 -122.445987,37.461541,0 -122.516689,37.521340,0 -122.511983,37.771130,0 -122.398139,37.805630,0 -122.356784,37.729505,0 -122.393190,37.707531,0 -122.360219,37.592501,0 -122.168449,37.504143,0 -122.111998,37.528851,0 -122.163049,37.667933,0 -122.333711,37.809797,0 -122.303931,37.830087,0 -122.334530,37.908791,0 -122.378709,37.905191,0 -122.425258,37.955672,0 -122.262861,38.051473,0 -122.301804,38.105142,0 -122.393588,38.143449,0 -122.491283,38.108087,0 -122.499465,38.032165,0 -122.452995,37.996167,0 -122.488665,37.966714,0 -122.486375,37.921881,0 -122.418470,37.852721,0 -122.537285,37.830328,0 -122.678474,37.906604,0 -122.702640,37.893820,0 -122.856573,38.016717,0 -122.939711,38.031908,0 -122.974390,37.992429,0 -123.011533,38.003438,0 -122.953629,38.175670,0 -123.004122,38.297012,0 -123.053504,38.299385,0</coordinates>
            </LinearRing>
          </outerBoundaryIs>
        </Polygon>
        <Polygon>
          <altitudeMode>clampToGround</altitudeMode>
          <outerBoundaryIs>
            <LinearRing>
              <coordinates>-122.799010,48.604683,0 -122.771206,48.562426,0 -122.779124,48.508911,0 -122.817912,48.483888,0 -122.803521,48.428748,0 -122.874135,48.418196,0 -123.141478,48.505291,0 -123.237148,48.683466,0 -123.070427,48.699971,0 -122.937925,48.790315,0 -122.818436,48.744629,0 -122.743049,48.661991,0 -122.799010,48.604683,0</coordinates>
            </LinearRing>
          </outerBoundaryIs>
        </Polygon>
        <Polygon>
          <altitudeMode>clampToGround</altitudeMode>
          <outerBoundaryIs>
            <LinearRing>
              <coordinates>-119.487720,33.996515,0 -119.721206,33.959583,0 -119.873358,33.980375,0 -119.916216,34.058351,0 -119.470737,34.053997,0 -119.487720,33.996515,0</coordinates>
            </LinearRing>
          </outerBoundaryIs>
        </Polygon>
        <Polygon>
          <altitudeMode>clampToGround</altitudeMode>
          <outerBoundaryIs>
            <LinearRing>
              <coordinates>-118.465368,33.326056,0 -118.593969,33.467198,0 -118.484785,33.487483,0 -118.286261,33.351463,0 -118.325244,33.299075,0 -118.465368,33.326056,0</coordinates>
            </LinearRing>
          </outerBoundaryIs>
        </Polygon>
      </Placemark>
      <Placemark>
        <name>Reactionary State Energy Systems</name>
        <styleUrl>#__managed_style_0000000000000015</styleUrl>
        <description>See: 2050-snapshot/domains/technology.md#energy-systems</description>
        <Polygon>
          <altitudeMode>clampToGround</altitudeMode>
          <outerBoundaryIs>
            <LinearRing>
              <coordinates>-100.000000,25.000000,0 -75.000000,25.000000,0 -75.000000,40.000000,0 -100.000000,40.000000,0 -100.000000,25.000000,0</coordinates>
            </LinearRing>
          </outerBoundaryIs>
        </Polygon>
      </Placemark>
      <Placemark>
        <name>Grid Architecture Zones</name>
        <styleUrl>#__managed_style_0000000000000015</styleUrl>
        <description>See: 2050-snapshot/domains/technology.md#grid-architecture</description>
        <Polygon>
          <altitudeMode>clampToGround</altitudeMode>
          <outerBoundaryIs>
            <LinearRing>
              <coordinates>-130.000000,30.000000,0 -70.000000,30.000000,0 -70.000000,50.000000,0 -130.000000,50.000000,0 -130.000000,30.000000,0</coordinates>
            </LinearRing>
          </outerBoundaryIs>
        </Polygon>
      </Placemark>
      <Placemark>
        <name>Gene Editing Governance Zones</name>
        <styleUrl>#__managed_style_0000000000000015</styleUrl>
        <description>See: 2050-snapshot/domains/technology.md#biotechnology--healthcare</description>
        <Polygon>
          <altitudeMode>clampToGround</altitudeMode>
          <outerBoundaryIs>
            <LinearRing>
              <coordinates>-180.000000,-90.000000,0 180.000000,-90.000000,0 180.000000,90.000000,0 -180.000000,90.000000,0 -180.000000,-90.000000,0</coordinates>
            </LinearRing>
          </outerBoundaryIs>
        </Polygon>
      </Placemark>
      <Placemark>
        <name>Healthcare System Types</name>
        <styleUrl>#__managed_style_0000000000000015</styleUrl>
        <description>See: 2050-snapshot/domains/technology.md#health-system-divergence</description>
        <Polygon>
          <altitudeMode>clampToGround</altitudeMode>
          <outerBoundaryIs>
            <LinearRing>
              <coordinates>-180.000000,-90.000000,0 180.000000,-90.000000,0 180.000000,90.000000,0 -180.000000,90.000000,0 -180.000000,-90.000000,0</coordinates>
            </LinearRing>
          </outerBoundaryIs>
        </Polygon>
      </Placemark>
      <Placemark>
        <name>Information Sovereignty Zones</name>
        <styleUrl>#__managed_style_0000000000000015</styleUrl>
        <description>See: 2050-snapshot/domains/technology.md#internet-fragmentation</description>
        <Polygon>
          <altitudeMode>clampToGround</altitudeMode>
          <outerBoundaryIs>
            <LinearRing>
              <coordinates>-180.000000,-90.000000,0 180.000000,-90.000000,0 180.000000,90.000000,0 -180.000000,90.000000,0 -180.000000,-90.000000,0</coordinates>
            </LinearRing>
          </outerBoundaryIs>
        </Polygon>
      </Placemark>
      <Placemark>
        <name>Communication Infrastructure Types</name>
        <styleUrl>#__managed_style_0000000000000015</styleUrl>
        <description>See: 2050-snapshot/domains/technology.md#communication-infrastructure</description>
        <Polygon>
          <altitudeMode>clampToGround</altitudeMode>
          <outerBoundaryIs>
            <LinearRing>
              <coordinates>-180.000000,-90.000000,0 180.000000,-90.000000,0 180.000000,90.000000,0 -180.000000,90.000000,0 -180.000000,-90.000000,0</coordinates>
            </LinearRing>
          </outerBoundaryIs>
        </Polygon>
      </Placemark>
      <Placemark>
        <name>Orbital Habitation Zones</name>
        <description>See: 2050-snapshot/domains/technology.md#commercial-space-stations-and-habitats</description>
      </Placemark>
      <Placemark>
        <name>Lunar Zones</name>
        <description>See: 2050-snapshot/domains/technology.md#lunar-presence</description>
      </Placemark>
      <Placemark>
        <name>Satellite Infrastructure Coverage</name>
        <description>See: 2050-snapshot/domains/technology.md#satellite-infrastructure</description>
      </Placemark>
      <Placemark>
        <name>Cislunar Logistics Governance</name>
        <description>See: 2050-snapshot/domains/technology.md#orbital-territory-and-governance</description>
      </Placemark>
      <Placemark>
        <name>Arctic Shipping Routes</name>
        <styleUrl>#__managed_style_0000000000000015</styleUrl>
        <description>See: 2050-snapshot/domains/technology.md#maritime-shipping</description>
        <Polygon>
          <altitudeMode>clampToGround</altitudeMode>
          <outerBoundaryIs>
            <LinearRing>
              <coordinates>-180.000000,66.000000,0 180.000000,66.000000,0 180.000000,90.000000,0 -180.000000,90.000000,0 -180.000000,66.000000,0</coordinates>
            </LinearRing>
          </outerBoundaryIs>
        </Polygon>
      </Placemark>
      <Placemark>
        <name>Supply Chain Blocs</name>
        <styleUrl>#__managed_style_0000000000000015</styleUrl>
        <description>See: 2050-snapshot/domains/technology.md#supply-chain-reconfiguration</description>
        <Polygon>
          <altitudeMode>clampToGround</altitudeMode>
          <outerBoundaryIs>
            <LinearRing>
              <coordinates>-180.000000,-90.000000,0 180.000000,-90.000000,0 180.000000,90.000000,0 -180.000000,90.000000,0 -180.000000,-90.000000,0</coordinates>
            </LinearRing>
          </outerBoundaryIs>
        </Polygon>
      </Placemark>
    </Folder>
  </Document>
</kml>
