<?xml version='1.0' encoding='UTF-8'?>
<kml xmlns="http://www.opengis.net/kml/2.2">
  <Document>
    <Placemark>
      <name>Australia</name>
      <description>See: 2050-snapshot/domains/borders-geopolitics.md#antarctica</description>
      <Polygon>
        <extrude>1</extrude>
        <altitudeMode>clampToGround</altitudeMode>
        <outerBoundaryIs>
          <LinearRing>
            <coordinates>142.000000,-89.999722,0
142.000000,-66.804499,0
142.092784,-66.827407,0
142.198741,-66.875909,0
142.267751,-66.948419,0
142.296397,-66.950128,0
142.319021,-66.969496,0
142.356456,-66.977797,0
142.415375,-67.014255,0
142.477061,-67.025974,0
142.822032,-67.019708,0
142.881033,-67.008722,0
142.998790,-66.962091,0
143.470714,-66.845636,0
143.508311,-66.844659,0
143.750824,-66.880304,0
143.861013,-66.919692,0
143.876150,-66.940362,0
143.863455,-66.995864,0
143.865245,-67.013930,0
143.887209,-67.051349,0
143.887218,-67.051326,0
143.884166,-67.041438,0
143.880870,-67.038265,0
143.899425,-67.042903,0
143.938731,-67.056941,0
143.952281,-67.058650,0
144.088267,-67.042171,0
144.176367,-67.052772,0
144.184906,-67.044692,0
144.226817,-67.023696,0
144.315603,-67.002699,0
144.414317,-67.001235,0
144.512462,-67.015720,0
144.645518,-67.095392,0
144.662364,-67.116632,0
144.630138,-67.160577,0
144.615739,-67.171446,0
144.637096,-67.182918,0
144.652354,-67.204768,0
144.662608,-67.215877,0
144.679576,-67.224910,0
144.698741,-67.227596,0
144.771007,-67.217586,0
144.813243,-67.204891,0
144.842540,-67.183406,0
144.837657,-67.151180,0
144.863414,-67.166683,0
144.891002,-67.174373,0
144.919932,-67.176082,0
144.949718,-67.173641,0
144.985728,-67.160091,0
144.995372,-67.159236,0
145.021251,-67.170955,0
145.033214,-67.174495,0
145.045177,-67.171443,0
145.007091,-67.146053,0
145.027354,-67.137752,0
145.070079,-67.134944,0
145.089366,-67.126521,0
145.128184,-67.098567,0
145.149303,-67.088558,0
145.212535,-67.074153,0
145.602977,-66.890682,0
145.993419,-66.707210,0
146.030284,-66.695735,0
146.173106,-66.685237,0
146.214244,-66.677303,0
146.234508,-66.677058,0
146.255504,-66.682308,0
146.295787,-66.697688,0
146.317882,-66.699153,0
146.294200,-66.715633,0
146.288585,-66.722469,0
146.275279,-66.755061,0
146.269176,-66.762019,0
146.208385,-66.797786,0
146.191295,-66.811824,0
146.244029,-66.798885,0
146.354991,-66.749446,0
146.410777,-66.750789,0
146.421886,-66.757503,0
146.432262,-66.773982,0
146.439952,-66.780330,0
146.454967,-66.783138,0
146.635753,-66.771785,0
146.593883,-66.780696,0
146.606456,-66.788265,0
146.620372,-66.791560,0
146.650035,-66.795223,0
146.629649,-66.829280,0
146.596446,-66.844173,0
146.559337,-66.853328,0
146.527110,-66.870662,0
146.536754,-66.872981,0
146.541759,-66.876521,0
146.545787,-66.881526,0
146.552379,-66.887752,0
146.501842,-66.912044,0
146.451060,-66.929866,0
146.444713,-66.933650,0
146.443980,-66.937801,0
146.444469,-66.941951,0
146.441905,-66.945369,0
146.435680,-66.947200,0
146.421641,-66.947688,0
146.415172,-66.949031,0
146.356578,-66.981624,0
146.376109,-66.984065,0
146.357677,-66.998836,0
146.334361,-67.012630,0
146.317638,-67.029109,0
146.318858,-67.051570,0
146.298106,-67.060115,0
146.263560,-67.085017,0
146.183604,-67.120052,0
146.162730,-67.126766,0
146.189586,-67.128841,0
146.201305,-67.132259,0
146.212291,-67.139583,0
146.139415,-67.188533,0
145.980357,-67.247737,0
145.950816,-67.248836,0
145.955333,-67.262141,0
145.931895,-67.267513,0
145.836803,-67.305110,0
145.729747,-67.361507,0
145.584241,-67.393733,0
145.595958,-67.404842,0
145.287486,-67.514827,0
145.279796,-67.515682,0
145.249284,-67.524898,0
145.279796,-67.515720,0
145.421397,-67.509210,0
145.431817,-67.511759,0
145.493053,-67.505916,0
145.504405,-67.502620,0
145.512584,-67.492244,0
145.522472,-67.488948,0
145.535533,-67.490047,0
145.560557,-67.499446,0
145.572642,-67.502132,0
145.583263,-67.501155,0
145.608287,-67.495662,0
145.621104,-67.494685,0
145.860484,-67.530696,0
145.929210,-67.551692,0
145.929210,-67.551690,0
145.976817,-67.557552,0
146.042566,-67.586705,0
146.048106,-67.586602,0
146.130138,-67.614028,0
146.190684,-67.622817,0
146.208018,-67.669203,0
146.228852,-67.687107,0
146.110084,-67.749411,0
146.202525,-67.705745,0
146.229015,-67.687068,0
146.226329,-67.684749,0
146.243297,-67.682430,0
146.276866,-67.676204,0
146.293224,-67.677425,0
146.356456,-67.701839,0
146.398448,-67.705379,0
146.414195,-67.710262,0
146.443085,-67.731471,0
146.489106,-67.741795,0
146.528982,-67.770278,0
146.537934,-67.802423,0
146.510916,-67.841485,0
146.494542,-67.855678,0
146.498790,-67.861018,0
146.561778,-67.872127,0
146.576427,-67.871028,0
146.583995,-67.873836,0
146.592784,-67.884822,0
146.600352,-67.887630,0
146.629405,-67.892879,0
146.685680,-67.911311,0
146.712901,-67.914119,0
146.719737,-67.956599,0
146.715551,-67.958133,0
146.819835,-67.920587,0
146.870051,-67.936708,0
146.939220,-67.946346,0
147.007579,-67.953426,0
147.012340,-67.981014,0
147.045177,-68.006648,0
147.121715,-68.041560,0
147.127208,-68.046199,0
147.129893,-68.052425,0
147.128917,-68.060970,0
147.134044,-68.070979,0
147.151256,-68.078792,0
147.188609,-68.089778,0
147.272105,-68.126888,0
147.317515,-68.139949,0
147.362926,-68.139827,0
147.508678,-68.107112,0
147.583018,-68.106868,0
147.602061,-68.111141,0
147.609386,-68.118343,0
147.609386,-68.130428,0
147.606944,-68.148860,0
147.620982,-68.145564,0
147.645396,-68.146297,0
147.669810,-68.150081,0
147.683971,-68.156429,0
147.697765,-68.169124,0
147.716807,-68.180354,0
147.737193,-68.189143,0
147.755626,-68.194270,0
147.908214,-68.206355,0
147.947765,-68.214046,0
147.994151,-68.228206,0
148.023814,-68.248836,0
148.012096,-68.275569,0
147.979137,-68.288509,0
147.930919,-68.295589,0
147.883067,-68.293636,0
147.851329,-68.279598,0
147.857921,-68.290462,0
147.841075,-68.296199,0
147.808116,-68.315242,0
147.795543,-68.319392,0
147.723399,-68.319515,0
147.737559,-68.339412,0
147.769786,-68.342220,0
147.835094,-68.330989,0
148.132945,-68.333431,0
148.232677,-68.345516,0
148.232677,-68.345514,0
148.614390,-68.336849,0
148.738170,-68.361995,0
148.706432,-68.373714,0
148.693126,-68.382259,0
148.678966,-68.404720,0
148.672008,-68.405696,0
148.655794,-68.411060,0
148.691905,-68.403009,0
148.747244,-68.414483,0
148.830414,-68.452895,0
148.857270,-68.453709,0
148.980479,-68.445733,0
149.061534,-68.412205,0
149.154063,-68.402520,0
149.120616,-68.420994,0
149.159190,-68.450128,0
149.207530,-68.460382,0
149.255382,-68.450779,0
149.310069,-68.406834,0
149.390310,-68.384373,0
149.414399,-68.387140,0
149.457262,-68.406863,0
149.419078,-68.389217,0
149.422374,-68.386287,0
149.423106,-68.376155,0
149.428722,-68.369930,0
149.437999,-68.366878,0
149.450450,-68.366512,0
149.420543,-68.342464,0
149.426158,-68.326595,0
149.454234,-68.319515,0
149.730830,-68.354043,0
149.735688,-68.352472,0
149.778331,-68.364516,0
149.864757,-68.412774,0
149.913341,-68.423435,0
150.273936,-68.427667,0
150.377940,-68.439874,0
150.651378,-68.410821,0
150.852875,-68.350763,0
150.956554,-68.342950,0
151.012869,-68.350681,0
151.062836,-68.370375,0
151.094249,-68.406996,0
151.114106,-68.456150,0
151.109548,-68.473565,0
151.050629,-68.537774,0
151.051931,-68.559015,0
151.080089,-68.573989,0
151.034504,-68.641137,0
151.078990,-68.575740,0
151.112682,-68.579768,0
151.155772,-68.602840,0
151.253917,-68.629451,0
151.740367,-68.629939,0
151.816295,-68.614803,0
151.886363,-68.585994,0
151.870372,-68.583064,0
151.881969,-68.572933,0
151.887950,-68.568660,0
151.896129,-68.565242,0
151.881358,-68.561092,0
151.886241,-68.553645,0
151.901622,-68.518733,0
151.935313,-68.502986,0
151.972179,-68.493099,0
151.987437,-68.483699,0
151.969127,-68.476253,0
151.962169,-68.474910,0
151.999766,-68.463313,0
151.990733,-68.459529,0
151.984019,-68.454768,0
151.971324,-68.442561,0
151.978404,-68.440486,0
151.992076,-68.434627,0
151.999034,-68.432918,0
151.980724,-68.424373,0
151.985728,-68.420345,0
151.994640,-68.410579,0
151.999400,-68.406551,0
151.986949,-68.401790,0
151.952525,-68.382259,0
151.992198,-68.375423,0
152.433238,-68.353938,0
152.874278,-68.332454,0
153.079723,-68.294856,0
153.137950,-68.292171,0
153.174327,-68.296443,0
153.191173,-68.301570,0
153.208018,-68.310848,0
153.216563,-68.316829,0
153.221202,-68.321590,0
153.229015,-68.327937,0
153.241954,-68.330135,0
153.268809,-68.330989,0
153.260753,-68.339412,0
153.292247,-68.341609,0
153.331798,-68.349544,0
153.362193,-68.364070,0
153.365489,-68.386287,0
153.385265,-68.384334,0
153.404185,-68.385066,0
153.418101,-68.394832,0
153.451060,-68.402522,0
153.486583,-68.404598,0
153.521617,-68.399959,0
153.552867,-68.387264,0
153.583995,-68.366145,0
153.599376,-68.357967,0
153.619640,-68.351985,0
153.675792,-68.373958,0
153.683052,-68.379076,0
153.681977,-68.376072,0
153.685802,-68.334080,0
153.708263,-68.300063,0
153.749034,-68.280369,0
153.793142,-68.274021,0
153.878429,-68.278985,0
153.992931,-68.315606,0
154.058604,-68.322035,0
154.134776,-68.355564,0
154.171641,-68.358087,0
154.183116,-68.376560,0
154.361013,-68.422459,0
154.476817,-68.469985,0
154.522472,-68.478611,0
154.613129,-68.474298,0
154.658214,-68.511814,0
154.718516,-68.528253,0
154.710134,-68.573175,0
154.715099,-68.582615,0
154.769073,-68.621737,0
154.768321,-68.620662,0
154.774425,-68.621272,0
154.830089,-68.622127,0
154.875499,-68.630061,0
154.919444,-68.650203,0
154.955577,-68.678523,0
154.978404,-68.710994,0
154.990611,-68.720393,0
155.051890,-68.730281,0
155.138560,-68.762508,0
155.154552,-68.778011,0
155.158946,-68.796565,0
155.166148,-68.812923,0
155.166148,-68.812921,0
155.190929,-68.821712,0
155.206187,-68.829646,0
155.200450,-68.844417,0
155.182262,-68.859309,0
155.157725,-68.873470,0
155.132823,-68.870174,0
155.106700,-68.874812,0
155.074823,-68.889348,0
155.132823,-68.870212,0
155.308604,-68.893324,0
155.337250,-68.904718,0
155.368988,-68.931817,0
155.380544,-68.960545,0
155.378266,-68.993585,0
155.386567,-69.010349,0
155.288829,-69.035903,0
155.410818,-69.043634,0
155.455903,-69.081150,0
155.510509,-69.106541,0
155.637543,-69.134210,0
155.757091,-69.101170,0
155.745616,-69.084568,0
155.694509,-69.085219,0
155.642345,-69.048435,0
155.571462,-69.029555,0
155.541515,-69.013442,0
155.536794,-68.983575,0
155.558930,-68.956801,0
155.593435,-68.946954,0
155.775401,-68.946873,0
155.812836,-68.956231,0
155.834727,-68.974867,0
155.873383,-68.975763,0
155.955336,-69.027476,0
155.955089,-69.027278,0
155.977672,-69.006770,0
156.021739,-68.996394,0
156.073131,-68.994563,0
156.129649,-68.999202,0
156.144664,-68.989558,0
156.158336,-68.975154,0
156.175548,-68.961849,0
156.197887,-68.953670,0
156.219493,-68.951717,0
156.346568,-68.954891,0
156.433238,-68.967586,0
156.466319,-68.967586,0
156.477183,-68.971736,0
156.496837,-68.984309,0
156.510509,-68.986629,0
156.534434,-68.986629,0
156.557140,-68.990291,0
156.575938,-69.000667,0
156.588390,-69.020564,0
156.562389,-69.033138,0
156.573741,-69.056575,0
156.602061,-69.081355,0
156.626964,-69.098079,0
156.646251,-69.119685,0
156.684337,-69.132869,0
156.785655,-69.146907,0
156.806773,-69.147640,0
156.821300,-69.143245,0
156.828868,-69.134212,0
156.834239,-69.123348,0
156.843150,-69.113216,0
156.867686,-69.102962,0
156.891978,-69.102962,0
156.916637,-69.105769,0
156.942393,-69.104060,0
156.930919,-69.110774,0
156.944835,-69.118221,0
156.948009,-69.130061,0
156.940685,-69.159478,0
156.953746,-69.159847,0
156.977428,-69.160823,0
156.892833,-69.190486,0
156.861781,-69.194051,0
156.892833,-69.190525,0
157.023204,-69.144789,0
157.139568,-69.161274,0
157.109874,-69.156062,0
157.171886,-69.143489,0
157.230846,-69.121516,0
157.248790,-69.119930,0
157.235606,-69.099300,0
157.250255,-69.080135,0
157.279185,-69.068660,0
157.309581,-69.071101,0
157.362071,-69.096492,0
157.374766,-69.104915,0
157.375377,-69.108455,0
157.375377,-69.115169,0
157.376353,-69.123103,0
157.379649,-69.129695,0
157.386241,-69.134700,0
157.394298,-69.137996,0
157.411021,-69.140559,0
157.396983,-69.146907,0
157.427989,-69.160335,0
157.521739,-69.182185,0
157.466685,-69.194515,0
157.486949,-69.211238,0
157.512218,-69.218196,0
157.540538,-69.217586,0
157.569835,-69.213680,0
157.567638,-69.214412,0
157.533458,-69.231990,0
157.514415,-69.244685,0
157.498668,-69.261287,0
157.496377,-69.271326,0
157.498709,-69.261326,0
157.533458,-69.232029,0
157.625499,-69.195408,0
157.708995,-69.194024,0
157.727061,-69.198500,0
157.761892,-69.224298,0
157.810802,-69.223240,0
157.830577,-69.214044,0
157.873057,-69.172052,0
157.905284,-69.169529,0
157.992198,-69.172133,0
158.080821,-69.209893,0
158.268321,-69.225030,0
158.398204,-69.283298,0
158.411388,-69.308770,0
158.446544,-69.326755,0
158.548676,-69.350681,0
158.587169,-69.348810,0
158.565929,-69.337498,0
158.583751,-69.327081,0
158.666677,-69.317641,0
158.731456,-69.325453,0
158.817149,-69.316339,0
158.859141,-69.332615,0
158.919372,-69.368705,0
158.930675,-69.368465,0
158.945811,-69.369197,0
158.964122,-69.364192,0
158.986827,-69.352107,0
158.976451,-69.351985,0
158.970225,-69.349666,0
158.958751,-69.337581,0
158.996715,-69.322200,0
159.153819,-69.335262,0
159.146251,-69.339290,0
159.126598,-69.354305,0
159.147472,-69.355037,0
159.167857,-69.359798,0
159.149425,-69.370540,0
159.161388,-69.372005,0
159.158092,-69.393245,0
159.173839,-69.403743,0
159.219859,-69.412044,0
159.259532,-69.430354,0
159.236025,-69.427980,0
159.284679,-69.433038,0
159.512218,-69.499119,0
159.639334,-69.496759,0
159.773285,-69.506524,0
159.823009,-69.527520,0
159.880707,-69.574477,0
159.975108,-69.622654,0
160.000000,-69.628901,0
160.000000,-89.999722,0
142.000000,-89.999722,0</coordinates>
          </LinearRing>
        </outerBoundaryIs>
      </Polygon>
    </Placemark>
    <Placemark>
      <name>Australia</name>
      <description>See: 2050-snapshot/domains/borders-geopolitics.md#antarctica</description>
      <Polygon>
        <extrude>1</extrude>
        <altitudeMode>clampToGround</altitudeMode>
        <outerBoundaryIs>
          <LinearRing>
            <coordinates>100.523680,-89.999722,0
100.523680,-65.874478,0
100.525401,-65.874446,0
100.635387,-65.859187,0
100.637717,-65.859594,0
100.635265,-65.859145,0
100.523680,-65.869676,0
100.523680,-65.799806,0
100.558591,-65.784362,0
100.534923,-65.790584,0
100.523680,-65.795911,0
100.523680,-65.417298,0
100.565929,-65.403009,0
100.729666,-65.380466,0
100.934581,-65.378676,0
101.126720,-65.411879,0
101.251801,-65.493748,0
101.261404,-65.540297,0
101.230724,-65.573989,0
101.024913,-65.665460,0
100.967052,-65.682875,0
100.557872,-65.704034,0
100.553162,-65.703301,0
100.557872,-65.704036,0
100.967052,-65.682918,0
101.024913,-65.665462,0
101.230724,-65.574031,0
101.234264,-65.570247,0
101.235362,-65.571468,0
101.235606,-65.572566,0
101.266246,-65.585994,0
101.484996,-65.603816,0
101.676036,-65.648982,0
101.720470,-65.681697,0
101.731700,-65.723323,0
101.691295,-65.768123,0
101.774791,-65.782649,0
101.835460,-65.783748,0
101.921397,-65.794612,0
102.042491,-65.790218,0
102.107066,-65.794978,0
102.144786,-65.817806,0
102.105479,-65.821346,0
102.120372,-65.825618,0
102.134532,-65.831599,0
102.147227,-65.839900,0
102.157115,-65.851619,0
102.134898,-65.855525,0
102.088634,-65.850398,0
102.064830,-65.854060,0
102.129161,-65.871028,0
102.129161,-65.871026,0
102.391856,-65.866878,0
102.552119,-65.881880,0
102.599864,-65.871026,0
102.713715,-65.861261,0
102.889185,-65.875615,0
102.895518,-65.871272,0
102.899058,-65.868465,0
102.902354,-65.865047,0
102.905528,-65.860774,0
102.906627,-65.845516,0
102.899181,-65.828426,0
102.894054,-65.810970,0
102.901988,-65.794368,0
102.930064,-65.778499,0
102.971690,-65.765437,0
103.006969,-65.767268,0
103.016734,-65.796687,0
103.037242,-65.792781,0
103.060557,-65.781551,0
103.079600,-65.765437,0
103.087413,-65.746028,0
103.083995,-65.721370,0
103.075206,-65.701106,0
103.044688,-65.663631,0
103.028453,-65.649837,0
102.991222,-65.624446,0
102.958263,-65.594173,0
102.911388,-65.582698,0
102.888194,-65.571590,0
102.939586,-65.567073,0
103.049449,-65.578304,0
103.097789,-65.563411,0
103.129649,-65.539974,0
103.172862,-65.495784,0
103.182140,-65.482234,0
103.181773,-65.471370,0
103.169669,-65.459387,0
103.139659,-65.444757,0
103.130138,-65.430922,0
103.145518,-65.363051,0
103.139334,-65.338311,0
103.104015,-65.304620,0
103.037852,-65.280369,0
102.826996,-65.250584,0
102.776134,-65.232517,0
102.752208,-65.178318,0
102.781586,-65.140720,0
102.839366,-65.127699,0
102.910655,-65.131768,0
103.093110,-65.173598,0
103.151378,-65.197686,0
103.188813,-65.229669,0
103.196625,-65.263360,0
103.167735,-65.302423,0
103.177419,-65.334731,0
103.225841,-65.371840,0
103.408539,-65.423598,0
103.410208,-65.425357,0
103.449718,-65.432308,0
103.510142,-65.435848,0
103.550914,-65.443904,0
103.578136,-65.439632,0
103.622569,-65.425227,0
103.644664,-65.422054,0
103.664073,-65.427181,0
103.712047,-65.466365,0
103.727061,-65.469417,0
103.752086,-65.467342,0
103.780040,-65.471004,0
103.793834,-65.480769,0
103.775890,-65.496761,0
103.795665,-65.498714,0
103.813609,-65.491878,0
103.833263,-65.488704,0
103.858165,-65.502010,0
103.839854,-65.508846,0
103.820811,-65.512508,0
103.857677,-65.525935,0
103.981456,-65.543758,0
103.973399,-65.557185,0
103.971446,-65.581599,0
103.966563,-65.596248,0
104.001964,-65.606990,0
104.046153,-65.626766,0
104.077403,-65.652644,0
104.074107,-65.681209,0
104.071056,-65.695246,0
104.079600,-65.708431,0
104.083995,-65.722835,0
104.067882,-65.740535,0
103.998424,-65.776912,0
104.025523,-65.806331,0
104.030040,-65.816463,0
104.030772,-65.848445,0
104.034679,-65.862117,0
104.046641,-65.874202,0
104.023814,-65.889583,0
103.991222,-65.903499,0
103.956920,-65.913753,0
103.928966,-65.918025,0
103.934337,-65.922176,0
103.943858,-65.932918,0
103.949107,-65.937434,0
103.932872,-65.949641,0
103.914806,-65.953304,0
103.875011,-65.952937,0
103.880748,-65.960994,0
103.887462,-65.967342,0
103.894908,-65.972102,0
103.902354,-65.978694,0
103.787029,-65.977317,0
103.908214,-65.978774,0
104.416026,-66.060724,0
104.573253,-66.131036,0
104.630219,-66.141209,0
104.863048,-66.142999,0
105.290538,-66.216078,0
105.350841,-66.208591,0
105.405528,-66.230727,0
105.448009,-66.232599,0
105.498546,-66.259942,0
106.302582,-66.379978,0
106.323090,-66.388930,0
106.324962,-66.420831,0
106.345714,-66.433364,0
106.410411,-66.401625,0
106.598643,-66.414158,0
106.644298,-66.426365,0
106.698741,-66.470310,0
106.767833,-66.455743,0
107.116954,-66.462579,0
107.332774,-66.498305,0
107.434255,-66.528497,0
107.779145,-66.551690,0
107.846528,-66.592950,0
107.879161,-66.633071,0
107.867035,-66.652765,0
107.808361,-66.676468,0
107.840587,-66.666683,0
107.867076,-66.652766,0
107.879283,-66.633113,0
107.869884,-66.613948,0
107.864757,-66.609309,0
107.908824,-66.611995,0
108.056895,-66.575374,0
108.079356,-66.579036,0
108.096812,-66.590389,0
108.111095,-66.603816,0
108.124156,-66.613460,0
108.124156,-66.613458,0
108.135265,-66.617000,0
108.151500,-66.622981,0
108.136048,-66.624778,0
108.207042,-66.626723,0
108.202159,-66.653416,0
108.213064,-66.670668,0
108.252940,-66.696954,0
108.298188,-66.756443,0
108.323416,-66.766290,0
108.401866,-66.765558,0
108.476573,-66.794610,0
108.621918,-66.818048,0
108.661876,-66.842218,0
108.696300,-66.882989,0
108.713878,-66.927423,0
108.771179,-66.944816,0
108.788829,-66.942073,0
108.804088,-66.938777,0
108.811534,-66.934871,0
108.826915,-66.923641,0
108.836925,-66.919734,0
108.848277,-66.918391,0
108.855724,-66.919978,0
108.862559,-66.922298,0
108.872325,-66.923518,0
108.892833,-66.922542,0
108.902599,-66.920467,0
108.912364,-66.916072,0
108.917857,-66.908870,0
108.921397,-66.890559,0
108.926402,-66.885555,0
108.963756,-66.873470,0
108.975474,-66.872493,0
108.987926,-66.876888,0
109.012218,-66.891048,0
109.024425,-66.890926,0
109.045909,-66.884700,0
109.045909,-66.884698,0
109.067638,-66.882259,0
109.114390,-66.887630,0
109.079845,-66.896785,0
109.002437,-66.928567,0
109.125011,-66.884698,0
109.223481,-66.904718,0
109.223509,-66.904716,0
109.174083,-66.891780,0
109.193492,-66.887630,0
109.208507,-66.877620,0
109.219981,-66.875667,0
109.229991,-66.877010,0
109.249766,-66.882503,0
109.259776,-66.884090,0
109.285411,-66.883968,0
109.313121,-66.880428,0
109.340221,-66.873714,0
109.363902,-66.863826,0
109.358043,-66.862117,0
109.346934,-66.857112,0
109.341319,-66.855281,0
109.383556,-66.824641,0
109.436168,-66.826961,0
109.490001,-66.836360,0
109.536265,-66.826839,0
109.512950,-66.823177,0
109.490489,-66.815730,0
109.505260,-66.803157,0
109.513927,-66.787288,0
109.523814,-66.773006,0
109.543101,-66.764949,0
109.509044,-66.740413,0
109.525279,-66.729183,0
109.563365,-66.734187,0
109.581065,-66.727962,0
109.578380,-66.724544,0
109.582530,-66.688655,0
109.580943,-66.678645,0
109.575938,-66.668391,0
109.569347,-66.658748,0
109.562266,-66.650935,0
109.702159,-66.615901,0
109.689952,-66.602351,0
109.726817,-66.590877,0
109.873912,-66.590022,0
109.967052,-66.631770,0
110.033092,-66.643855,0
110.181773,-66.638118,0
110.248424,-66.627498,0
110.192638,-66.614314,0
110.176280,-66.603816,0
110.198741,-66.602474,0
110.209849,-66.600642,0
110.220470,-66.597347,0
110.160411,-66.569148,0
110.138805,-66.563533,0
110.264049,-66.538265,0
110.298595,-66.517513,0
110.304210,-66.504695,0
110.306651,-66.488704,0
110.313853,-66.475032,0
110.334605,-66.468807,0
110.346690,-66.470882,0
110.357310,-66.476741,0
110.388682,-66.501399,0
110.399669,-66.505672,0
110.469737,-66.518611,0
110.490733,-66.518123,0
110.526622,-66.498958,0
110.544322,-66.492854,0
110.562266,-66.492610,0
110.577769,-66.501521,0
110.588267,-66.509700,0
110.600352,-66.514339,0
110.613780,-66.515682,0
110.631510,-66.515682,0
110.688731,-66.489028,0
110.705089,-66.472345,0
110.710297,-66.426202,0
110.724946,-66.405450,0
110.635997,-66.385024,0
110.580089,-66.355727,0
110.526378,-66.347263,0
110.489024,-66.308770,0
110.548676,-66.275079,0
110.599864,-66.227797,0
110.623302,-66.216974,0
110.684093,-66.210626,0
110.707286,-66.194024,0
110.711925,-66.157810,0
110.722423,-66.148045,0
110.927094,-66.054620,0
111.615571,-65.932875,0
111.847423,-65.934747,0
112.765391,-65.825942,0
112.878673,-65.798435,0
113.203624,-65.765395,0
113.222179,-65.772556,0
113.253429,-65.815118,0
113.275645,-65.832127,0
113.423595,-65.860121,0
113.528331,-65.896580,0
113.662608,-65.915134,0
113.775564,-65.948500,0
113.894786,-66.021661,0
114.003673,-66.061293,0
114.087738,-66.075779,0
114.135020,-66.118341,0
114.087779,-66.075740,0
114.087413,-66.075618,0
114.113292,-66.074153,0
114.124278,-66.072078,0
114.133800,-66.068904,0
114.146861,-66.068294,0
114.174327,-66.080745,0
114.188487,-66.082454,0
114.208263,-66.082088,0
114.224864,-66.086726,0
114.241099,-66.093196,0
114.260387,-66.098445,0
114.257579,-66.106258,0
114.256847,-66.115169,0
114.257823,-66.124934,0
114.257095,-66.137548,0
114.290782,-66.179864,0
114.340343,-66.187677,0
114.429756,-66.225962,0
114.428477,-66.225032,0
114.449596,-66.225032,0
114.468394,-66.229427,0
114.513194,-66.225276,0
114.422862,-66.271785,0
114.407359,-66.285945,0
114.421397,-66.290828,0
114.492808,-66.302913,0
114.490245,-66.337947,0
114.490611,-66.342342,0
114.490001,-66.346492,0
114.488292,-66.350398,0
114.485728,-66.354060,0
114.482921,-66.362849,0
114.486095,-66.366023,0
114.490733,-66.368221,0
114.492442,-66.374568,0
114.489268,-66.412532,0
114.477794,-66.434749,0
114.467052,-66.450740,0
114.487071,-66.453792,0
114.511607,-66.448665,0
114.557628,-66.431941,0
114.541759,-66.444515,0
114.551524,-66.445247,0
114.558726,-66.448055,0
114.572887,-66.455745,0
114.564708,-66.464534,0
114.568980,-66.468929,0
114.573741,-66.472591,0
114.578746,-66.475398,0
114.592572,-66.485829,0
114.674653,-66.478774,0
114.812022,-66.495212,0
114.896251,-66.472426,0
115.039399,-66.482680,0
115.113455,-66.478123,0
115.171641,-66.518731,0
115.193858,-66.525160,0
115.265147,-66.532647,0
115.349620,-66.555759,0
115.434581,-66.559177,0
115.598969,-66.592869,0
115.649425,-66.614516,0
115.681895,-66.642755,0
115.668956,-66.673435,0
115.668982,-66.673456,0
115.681407,-66.644099,0
115.692515,-66.648128,0
115.702525,-66.652278,0
115.713634,-66.654353,0
115.725719,-66.653865,0
115.747569,-66.644466,0
115.792857,-66.609554,0
115.882091,-66.565120,0
115.904185,-66.556941,0
115.950938,-66.551692,0
116.007457,-66.553401,0
116.063487,-66.561702,0
116.145396,-66.584163,0
116.252818,-66.561580,0
116.271251,-66.562679,0
116.318370,-66.579646,0
116.354137,-66.583186,0
116.370372,-66.587825,0
116.383800,-66.600032,0
116.386363,-66.622615,0
116.429942,-66.636653,0
116.521861,-66.652889,0
116.549205,-66.674739,0
116.591685,-66.695979,0
116.625865,-66.724422,0
116.645030,-66.733455,0
116.671641,-66.734432,0
116.627696,-66.749812,0
116.609386,-66.762874,0
116.605479,-66.781062,0
116.621593,-66.796321,0
116.650523,-66.802303,0
116.705821,-66.805599,0
116.773448,-66.821956,0
116.798839,-66.821832,0
116.798839,-66.821834,0
116.875011,-66.806575,0
116.883067,-66.804988,0
116.911632,-66.802669,0
116.930675,-66.805599,0
116.972911,-66.819148,0
117.063731,-66.837337,0
117.146007,-66.866634,0
117.165904,-66.870906,0
117.177379,-66.875423,0
117.182262,-66.881648,0
117.185924,-66.888728,0
117.193858,-66.895320,0
117.206920,-66.900691,0
117.249156,-66.909114,0
117.269664,-66.917781,0
117.305675,-66.942561,0
117.354625,-66.955257,0
117.383678,-66.983943,0
117.403941,-66.994685,0
117.415782,-66.996394,0
117.427257,-66.995784,0
117.464122,-66.989314,0
117.473643,-66.991023,0
117.481944,-66.994197,0
117.492686,-66.996761,0
117.603770,-67.001521,0
117.655040,-66.997493,0
117.746349,-66.977107,0
118.074718,-66.965511,0
118.120006,-66.980647,0
118.146251,-66.983577,0
118.173228,-66.982356,0
118.197276,-66.978572,0
118.219981,-66.977596,0
118.263194,-66.985042,0
118.282481,-66.984554,0
118.391856,-66.955867,0
118.547130,-66.935970,0
118.621471,-66.941341,0
118.690684,-66.933650,0
118.703136,-66.936336,0
118.719859,-66.946834,0
118.730235,-66.950496,0
118.820445,-66.947688,0
118.846202,-66.950618,0
118.920909,-66.970149,0
119.352306,-66.965999,0
119.397838,-66.953426,0
119.418834,-66.954646,0
119.499766,-66.984554,0
119.526500,-66.982234,0
119.576793,-66.964656,0
119.639659,-66.955745,0
119.719615,-66.935725,0
119.759044,-66.933772,0
119.839732,-66.939388,0
119.952403,-66.927303,0
120.006114,-66.911556,0
120.025401,-66.911556,0
120.067271,-66.921077,0
120.107188,-66.924007,0
120.216930,-66.900935,0
120.238048,-66.878108,0
120.279552,-66.870418,0
120.360973,-66.872981,0
120.446666,-66.866023,0
120.490245,-66.867488,0
120.507579,-66.881404,0
120.535456,-66.883108,0
120.540050,-66.881280,0
120.607432,-66.879571,0
120.651134,-66.887140,0
120.711762,-66.910577,0
120.865857,-66.886895,0
120.866344,-66.886775,0
120.838634,-66.887996,0
120.829967,-66.889827,0
120.845958,-66.866512,0
120.850719,-66.861873,0
120.860606,-66.855769,0
120.871104,-66.851009,0
120.892204,-66.848203,0
120.883149,-66.846449,0
120.945079,-66.830743,0
121.048106,-66.788832,0
121.172284,-66.780316,0
121.173595,-66.778987,0
121.174569,-66.778987,0
121.173252,-66.780250,0
121.192882,-66.778904,0
121.195160,-66.786391,0
121.168305,-66.805922,0
121.109711,-66.828790,0
121.023204,-66.848321,0
120.958137,-66.854952,0
121.023204,-66.848445,0
121.109752,-66.828792,0
121.168346,-66.805965,0
121.195201,-66.786433,0
121.192882,-66.778865,0
121.174571,-66.778987,0
121.191905,-66.762264,0
121.193370,-66.760433,0
121.193736,-66.758601,0
121.180797,-66.743953,0
121.155894,-66.735408,0
121.139293,-66.724056,0
121.152232,-66.701350,0
121.141612,-66.692439,0
121.165538,-66.681087,0
121.226451,-66.673641,0
121.253673,-66.658870,0
121.237437,-66.645686,0
121.231456,-66.642268,0
121.429210,-66.653377,0
121.525401,-66.646419,0
121.625377,-66.623836,0
121.776134,-66.565974,0
121.966930,-66.542049,0
122.101573,-66.542049,0
122.144542,-66.549861,0
122.189220,-66.566707,0
122.243419,-66.598567,0
122.261607,-66.602107,0
122.312877,-66.603328,0
122.336925,-66.608333,0
122.361827,-66.617610,0
122.400401,-66.638973,0
122.512828,-66.737605,0
122.522838,-66.743953,0
122.536265,-66.745906,0
122.573741,-66.737239,0
122.584972,-66.740045,0
122.584972,-66.740047,0
122.608165,-66.760310,0
122.607310,-66.775325,0
122.588878,-66.784969,0
122.558482,-66.789485,0
122.568980,-66.795833,0
122.559337,-66.802303,0
122.573959,-66.810467,0
122.610606,-66.810235,0
123.149913,-66.733168,0
123.327647,-66.751153,0
123.557872,-66.748630,0
123.663748,-66.705011,0
123.730317,-66.650323,0
123.931488,-66.608168,0
123.962413,-66.610121,0
123.981619,-66.596775,0
124.015128,-66.588805,0
123.999766,-66.591121,0
123.992076,-66.593562,0
124.003917,-66.569392,0
124.010753,-66.560237,0
124.018687,-66.553401,0
124.045421,-66.543758,0
124.240855,-66.533992,0
124.268809,-66.535701,0
124.281383,-66.534480,0
124.294810,-66.529109,0
124.307017,-66.521541,0
124.320689,-66.515804,0
124.338878,-66.516170,0
124.437999,-66.532527,0
124.481944,-66.547420,0
124.502940,-66.552058,0
124.689952,-66.542903,0
124.841807,-66.506648,0
124.866954,-66.512508,0
124.866954,-66.512506,0
124.884898,-66.532161,0
124.890636,-66.557552,0
124.878673,-66.580623,0
124.837657,-66.608333,0
124.791759,-66.626155,0
124.742808,-66.636043,0
124.691783,-66.639461,0
124.792857,-66.657039,0
124.822398,-66.673518,0
124.810557,-66.682185,0
124.820079,-66.689143,0
124.829139,-66.697358,0
124.845714,-66.695977,0
124.862966,-66.713149,0
124.877778,-66.715916,0
125.024750,-66.679457,0
125.148123,-66.659601,0
125.224783,-66.612237,0
125.265880,-66.539483,0
125.289561,-66.523696,0
125.320079,-66.517022,0
125.334727,-66.448907,0
125.410411,-66.417657,0
125.704845,-66.391371,0
125.897797,-66.306248,0
125.940603,-66.302341,0
126.001196,-66.330113,0
125.987315,-66.322688,0
125.973399,-66.312557,0
125.958507,-66.305110,0
125.950084,-66.303767,0
125.968028,-66.300227,0
126.009044,-66.288631,0
126.094981,-66.279475,0
126.119151,-66.271907,0
126.161510,-66.252742,0
126.185313,-66.246883,0
126.239879,-66.241634,0
126.374766,-66.251766,0
126.420665,-66.260433,0
126.420665,-66.260431,0
126.445323,-66.273860,0
126.446666,-66.282893,0
126.443004,-66.290706,0
126.436290,-66.297176,0
126.428966,-66.302058,0
126.423350,-66.308528,0
126.425670,-66.314998,0
126.431041,-66.321468,0
126.435069,-66.327693,0
126.435557,-66.336849,0
126.434215,-66.342952,0
126.433849,-66.347347,0
126.436534,-66.355281,0
126.430447,-66.354672,0
126.514415,-66.372654,0
126.513670,-66.374222,0
126.682384,-66.405208,0
126.648920,-66.410319,0
126.706049,-66.404720,0
126.699718,-66.404720,0
126.732921,-66.394344,0
126.757091,-66.395198,0
126.773570,-66.401912,0
126.806041,-66.426204,0
126.823497,-66.443538,0
126.776866,-66.434993,0
126.750011,-66.434627,0
126.732404,-66.438865,0
126.776703,-66.434991,0
126.854259,-66.449314,0
126.821951,-66.486261,0
126.797747,-66.493451,0
126.808849,-66.491390,0
126.822032,-66.486263,0
126.830821,-66.478816,0
126.852306,-66.451839,0
126.861095,-66.453792,0
126.866466,-66.460262,0
126.867931,-66.466365,0
126.871349,-66.472469,0
126.881969,-66.478694,0
126.910167,-66.489436,0
126.918712,-66.494563,0
126.955211,-66.510677,0
126.996593,-66.516902,0
127.079600,-66.520198,0
127.114513,-66.527522,0
127.181651,-66.551570,0
127.219005,-66.560359,0
127.369762,-66.577327,0
127.360606,-66.587093,0
127.371226,-66.595149,0
127.380138,-66.604427,0
127.387218,-66.615169,0
127.392589,-66.627376,0
127.395763,-66.640437,0
127.399181,-66.672542,0
127.412364,-66.696956,0
127.433360,-66.714534,0
127.459117,-66.726985,0
127.485606,-66.735530,0
127.572032,-66.746883,0
127.594737,-66.755428,0
127.598033,-66.760188,0
127.601939,-66.773616,0
127.605113,-66.778865,0
127.630870,-66.797420,0
127.650279,-66.815852,0
127.661632,-66.823177,0
127.676890,-66.828182,0
127.651622,-66.871394,0
127.650035,-66.885921,0
127.657237,-66.905574,0
127.653331,-66.911800,0
127.637950,-66.922420,0
127.653575,-66.928279,0
127.669688,-66.930232,0
127.685435,-66.928645,0
127.701182,-66.923518,0
127.720958,-66.919368,0
127.815440,-66.933162,0
127.832408,-66.940730,0
127.842784,-66.952693,0
127.851085,-66.971736,0
127.859874,-66.985286,0
127.870616,-66.996150,0
127.870616,-66.996148,0
127.887096,-67.008968,0
127.911388,-67.027400,0
127.865733,-67.019832,0
127.836448,-67.021174,0
127.922618,-67.029067,0
128.074555,-67.022393,0
128.087999,-67.035597,0
128.081920,-67.026180,0
128.081798,-67.026058,0
128.431407,-67.030452,0
128.574474,-67.015193,0
128.679454,-66.991267,0
128.716807,-66.991023,0
128.707286,-67.009212,0
128.710948,-67.021541,0
128.710948,-67.021539,0
128.723765,-67.029353,0
128.754390,-67.035820,0
128.763520,-67.025811,0
128.823904,-67.034275,0
128.973971,-67.095801,0
128.823985,-67.034236,0
128.803722,-67.031429,0
128.831554,-67.018733,0
128.865977,-66.995296,0
128.881114,-66.981868,0
128.903331,-66.969051,0
129.156016,-66.937557,0
129.392192,-66.859808,0
129.392914,-66.858087,0
129.493663,-66.815362,0
129.526860,-66.775086,0
129.516856,-66.783870,0
129.512706,-66.790706,0
129.504039,-66.782527,0
129.499766,-66.773860,0
129.497935,-66.763484,0
129.497691,-66.750667,0
129.495738,-66.743465,0
129.490733,-66.738948,0
129.476451,-66.731868,0
129.472789,-66.729060,0
129.470103,-66.725520,0
129.468394,-66.721614,0
129.472372,-66.717520,0
129.469005,-66.717462,0
129.474620,-66.691013,0
129.532563,-66.614435,0
129.637869,-66.574640,0
129.710460,-66.515232,0
129.730968,-66.459161,0
129.721690,-66.438246,0
129.802013,-66.406020,0
129.876720,-66.362400,0
129.914236,-66.351495,0
129.925601,-66.350851,0
129.937389,-66.342952,0
129.945689,-66.337215,0
129.952525,-66.329158,0
129.957530,-66.318050,0
129.957286,-66.309993,0
129.949718,-66.296321,0
129.950084,-66.287654,0
129.957408,-66.279231,0
129.969737,-66.274837,0
130.213145,-66.236995,0
130.229381,-66.228572,0
130.236339,-66.211238,0
130.322154,-66.184993,0
130.295299,-66.165096,0
130.281016,-66.160335,0
130.264415,-66.164363,0
130.289317,-66.140193,0
130.346568,-66.124324,0
130.408580,-66.118221,0
130.448497,-66.123348,0
130.487926,-66.152034,0
130.509654,-66.164241,0
130.529918,-66.166316,0
130.529918,-66.166314,0
130.584605,-66.154964,0
130.700816,-66.151424,0
130.623790,-66.185115,0
130.604333,-66.196885,0
130.704845,-66.149591,0
130.729991,-66.147149,0
130.871593,-66.183282,0
131.021007,-66.187107,0
131.098888,-66.201349,0
131.184825,-66.199151,0
131.230235,-66.230076,0
131.269298,-66.237970,0
131.338390,-66.237970,0
131.394542,-66.211684,0
131.757823,-66.243341,0
132.050304,-66.217055,0
132.147797,-66.178155,0
132.478282,-66.150649,0
132.606700,-66.186456,0
132.826915,-66.190362,0
133.016368,-66.145440,0
133.120372,-66.096775,0
133.275645,-66.080173,0
133.500743,-66.083266,0
133.607107,-66.108168,0
133.792328,-66.105401,0
133.854259,-66.127537,0
133.910492,-66.184015,0
133.962250,-66.198175,0
134.015147,-66.195489,0
134.122862,-66.225985,0
134.161876,-66.221492,0
134.202159,-66.211482,0
134.241466,-66.193782,0
134.333507,-66.133113,0
134.360850,-66.120296,0
134.391978,-66.110286,0
134.485118,-66.097347,0
134.515514,-66.087337,0
134.510387,-66.079646,0
134.502696,-66.055354,0
134.526012,-66.056941,0
134.548717,-66.061702,0
134.560802,-66.059749,0
134.570079,-66.050105,0
134.585826,-66.025081,0
134.604869,-66.006160,0
134.623546,-65.996761,0
134.644664,-65.995418,0
134.670421,-66.000423,0
134.714854,-66.021663,0
134.792857,-66.080013,0
134.838145,-66.095760,0
134.914073,-66.102962,0
134.936290,-66.101375,0
134.948619,-66.097957,0
134.976817,-66.081233,0
134.993907,-66.076106,0
135.005015,-66.079036,0
135.015147,-66.085384,0
135.028697,-66.090511,0
135.078868,-66.094783,0
135.078868,-66.094781,0
135.258067,-66.086849,0
135.339976,-66.102596,0
135.331798,-66.108211,0
135.319349,-66.126640,0
135.343028,-66.100681,0
135.494314,-66.114679,0
135.503917,-66.138604,0
135.521559,-66.157292,0
135.524181,-66.157649,0
135.612559,-66.159114,0
135.763805,-66.144222,0
135.774669,-66.148982,0
135.781505,-66.159724,0
135.792003,-66.184627,0
135.798839,-66.190364,0
135.807384,-66.191219,0
135.816905,-66.190486,0
135.914806,-66.207454,0
135.914806,-66.207452,0
135.950084,-66.226741,0
136.000000,-66.242599,0
136.000000,-89.999722,0
100.523680,-89.999722,0</coordinates>
          </LinearRing>
        </outerBoundaryIs>
      </Polygon>
    </Placemark>
    <Placemark>
      <name>Australia</name>
      <description>See: 2050-snapshot/domains/borders-geopolitics.md#antarctica</description>
      <Polygon>
        <extrude>1</extrude>
        <altitudeMode>clampToGround</altitudeMode>
        <outerBoundaryIs>
          <LinearRing>
            <coordinates>121.174569,-66.778987,0
121.174571,-66.778985,0
121.174571,-66.778987,0
121.174569,-66.778987,0</coordinates>
          </LinearRing>
        </outerBoundaryIs>
      </Polygon>
    </Placemark>
  </Document>
</kml>
