<?xml version='1.0' encoding='UTF-8'?>
<kml xmlns="http://www.opengis.net/kml/2.2">
  <Document>
    <Placemark>
      <name>Brazil</name>
      <description>See: 2050-snapshot/domains/borders-geopolitics.md#antarctica</description>
      <Polygon>
        <extrude>1</extrude>
        <altitudeMode>clampToGround</altitudeMode>
        <outerBoundaryIs>
          <LinearRing>
            <coordinates>-52.576161,-76.869319,0
-52.106679,-76.878841,0
-52.059865,-76.873836,0
-52.047841,-76.869075,0
-52.027943,-76.856380,0
-52.014150,-76.851985,0
-52.002614,-76.852229,0
-51.938954,-76.864803,0
-51.739186,-76.939754,0
-51.614186,-77.016292,0
-51.590382,-77.025813,0
-51.142354,-77.102596,0
-50.694325,-77.179378,0
-50.713185,-77.119441,0
-50.709584,-77.094295,0
-50.687062,-77.073665,0
-50.631032,-77.052425,0
-50.609914,-77.034236,0
-50.614613,-77.007503,0
-50.510915,-76.990779,0
-50.405995,-76.989436,0
-50.366567,-77.000301,0
-50.317983,-77.022762,0
-50.272389,-77.051326,0
-50.181630,-77.141658,0
-50.105092,-77.184016,0
-49.935170,-77.237849,0
-49.960622,-77.249202,0
-50.120717,-77.257381,0
-50.290639,-77.231746,0
-50.455922,-77.225398,0
-50.571889,-77.207088,0
-50.550771,-77.215999,0
-50.484364,-77.233699,0
-50.410390,-77.272517,0
-50.104115,-77.389339,0
-50.093068,-77.395442,0
-50.082875,-77.402766,0
-50.074269,-77.411189,0
-50.071462,-77.421077,0
-50.076833,-77.429744,0
-50.080373,-77.439021,0
-50.072133,-77.451473,0
-50.053456,-77.460994,0
-49.982533,-77.478206,0
-49.913564,-77.513728,0
-49.888661,-77.521419,0
-49.870046,-77.529842,0
-49.832265,-77.561580,0
-49.811757,-77.575008,0
-49.679433,-77.616145,0
-49.248525,-77.677730,0
-48.817616,-77.739314,0
-48.846852,-77.744197,0
-48.988942,-77.784236,0
-49.321105,-77.827762,0
-48.989003,-77.784275,0
-48.846913,-77.744236,0
-48.781606,-77.739190,0
-48.750356,-77.747654,0
-48.761824,-77.750470,0
-48.656667,-77.773982,0
-48.668507,-77.762508,0
-48.657216,-77.757503,0
-48.645253,-77.754817,0
-48.633046,-77.754085,0
-48.620595,-77.755061,0
-48.630116,-77.761409,0
-48.612477,-77.764583,0
-48.574452,-77.752498,0
-48.554189,-77.748714,0
-48.455800,-77.756892,0
-48.309682,-77.741023,0
-48.030415,-77.763606,0
-47.751149,-77.786189,0
-47.670644,-77.804378,0
-47.534657,-77.818172,0
-47.919057,-77.874172,0
-48.303456,-77.930171,0
-48.687856,-77.986171,0
-49.072255,-78.042171,0
-49.111012,-78.052913,0
-49.112573,-78.053871,0
-49.110992,-78.052911,0
-47.222524,-77.772638,0
-45.934071,-77.817071,0
-45.895172,-77.828546,0
-44.514556,-78.042169,0
-44.098017,-78.165586,0
-43.944081,-78.166560,0
-43.844838,-78.177303,0
-43.439259,-78.166316,0
-43.337880,-78.180110,0
-43.001668,-78.142329,0
-42.665456,-78.104549,0
-42.448781,-78.116512,0
-42.052358,-78.092220,0
-41.881093,-78.044612,0
-41.522694,-78.024715,0
-41.501332,-78.029353,0
-41.479237,-78.039241,0
-41.470998,-78.052181,0
-41.491322,-78.065486,0
-41.469899,-78.065242,0
-41.428578,-78.034602,0
-41.403310,-78.027522,0
-41.296803,-78.038753,0
-41.256093,-78.047542,0
-41.243703,-78.046932,0
-41.233815,-78.042049,0
-41.226186,-78.035091,0
-41.220326,-78.028377,0
-41.215688,-78.024715,0
-41.185353,-78.018977,0
-41.085683,-78.018001,0
-41.004750,-78.002010,0
-40.699147,-78.012264,0
-40.276662,-78.097469,0
-39.924062,-78.121232,0
-39.571462,-78.144995,0
-39.218861,-78.168758,0
-39.314443,-78.151180,0
-39.337392,-78.135677,0
-39.258229,-78.139217,0
-39.100575,-78.165950,0
-38.986928,-78.153499,0
-38.918568,-78.159847,0
-38.854543,-78.150691,0
-38.495381,-78.173396,0
-38.136220,-78.196101,0
-38.157460,-78.198543,0
-38.178761,-78.197933,0
-38.132497,-78.214656,0
-37.718764,-78.220393,0
-37.305031,-78.226131,0
-36.891298,-78.231868,0
-36.477565,-78.237605,0
-36.063832,-78.243343,0
-36.048512,-78.238094,0
-36.045339,-78.235896,0
-36.026875,-78.222837,0
-36.021799,-78.215916,0
-35.927533,-78.185741,0
-35.951039,-78.192561,0
-35.951039,-78.192560,0
-35.971120,-78.180843,0
-36.060536,-78.177669,0
-35.978932,-78.154109,0
-35.951283,-78.139095,0
-35.962331,-78.124812,0
-35.949757,-78.122127,0
-35.914845,-78.109432,0
-35.794606,-78.106014,0
-35.780507,-78.104060,0
-35.764577,-78.095027,0
-35.753224,-78.084651,0
-35.741261,-78.079280,0
-35.712087,-78.089046,0
-35.671254,-78.092220,0
-35.663442,-78.094539,0
-35.647878,-78.101985,0
-35.639333,-78.102596,0
-35.638661,-78.099788,0
-35.635426,-78.093562,0
-35.630299,-78.086849,0
-35.621205,-78.084163,0
-35.621449,-78.100276,0
-35.610951,-78.121272,0
-35.595570,-78.139705,0
-35.581064,-78.150387,0
-35.610951,-78.121270,0
-35.621205,-78.081720,0
-35.607330,-78.072849,0
-35.500803,-78.058526,0
-35.490549,-78.050714,0
-35.466461,-77.967950,0
-35.356191,-77.861993,0
-35.312856,-77.844415,0
-35.056467,-77.823419,0
-34.664296,-77.853611,0
-34.652044,-77.852200,0
-34.664296,-77.853572,0
-35.043019,-77.824397,0
-35.096974,-77.801570,0
-35.096974,-77.801568,0
-35.128285,-77.786433,0
-35.144460,-77.754451,0
-34.994679,-77.722957,0
-34.839772,-77.718562,0
-34.832631,-77.719295,0
-34.812428,-77.725032,0
-34.805104,-77.725642,0
-34.803090,-77.722102,0
-34.801930,-77.717464,0
-34.797109,-77.714412,0
-34.746693,-77.701350,0
-34.738885,-77.712208,0
-34.738881,-77.712172,0
-34.750396,-77.696059,0
-34.773915,-77.687433,0
-34.711497,-77.629490,0
-34.688303,-77.618585,0
-34.572662,-77.598891,0
-34.434804,-77.529392,0
-34.401357,-77.498793,0
-34.320546,-77.466404,0
-33.975453,-77.418878,0
-33.863596,-77.388116,0
-33.721099,-77.310968,0
-33.696767,-77.305841,0
-33.645131,-77.305271,0
-33.563710,-77.282485,0
-33.482289,-77.286879,0
-33.346344,-77.259454,0
-33.173818,-77.261326,0
-33.120432,-77.253106,0
-32.954579,-77.188897,0
-32.500640,-77.126153,0
-32.119456,-77.170668,0
-31.915028,-77.150811,0
-31.894276,-77.143243,0
-31.881825,-77.127537,0
-31.868642,-77.067641,0
-31.851430,-77.050958,0
-31.749094,-76.994399,0
-31.696116,-76.976658,0
-30.692128,-76.849786,0
-30.661366,-76.851658,0
-30.650706,-76.847345,0
-30.626861,-76.809991,0
-30.539174,-76.785414,0
-30.456288,-76.745538,0
-30.405100,-76.736098,0
-30.376088,-76.699477,0
-30.226471,-76.667087,0
-30.153472,-76.635349,0
-29.658070,-76.576918,0
-29.557932,-76.543227,0
-29.570424,-76.520929,0
-29.526763,-76.491388,0
-29.471547,-76.490167,0
-29.411041,-76.474705,0
-29.358266,-76.443780,0
-29.157338,-76.425388,0
-28.859120,-76.353285,0
-27.819651,-76.227472,0
-27.597646,-76.227472,0
-27.337636,-76.172052,0
-27.220204,-76.161228,0
-26.985178,-76.169692,0
-26.859731,-76.135837,0
-26.847401,-76.108168,0
-26.822865,-76.097345,0
-26.632579,-76.090880,0
-26.629323,-76.087703,0
-26.617421,-76.076350,0
-26.607655,-76.063777,0
-26.585194,-76.018977,0
-26.582875,-76.001155,0
-26.590260,-75.993465,0
-26.601796,-75.987849,0
-26.612416,-75.976497,0
-26.616383,-75.957820,0
-26.615956,-75.938899,0
-26.619923,-75.919002,0
-26.637074,-75.897395,0
-26.659291,-75.882259,0
-26.799550,-75.807063,0
-27.078725,-75.723567,0
-27.467519,-75.678645,0
-27.492116,-75.672542,0
-27.561269,-75.642268,0
-27.615346,-75.629939,0
-27.638844,-75.618709,0
-27.643910,-75.600887,0
-27.628285,-75.588435,0
-27.522084,-75.544856,0
-27.499318,-75.542293,0
-27.450917,-75.544246,0
-27.425526,-75.540706,0
-27.375844,-75.527400,0
-27.186574,-75.507259,0
-27.088002,-75.483699,0
-26.685719,-75.458858,0
-26.283437,-75.434016,0
-26.259816,-75.426204,0
-26.193227,-75.390559,0
-26.168507,-75.381404,0
-26.116200,-75.371516,0
-26.091481,-75.363826,0
-26.003285,-75.313045,0
-25.978322,-75.304622,0
-25.668813,-75.254573,0
-25.359303,-75.204524,0
-25.321950,-75.187434,0
-25.220326,-75.121272,0
-25.229115,-75.110164,0
-25.209767,-75.102596,0
-25.190297,-75.089778,0
-25.176625,-75.072688,0
-25.174550,-75.052303,0
-25.185109,-75.034114,0
-25.197621,-75.017024,0
-25.197804,-75.002254,0
-25.150990,-74.984065,0
-25.097401,-74.953182,0
-25.027211,-74.933040,0
-25.006947,-74.920833,0
-25.043141,-74.897517,0
-25.087819,-74.885677,0
-25.249745,-74.866267,0
-25.270985,-74.858577,0
-25.360829,-74.808894,0
-25.379079,-74.795589,0
-25.386037,-74.778011,0
-25.389760,-74.759700,0
-25.398000,-74.743831,0
-25.414845,-74.733821,0
-25.625172,-74.680599,0
-25.672780,-74.679134,0
-25.623097,-74.655818,0
-25.381398,-74.616023,0
-25.361012,-74.605891,0
-25.313710,-74.554744,0
-25.292409,-74.538265,0
-25.304677,-74.518123,0
-25.312001,-74.508601,0
-25.320119,-74.500911,0
-25.325612,-74.493221,0
-25.323232,-74.485652,0
-25.317677,-74.477107,0
-25.313466,-74.466853,0
-25.319203,-74.445003,0
-25.338979,-74.427425,0
-25.386403,-74.401180,0
-25.388722,-74.375545,0
-25.439687,-74.344661,0
-25.505238,-74.318050,0
-25.563161,-74.301814,0
-25.576650,-74.295223,0
-25.588185,-74.286433,0
-25.602040,-74.262630,0
-25.614919,-74.257503,0
-25.710927,-74.252864,0
-25.740834,-74.246883,0
-25.772633,-74.234798,0
-25.760487,-74.215999,0
-25.741689,-74.196346,0
-25.720326,-74.179378,0
-25.675465,-74.154353,0
-25.678151,-74.138973,0
-25.687245,-74.120662,0
-25.681874,-74.097469,0
-25.663808,-74.089046,0
-25.188191,-74.023189,0
-24.712575,-73.957332,0
-24.610097,-73.964412,0
-24.295583,-73.922420,0
-24.198293,-73.889339,0
-24.160390,-73.869930,0
-24.142018,-73.862972,0
-24.118337,-73.859187,0
-24.098256,-73.862483,0
-24.066640,-73.881648,0
-24.042287,-73.886409,0
-23.994618,-73.880306,0
-23.903310,-73.855159,0
-23.853627,-73.856136,0
-23.830312,-73.865901,0
-23.801015,-73.893611,0
-23.778066,-73.902644,0
-23.755360,-73.903743,0
-23.691457,-73.893855,0
-23.668202,-73.894466,0
-23.577626,-73.917049,0
-23.570729,-73.922054,0
-23.568044,-73.935115,0
-23.563710,-73.944148,0
-23.553639,-73.951228,0
-23.531361,-73.960140,0
-23.544545,-73.968318,0
-23.548634,-73.977840,0
-23.544545,-73.988094,0
-23.533193,-73.997981,0
-23.553090,-74.011775,0
-23.553090,-74.025935,0
-23.538747,-74.034114,0
-23.515248,-74.030452,0
-23.495839,-74.017513,0
-23.466481,-73.987361,0
-23.447194,-73.978694,0
-23.359303,-73.972713,0
-23.311574,-73.975032,0
-23.288564,-73.984187,0
-23.246632,-73.966121,0
-23.227040,-73.966121,0
-23.204518,-73.994319,0
-23.134145,-74.049861,0
-23.082143,-74.080867,0
-23.054799,-74.112361,0
-23.055104,-74.118343,0
-23.060048,-74.122737,0
-23.063222,-74.127376,0
-23.058217,-74.133601,0
-23.047475,-74.140682,0
-23.042897,-74.144588,0
-23.039113,-74.149837,0
-23.024953,-74.160335,0
-23.004018,-74.163875,0
-22.965260,-74.164485,0
-22.897939,-74.173396,0
-22.814748,-74.165706,0
-22.772633,-74.157283,0
-22.757314,-74.156917,0
-22.742665,-74.161800,0
-22.722157,-74.172786,0
-22.719045,-74.151424,0
-22.699330,-74.139827,0
-22.630483,-74.123592,0
-22.613637,-74.127986,0
-22.599843,-74.138973,0
-22.588612,-74.154353,0
-22.572316,-74.165828,0
-22.548451,-74.167781,0
-22.521901,-74.166805,0
-22.497609,-74.169612,0
-22.484425,-74.176570,0
-22.451405,-74.200618,0
-22.433949,-74.210384,0
-22.350575,-74.236507,0
-22.264089,-74.252620,0
-22.129201,-74.258357,0
-22.089833,-74.268245,0
-22.095570,-74.263606,0
-22.111012,-74.246394,0
-22.097340,-74.237239,0
-22.091298,-74.225520,0
-22.087880,-74.214168,0
-22.081960,-74.206844,0
-22.054189,-74.194392,0
-21.971791,-74.174739,0
-21.946523,-74.160701,0
-21.940053,-74.137264,0
-21.944325,-74.129207,0
-21.951772,-74.123836,0
-21.961598,-74.120662,0
-21.990102,-74.111507,0
-21.821963,-74.097486,0
-22.021148,-74.114028,0
-22.040151,-74.105564,0
-21.893951,-74.041681,0
-21.336049,-74.003676,0
-21.234853,-73.980645,0
-21.145375,-73.950128,0
-21.069569,-73.913018,0
-21.009511,-73.870538,0
-21.010732,-73.825942,0
-20.940907,-73.751072,0
-20.924387,-73.704360,0
-20.890370,-73.678969,0
-20.814198,-73.646417,0
-20.648793,-73.619399,0
-20.637603,-73.610040,0
-20.640248,-73.587498,0
-20.556642,-73.620777,0
-20.582814,-73.605769,0
-20.611073,-73.594661,0
-20.633229,-73.589168,0
-20.639394,-73.583797,0
-20.647267,-73.575740,0
-20.658925,-73.569515,0
-20.673634,-73.565974,0
-20.647817,-73.567073,0
-20.621510,-73.565242,0
-20.595876,-73.559993,0
-20.571950,-73.550349,0
-20.583974,-73.526302,0
-20.587148,-73.507259,0
-20.581044,-73.487727,0
-20.512318,-73.379573,0
-20.478078,-73.340633,0
-20.437856,-73.305965,0
-20.394093,-73.276302,0
-20.349110,-73.252132,0
-20.153432,-73.178767,0
-20.011098,-73.101375,0
-20.000000,-73.097703,0
-20.000000,-75.521029,0
-20.083516,-75.510799,0
-20.399403,-75.472102,0
-20.399430,-75.472108,0
-20.000000,-75.521033,0
-20.000000,-89.999722,0
-53.000000,-89.999722,0
-53.000000,-82.138750,0
-52.928162,-82.143111,0
-52.933980,-82.142757,0
-53.000000,-82.138739,0
-53.000000,-80.854190,0
-52.707082,-80.848405,0
-52.222239,-80.838829,0
-51.737396,-80.829253,0
-51.252553,-80.819677,0
-50.767710,-80.810102,0
-50.282867,-80.800526,0
-49.798024,-80.790950,0
-49.798016,-80.790948,0
-53.000000,-80.854188,0
-53.000000,-76.764023,0
-52.770314,-76.836116,0
-52.698354,-76.838191,0
-52.576161,-76.869319,0</coordinates>
          </LinearRing>
        </outerBoundaryIs>
      </Polygon>
    </Placemark>
    <Placemark>
      <name>Brazil</name>
      <description>See: 2050-snapshot/domains/borders-geopolitics.md#antarctica</description>
      <Polygon>
        <extrude>1</extrude>
        <altitudeMode>clampToGround</altitudeMode>
        <outerBoundaryIs>
          <LinearRing>
            <coordinates>-44.690256,-60.676202,0
-44.609283,-60.708917,0
-44.524810,-60.674737,0
-44.505238,-60.675551,0
-44.451650,-60.703302,0
-44.518544,-60.718438,0
-44.535227,-60.736505,0
-44.566274,-60.745050,0
-44.697581,-60.744399,0
-44.719716,-60.750421,0
-44.717844,-60.772719,0
-44.819936,-60.740004,0
-44.847320,-60.715509,0
-44.783030,-60.733819,0
-44.694569,-60.722752,0
-44.680776,-60.708591,0
-44.690256,-60.676202,0</coordinates>
          </LinearRing>
        </outerBoundaryIs>
      </Polygon>
    </Placemark>
    <Placemark>
      <name>Brazil</name>
      <description>See: 2050-snapshot/domains/borders-geopolitics.md#antarctica</description>
      <Polygon>
        <extrude>1</extrude>
        <altitudeMode>clampToGround</altitudeMode>
        <outerBoundaryIs>
          <LinearRing>
            <coordinates>-45.020416,-60.690362,0
-45.000234,-60.700860,0
-45.025624,-60.710219,0
-45.083363,-60.684666,0
-45.069000,-60.660252,0
-45.067128,-60.631117,0
-45.029612,-60.656834,0
-45.020416,-60.690362,0</coordinates>
          </LinearRing>
        </outerBoundaryIs>
      </Polygon>
    </Placemark>
    <Placemark>
      <name>Brazil</name>
      <description>See: 2050-snapshot/domains/borders-geopolitics.md#antarctica</description>
      <Polygon>
        <extrude>1</extrude>
        <altitudeMode>clampToGround</altitudeMode>
        <outerBoundaryIs>
          <LinearRing>
            <coordinates>-45.665761,-60.524102,0
-45.567535,-60.553643,0
-45.477162,-60.545587,0
-45.390981,-60.579278,0
-45.372385,-60.597263,0
-45.389516,-60.612237,0
-45.349436,-60.628595,0
-45.190663,-60.632908,0
-45.217844,-60.654555,0
-45.146799,-60.685805,0
-45.182932,-60.683852,0
-45.187327,-60.698907,0
-45.141021,-60.736098,0
-45.184641,-60.733331,0
-45.283803,-60.683364,0
-45.355295,-60.675714,0
-45.363108,-60.660414,0
-45.408518,-60.648045,0
-45.465810,-60.651300,0
-45.590566,-60.639255,0
-45.680531,-60.649102,0
-45.718861,-60.645603,0
-45.759104,-60.611098,0
-45.752594,-60.596368,0
-45.789296,-60.584080,0
-45.824696,-60.586114,0
-45.952260,-60.625584,0
-45.993642,-60.621759,0
-46.006988,-60.612726,0
-46.004058,-60.587579,0
-45.988149,-60.568536,0
-45.948313,-60.566339,0
-45.957102,-60.534112,0
-45.955068,-60.527765,0
-45.935129,-60.524672,0
-45.842844,-60.548435,0
-45.808095,-60.535821,0
-45.746978,-60.532322,0
-45.737294,-60.518976,0
-45.720570,-60.516209,0
-45.665761,-60.524102,0</coordinates>
          </LinearRing>
        </outerBoundaryIs>
      </Polygon>
    </Placemark>
  </Document>
</kml>
