<?xml version='1.0' encoding='UTF-8'?>
<kml xmlns="http://www.opengis.net/kml/2.2">
  <Document>
    <Placemark>
      <name>China</name>
      <description>See: 2050-snapshot/domains/borders-geopolitics.md#antarctica</description>
      <Polygon>
        <extrude>1</extrude>
        <altitudeMode>clampToGround</altitudeMode>
        <outerBoundaryIs>
          <LinearRing>
            <coordinates>-150.000000,-76.535592,0
-150.000000,-76.459490,0
-149.640494,-76.429866,0
-149.639762,-76.429988,0
-149.244112,-76.455338,0
-148.848461,-76.480688,0
-148.452811,-76.506038,0
-148.452552,-76.505997,0
-148.452830,-76.506036,0
-149.639760,-76.429946,0
-149.687693,-76.416436,0
-149.714060,-76.397719,0
-149.708974,-76.376723,0
-149.659779,-76.338149,0
-149.606313,-76.313897,0
-149.545766,-76.300388,0
-149.483347,-76.293227,0
-149.033274,-76.301935,0
-148.874094,-76.265720,0
-148.539662,-76.228285,0
-148.645823,-76.209080,0
-148.690297,-76.191502,0
-148.689280,-76.161065,0
-148.648671,-76.134698,0
-148.591420,-76.116876,0
-148.425404,-76.089451,0
-148.199442,-76.087115,0
-148.286490,-76.087947,0
-148.244071,-76.071834,0
-148.207999,-76.057796,0
-148.175040,-76.038753,0
-148.145865,-76.014095,0
-148.224051,-75.961849,0
-148.295096,-75.901790,0
-148.308097,-75.885310,0
-148.337760,-75.830989,0
-148.353385,-75.813655,0
-148.409537,-75.769954,0
-148.390189,-75.751277,0
-148.364371,-75.744808,0
-148.336722,-75.748103,0
-148.312064,-75.759212,0
-148.283133,-75.739925,0
-148.033988,-75.728938,0
-147.997426,-75.746150,0
-147.975209,-75.753108,0
-147.999623,-75.721980,0
-147.940785,-75.718929,0
-147.912099,-75.721736,0
-147.886037,-75.732600,0
-147.879689,-75.739558,0
-147.866994,-75.758601,0
-147.858998,-75.764583,0
-147.841481,-75.767268,0
-147.835744,-75.760555,0
-147.833241,-75.749446,0
-147.825551,-75.739314,0
-147.780141,-75.724544,0
-147.608205,-75.720149,0
-147.601979,-75.731868,0
-147.586415,-75.733943,0
-147.549001,-75.728206,0
-147.283315,-75.721370,0
-147.294179,-75.729793,0
-147.241689,-75.743343,0
-147.191945,-75.732356,0
-147.100514,-75.686824,0
-146.994496,-75.650813,0
-146.638966,-75.613338,0
-146.613210,-75.607723,0
-146.589162,-75.597835,0
-146.567433,-75.581966,0
-146.542958,-75.568660,0
-146.448476,-75.553645,0
-146.452565,-75.570369,0
-146.463857,-75.579280,0
-146.495534,-75.591365,0
-146.446401,-75.579891,0
-146.429738,-75.579158,0
-146.451344,-75.593684,0
-146.364125,-75.575130,0
-146.303517,-75.575252,0
-146.266896,-75.567806,0
-146.214101,-75.571956,0
-146.188588,-75.569270,0
-146.171620,-75.561702,0
-146.156178,-75.551814,0
-146.121755,-75.547542,0
-146.137380,-75.554622,0
-146.159767,-75.569751,0
-146.111155,-75.542739,0
-145.969716,-75.509454,0
-145.870758,-75.504571,0
-145.798183,-75.511383,0
-145.813161,-75.500667,0
-145.818288,-75.494319,0
-145.814687,-75.488826,0
-145.801137,-75.485896,0
-145.811574,-75.470149,0
-145.820119,-75.452937,0
-145.818654,-75.439754,0
-145.799184,-75.436214,0
-145.817006,-75.425594,0
-145.766774,-75.408992,0
-145.567494,-75.371639,0
-145.544911,-75.374568,0
-145.542897,-75.394222,0
-145.557485,-75.400935,0
-145.657521,-75.420345,0
-145.684499,-75.431087,0
-145.700551,-75.443050,0
-145.687367,-75.451350,0
-145.668691,-75.447810,0
-145.592702,-75.418147,0
-145.518727,-75.401790,0
-145.494435,-75.392024,0
-145.475270,-75.380183,0
-145.465382,-75.376155,0
-145.453664,-75.376033,0
-145.447987,-75.381282,0
-145.442250,-75.392513,0
-145.438039,-75.405208,0
-145.437062,-75.415096,0
-145.405629,-75.412532,0
-145.315297,-75.389705,0
-145.320912,-75.394222,0
-145.336415,-75.409969,0
-145.306447,-75.414119,0
-145.184987,-75.403011,0
-145.004384,-75.418514,0
-144.841481,-75.408504,0
-144.882069,-75.402034,0
-144.849355,-75.394466,0
-144.789479,-75.393855,0
-144.767934,-75.391292,0
-144.744374,-75.384334,0
-144.803700,-75.376888,0
-144.760976,-75.372981,0
-144.631703,-75.379451,0
-144.477345,-75.360042,0
-144.180409,-75.367488,0
-144.199574,-75.378474,0
-144.221242,-75.382625,0
-143.968068,-75.380245,0
-143.714894,-75.377864,0
-143.587209,-75.390926,0
-143.209584,-75.345882,0
-142.845087,-75.389460,0
-142.480589,-75.433039,0
-142.526357,-75.437557,0
-142.578236,-75.451228,0
-142.578210,-75.451262,0
-142.467030,-75.431736,0
-142.130198,-75.460870,0
-142.031239,-75.495538,0
-141.937706,-75.501850,0
-141.992055,-75.441829,0
-141.535817,-75.418147,0
-141.496571,-75.424251,0
-141.452565,-75.425838,0
-141.363271,-75.407405,0
-141.316762,-75.422908,0
-141.336171,-75.459285,0
-141.342458,-75.479671,0
-141.338857,-75.491145,0
-141.324086,-75.495784,0
-141.285573,-75.499812,0
-141.298221,-75.501561,0
-141.230458,-75.492364,0
-140.927480,-75.511489,0
-140.819651,-75.530938,0
-140.277008,-75.432550,0
-140.217356,-75.410252,0
-140.198557,-75.392511,0
-140.218821,-75.375177,0
-140.157053,-75.340590,0
-139.849721,-75.240655,0
-139.767405,-75.236261,0
-139.674184,-75.218520,0
-139.676991,-75.196384,0
-139.659413,-75.176365,0
-139.611236,-75.153497,0
-139.566640,-75.148045,0
-139.351430,-75.147719,0
-139.204254,-75.124933,0
-139.034250,-75.140720,0
-137.904286,-75.105564,0
-137.848704,-75.095880,0
-137.785959,-75.069594,0
-137.742340,-75.060642,0
-137.477447,-75.088149,0
-137.094879,-75.179864,0
-137.071645,-75.177911,0
-137.018381,-75.146091,0
-136.995229,-75.144789,0
-136.918935,-75.156183,0
-136.346018,-75.177830,0
-136.381988,-75.146091,0
-136.430084,-75.133884,0
-136.335032,-75.125421,0
-136.374379,-75.108087,0
-136.877594,-75.038181,0
-136.964752,-75.013604,0
-137.007924,-75.010023,0
-137.008046,-75.010066,0
-137.008046,-75.010064,0
-137.009002,-75.009934,0
-137.009877,-75.009861,0
-137.009748,-75.009831,0
-137.009816,-75.009822,0
-137.009024,-75.009665,0
-136.885610,-74.981378,0
-136.864329,-74.964614,0
-136.863108,-74.947931,0
-136.891225,-74.880304,0
-136.882436,-74.854750,0
-136.884877,-74.828302,0
-136.866811,-74.792576,0
-136.834299,-74.760431,0
-136.794301,-74.749933,0
-136.565297,-74.758559,0
-136.417795,-74.739190,0
-136.349273,-74.717706,0
-136.224843,-74.701430,0
-136.122955,-74.701104,0
-135.987982,-74.717333,0
-135.950612,-74.709773,0
-135.854665,-74.674373,0
-135.836964,-74.672054,0
-135.788991,-74.680721,0
-135.773122,-74.678523,0
-135.741689,-74.670711,0
-135.724965,-74.670589,0
-135.755788,-74.681697,0
-135.735585,-74.684261,0
-135.718495,-74.682430,0
-135.703847,-74.677303,0
-135.695620,-74.675462,0
-135.633778,-74.640558,0
-135.495473,-74.581231,0
-135.419993,-74.565118,0
-135.342397,-74.560154,0
-134.518625,-74.643243,0
-134.514841,-74.645057,0
-134.518605,-74.643245,0
-134.753957,-74.619441,0
-134.643483,-74.613704,0
-134.600087,-74.607967,0
-134.561025,-74.593440,0
-134.527943,-74.568172,0
-134.540273,-74.558528,0
-134.487172,-74.541805,0
-134.139333,-74.524715,0
-133.791493,-74.507625,0
-133.443654,-74.490535,0
-133.349782,-74.497981,0
-133.057729,-74.460262,0
-132.945546,-74.429744,0
-132.907216,-74.425594,0
-132.896007,-74.427376,0
-132.898508,-74.426365,0
-132.837026,-74.426365,0
-132.805165,-74.412693,0
-132.746002,-74.415460,0
-132.571156,-74.388442,0
-132.496571,-74.385024,0
-132.342275,-74.404474,0
-132.343544,-74.405102,0
-132.165273,-74.419612,0
-132.180680,-74.423611,0
-132.016754,-74.381524,0
-131.981679,-74.359552,0
-131.806264,-74.321954,0
-131.683705,-74.320489,0
-131.632314,-74.333754,0
-131.564117,-74.331231,0
-131.612375,-74.348891,0
-131.588368,-74.365004,0
-131.553212,-74.375095,0
-131.127553,-74.427911,0
-130.983754,-74.410821,0
-130.959543,-74.416599,0
-130.959389,-74.416837,0
-130.959523,-74.416560,0
-130.968984,-74.412776,0
-130.977040,-74.411678,0
-130.964589,-74.404109,0
-130.948048,-74.380794,0
-130.883412,-74.374812,0
-130.529042,-74.385799,0
-130.521840,-74.389583,0
-130.429372,-74.410213,0
-130.074757,-74.403743,0
-129.978139,-74.415340,0
-129.548085,-74.391139,0
-129.118031,-74.366939,0
-128.687978,-74.342738,0
-128.257924,-74.318538,0
-128.189992,-74.301448,0
-128.269276,-74.296321,0
-128.200551,-74.260188,0
-128.053395,-74.205867,0
-127.986379,-74.167171,0
-127.957875,-74.154842,0
-127.845570,-74.131038,0
-127.709218,-74.058894,0
-127.692616,-74.053767,0
-127.621449,-74.042537,0
-127.604848,-74.036067,0
-127.541798,-73.994197,0
-127.529408,-73.982356,0
-127.507436,-73.944637,0
-127.495717,-73.931209,0
-127.459767,-73.908626,0
-127.310719,-73.838802,0
-127.284779,-73.815364,0
-127.258595,-73.778621,0
-127.249623,-73.742610,0
-127.257924,-73.726253,0
-127.251210,-73.728938,0
-127.229421,-73.732723,0
-127.005247,-73.740411,0
-127.251210,-73.728936,0
-127.268870,-73.717869,0
-127.254262,-73.644138,0
-127.166005,-73.602634,0
-127.367340,-73.562758,0
-127.450551,-73.559828,0
-127.473175,-73.549574,0
-127.418202,-73.534601,0
-127.415191,-73.525567,0
-127.425160,-73.485935,0
-127.486480,-73.451267,0
-127.495432,-73.429620,0
-127.426096,-73.398533,0
-127.374094,-73.357192,0
-127.303212,-73.318129,0
-127.226389,-73.292169,0
-127.148997,-73.277276,0
-127.107004,-73.277602,0
-127.074574,-73.290704,0
-127.114003,-73.305597,0
-127.029897,-73.309259,0
-126.527170,-73.268324,0
-126.104075,-73.296157,0
-125.942494,-73.375909,0
-125.599273,-73.429376,0
-125.565785,-73.443780,0
-125.571441,-73.461196,0
-125.629709,-73.494561,0
-125.606068,-73.517267,0
-125.469960,-73.578871,0
-125.246327,-73.610528,0
-125.212857,-73.639774,0
-125.225575,-73.622127,0
-125.126332,-73.647517,0
-124.859181,-73.667598,0
-124.592030,-73.687679,0
-124.615956,-73.693538,0
-124.625844,-73.693538,0
-124.632558,-73.714168,0
-124.626149,-73.717952,0
-124.619069,-73.720638,0
-124.599843,-73.726985,0
-124.629060,-73.730713,0
-124.534291,-73.727634,0
-124.515777,-73.736586,0
-124.508453,-73.753188,0
-124.027455,-73.855239,0
-124.025688,-73.860054,0
-124.027028,-73.856380,0
-123.688313,-73.846736,0
-123.349599,-73.837093,0
-123.349782,-73.838802,0
-123.349738,-73.839280,0
-123.349762,-73.838800,0
-123.337270,-73.831231,0
-123.237375,-73.820245,0
-123.230784,-73.815118,0
-123.234242,-73.804946,0
-123.276926,-73.785740,0
-123.289133,-73.774509,0
-123.286773,-73.763930,0
-123.193023,-73.706801,0
-123.120229,-73.682794,0
-123.065582,-73.675388,0
-122.272369,-73.682224,0
-122.055776,-73.715753,0
-120.686431,-73.767267,0
-120.540151,-73.753351,0
-120.429067,-73.772556,0
-120.375803,-73.796482,0
-120.378040,-73.830978,0
-120.375966,-73.799251,0
-120.359242,-73.809383,0
-120.349049,-73.813777,0
-120.075673,-73.844905,0
-119.986806,-73.844539,0
-119.896882,-73.828799,0
-119.903554,-73.824965,0
-119.698476,-73.818292,0
-119.580881,-73.786310,0
-119.494944,-73.772556,0
-119.123402,-73.780857,0
-118.974436,-73.804864,0
-118.914133,-73.827407,0
-118.899729,-73.839451,0
-118.900787,-73.873224,0
-118.870839,-73.885675,0
-118.877327,-73.888843,0
-118.877309,-73.888850,0
-118.875417,-73.890559,0
-118.874501,-73.893733,0
-118.874379,-73.905330,0
-118.871510,-73.909602,0
-118.866506,-73.912654,0
-118.860097,-73.915462,0
-118.836842,-73.922054,0
-118.766774,-73.925838,0
-118.662648,-73.954768,0
-118.241322,-73.984838,0
-117.819997,-74.014908,0
-117.398671,-74.044978,0
-117.308156,-74.061092,0
-117.296071,-74.063289,0
-117.358555,-74.077016,0
-116.403391,-73.867283,0
-116.315175,-73.864841,0
-116.140696,-73.902520,0
-116.198110,-73.938409,0
-116.334950,-73.973565,0
-116.344928,-73.977433,0
-116.334950,-73.973567,0
-116.198110,-73.938411,0
-116.161061,-73.915340,0
-116.152699,-73.937434,0
-116.123158,-73.958308,0
-115.736928,-74.066707,0
-115.574941,-74.086482,0
-115.384389,-74.082942,0
-115.207448,-74.101985,0
-115.163258,-74.097469,0
-115.141896,-74.096614,0
-115.122847,-74.093953,0
-115.022206,-74.046645,0
-114.912913,-74.016860,0
-114.944976,-73.994399,0
-114.813344,-73.963637,0
-114.796864,-73.938897,0
-114.733998,-73.926853,0
-114.505360,-73.920017,0
-114.374379,-73.881524,0
-114.210032,-73.863458,0
-114.101715,-73.892022,0
-113.951772,-73.914646,0
-113.969191,-73.937503,0
-113.963429,-73.929988,0
-113.963368,-73.931087,0
-113.962575,-73.934627,0
-113.962453,-73.945003,0
-113.965199,-73.950496,0
-113.963918,-73.956722,0
-113.951405,-73.969417,0
-113.929006,-73.985774,0
-113.902821,-73.999812,0
-113.874257,-74.011043,0
-113.844077,-74.023139,0
-113.611195,-74.025160,0
-113.562001,-74.035252,0
-113.439605,-74.099705,0
-113.426137,-74.119887,0
-113.445546,-74.126642,0
-113.447011,-74.142755,0
-113.435492,-74.157575,0
-113.422963,-74.161311,0
-113.398854,-74.167659,0
-113.021413,-74.183254,0
-112.643971,-74.198848,0
-112.266530,-74.214443,0
-111.889094,-74.230037,0
-111.887034,-74.228611,0
-111.815175,-74.222752,0
-111.649810,-74.174900,0
-111.592641,-74.172459,0
-111.230784,-74.196710,0
-111.152455,-74.221287,0
-111.046376,-74.239435,0
-111.006256,-74.263442,0
-110.888295,-74.281996,0
-110.847963,-74.309514,0
-110.861806,-74.294368,0
-110.871938,-74.289729,0
-110.680978,-74.247673,0
-110.668813,-74.240492,0
-110.554921,-74.244073,0
-110.448598,-74.271254,0
-110.277255,-74.357604,0
-110.218739,-74.372127,0
-110.199147,-74.381648,0
-110.191151,-74.392635,0
-110.204396,-74.392635,0
-110.189198,-74.405940,0
-110.183217,-74.434505,0
-110.180409,-74.439632,0
-110.191142,-74.433423,0
-110.122182,-74.478285,0
-110.135325,-74.496840,0
-110.110992,-74.522882,0
-110.103139,-74.548598,0
-110.114410,-74.577244,0
-110.136684,-74.600168,0
-110.136647,-74.600154,0
-110.127126,-74.590389,0
-110.097890,-74.609065,0
-110.050710,-74.625301,0
-110.025746,-74.630306,0
-110.045583,-74.639339,0
-110.053883,-74.640926,0
-110.033681,-74.660579,0
-109.910451,-74.678767,0
-109.773122,-74.748348,0
-109.695119,-74.768245,0
-109.610036,-74.780574,0
-109.529408,-74.801570,0
-109.464589,-74.847957,0
-109.537099,-74.862117,0
-109.554494,-74.872005,0
-109.573842,-74.888484,0
-109.597401,-74.902034,0
-109.622914,-74.912288,0
-109.648183,-74.918636,0
-109.596974,-74.942561,0
-109.330373,-74.993953,0
-109.302846,-75.007869,0
-109.293385,-75.016414,0
-109.288808,-75.023128,0
-109.281728,-75.029720,0
-109.249135,-75.042171,0
-109.201405,-75.053157,0
-109.222524,-75.058406,0
-109.153981,-75.078304,0
-109.153981,-75.078302,0
-109.122609,-75.093318,0
-109.104604,-75.119197,0
-109.145985,-75.124202,0
-109.418446,-75.095027,0
-109.455983,-75.103328,0
-109.393178,-75.144954,0
-109.304555,-75.168025,0
-109.287719,-75.174244,0
-108.199562,-75.249860,0
-108.186147,-75.248714,0
-108.164967,-75.244319,0
-108.106191,-75.223811,0
-108.086598,-75.220638,0
-107.984242,-75.221370,0
-107.910695,-75.205989,0
-107.765187,-75.191829,0
-107.792226,-75.182552,0
-108.045155,-75.192561,0
-108.016103,-75.174373,0
-107.833363,-75.143977,0
-107.794545,-75.141780,0
-107.756154,-75.143855,0
-107.784352,-75.133479,0
-107.799428,-75.130183,0
-107.830068,-75.128352,0
-107.839040,-75.126033,0
-107.858571,-75.112849,0
-107.887502,-75.101009,0
-107.920888,-75.096370,0
-108.128590,-75.100154,0
-108.270375,-75.081844,0
-108.235890,-75.071346,0
-108.116506,-75.066341,0
-108.139638,-75.064021,0
-108.186269,-75.065486,0
-108.209584,-75.063289,0
-108.163197,-75.053523,0
-107.848256,-75.046077,0
-107.832875,-75.042537,0
-107.822133,-75.035701,0
-107.816701,-75.028011,0
-107.809682,-75.001521,0
-107.850209,-75.001277,0
-107.869496,-74.996394,0
-107.886281,-74.985774,0
-107.844655,-74.973201,0
-107.626515,-74.951473,0
-107.568715,-74.929500,0
-107.548329,-74.925594,0
-107.131947,-74.912898,0
-107.110097,-74.908626,0
-107.074147,-74.890926,0
-107.006398,-74.886897,0
-106.991933,-74.880183,0
-106.936330,-74.841487,0
-106.917287,-74.835872,0
-106.856191,-74.830135,0
-106.776235,-74.808406,0
-106.622182,-74.741756,0
-106.538991,-74.732356,0
-106.547414,-74.740169,0
-106.551808,-74.748836,0
-106.551808,-74.757869,0
-106.546864,-74.767146,0
-106.559132,-74.777889,0
-106.442250,-74.791072,0
-106.275258,-74.781184,0
-106.258168,-74.788142,0
-106.205190,-74.831111,0
-106.162282,-74.842586,0
-106.123402,-74.836849,0
-106.044179,-74.811580,0
-105.718495,-74.800411,0
-105.392812,-74.789241,0
-105.318166,-74.768733,0
-105.303395,-74.769222,0
-105.268727,-74.776668,0
-105.252004,-74.778133,0
-105.257558,-74.792781,0
-105.270497,-74.802058,0
-105.303090,-74.814388,0
-105.264638,-74.821101,0
-105.191396,-74.863948,0
-105.153127,-74.868465,0
-105.160878,-74.880550,0
-105.171376,-74.889339,0
-105.183949,-74.894099,0
-105.198293,-74.894588,0
-105.162343,-74.921443,0
-104.982167,-74.993831,0
-104.552663,-75.088802,0
-104.164601,-75.091670,0
-103.776540,-75.094539,0
-103.670155,-75.081722,0
-103.556569,-75.085384,0
-103.571950,-75.090877,0
-103.621083,-75.101131,0
-103.608878,-75.107233,0
-103.619252,-75.113094,0
-103.525118,-75.115403,0
-103.295969,-75.085382,0
-102.596547,-75.129002,0
-102.438873,-75.109145,0
-102.340728,-75.130466,0
-102.172231,-75.122817,0
-102.077504,-75.129571,0
-101.859283,-75.105645,0
-101.760742,-75.082942,0
-101.760976,-75.082942,0
-101.783070,-75.065242,0
-101.790639,-75.063655,0
-101.648854,-75.017635,0
-101.611806,-74.991145,0
-101.601918,-74.957576,0
-101.403310,-74.817683,0
-101.343434,-74.784602,0
-101.289296,-74.743465,0
-101.261525,-74.730403,0
-101.195119,-74.714290,0
-101.217397,-74.708064,0
-101.240712,-74.706722,0
-101.264150,-74.709041,0
-101.286794,-74.714046,0
-101.266591,-74.704646,0
-101.286366,-74.695613,0
-101.358388,-74.692195,0
-101.630360,-74.650020,0
-101.902333,-74.607845,0
-102.047292,-74.610774,0
-102.089101,-74.601863,0
-102.071523,-74.594539,0
-102.031972,-74.587703,0
-102.012196,-74.581966,0
-102.034108,-74.565486,0
-102.062245,-74.556819,0
-102.324574,-74.511287,0
-102.353200,-74.511775,0
-102.407399,-74.519099,0
-102.435048,-74.519710,0
-102.459767,-74.513240,0
-102.390248,-74.483943,0
-101.938344,-74.404109,0
-101.918263,-74.396419,0
-101.899526,-74.385066,0
-101.882253,-74.369075,0
-101.880299,-74.357234,0
-101.890431,-74.344783,0
-101.909657,-74.326717,0
-101.802480,-74.341243,0
-101.747426,-74.338802,0
-101.734547,-74.310115,0
-101.479604,-74.288509,0
-101.420400,-74.276546,0
-101.426346,-74.279944,0
-101.359934,-74.245294,0
-101.354970,-74.225763,0
-101.365468,-74.198907,0
-101.405019,-74.160089,0
-101.433705,-74.154474,0
-101.427113,-74.129002,0
-101.439198,-74.116469,0
-101.487131,-74.102797,0
-101.535146,-74.073175,0
-101.556793,-74.023045,0
-101.589223,-74.000177,0
-101.658355,-73.995294,0
-101.785959,-74.003513,0
-101.901438,-73.997247,0
-102.063710,-73.957452,0
-102.229400,-73.962498,0
-102.393666,-73.931817,0
-102.733266,-73.937188,0
-102.848622,-73.921563,0
-102.896392,-73.902114,0
-102.923329,-73.857517,0
-102.882721,-73.816583,0
-102.822174,-73.780043,0
-102.788971,-73.748793,0
-102.803944,-73.716974,0
-102.846099,-73.701104,0
-102.978261,-73.682224,0
-102.986887,-73.674981,0
-102.982655,-73.621026,0
-102.998647,-73.609633,0
-102.950999,-73.589125,0
-102.889760,-73.585545,0
-101.911977,-73.636407,0
-101.800526,-73.663263,0
-101.385365,-73.667169,0
-101.274078,-73.695406,0
-101.334157,-73.677913,0
-101.355336,-73.638728,0
-101.368764,-73.628597,0
-101.397878,-73.621150,0
-101.409840,-73.615901,0
-101.416676,-73.607723,0
-101.422414,-73.599056,0
-101.431020,-73.592342,0
-101.465749,-73.581722,0
-101.501576,-73.575008,0
-101.519887,-73.566707,0
-101.550710,-73.539241,0
-101.571462,-73.529353,0
-101.661427,-73.514583,0
-101.687001,-73.501643,0
-101.702199,-73.480281,0
-101.696889,-73.460384,0
-101.661305,-73.425105,0
-101.645070,-73.414363,0
-101.642506,-73.407405,0
-101.648122,-73.394344,0
-101.677480,-73.354549,0
-101.691090,-73.345027,0
-101.704601,-73.333859,0
-101.856597,-73.304457,0
-102.602610,-73.330743,0
-102.873647,-73.308201,0
-102.986887,-73.237970,0
-103.044057,-73.224542,0
-103.117502,-73.185968,0
-103.266428,-73.167250,0
-103.306711,-73.147149,0
-103.315907,-73.130955,0
-103.307485,-73.116306,0
-103.239573,-73.077813,0
-103.287831,-73.047784,0
-103.261342,-73.006606,0
-103.333852,-72.961521,0
-103.403798,-72.863539,0
-103.429921,-72.849379,0
-103.334340,-72.774591,0
-103.298573,-72.757582,0
-103.041412,-72.707615,0
-102.491368,-72.731101,0
-102.590016,-72.726863,0
-102.851430,-72.715633,0
-102.808461,-72.702937,0
-102.747060,-72.666683,0
-102.730153,-72.648738,0
-102.737721,-72.627132,0
-102.758412,-72.606746,0
-102.780934,-72.591853,0
-102.761098,-72.572444,0
-102.748769,-72.555476,0
-102.748525,-72.537410,0
-102.764760,-72.514461,0
-102.784352,-72.499812,0
-102.807729,-72.490169,0
-102.967641,-72.463558,0
-102.989919,-72.453059,0
-103.052968,-72.410335,0
-103.252126,-72.337459,0
-103.328542,-72.323909,0
-103.353810,-72.315608,0
-103.374684,-72.303890,0
-103.396230,-72.285457,0
-103.406300,-72.265682,0
-103.392629,-72.249202,0
-103.345509,-72.235164,0
-103.298818,-72.231624,0
-103.004781,-72.250423,0
-102.710744,-72.269222,0
-102.442677,-72.203914,0
-102.320546,-72.150081,0
-102.289357,-72.145808,0
-102.292104,-72.126888,0
-102.182607,-72.164974,0
-101.967275,-72.193294,0
-101.964210,-72.193255,0
-101.967275,-72.193292,0
-102.182607,-72.164972,0
-102.292226,-72.126723,0
-102.323720,-72.064060,0
-102.304026,-72.035740,0
-102.273590,-72.017836,0
-102.087026,-71.973891,0
-100.437367,-71.879327,0
-100.239898,-71.825779,0
-100.132558,-71.821873,0
-100.028798,-71.842706,0
-99.947000,-71.892243,0
-99.950124,-71.890315,0
-99.845631,-71.903621,0
-99.408681,-71.911067,0
-99.327016,-71.896907,0
-99.219106,-71.898616,0
-99.168324,-71.914729,0
-99.150431,-71.913877,0
-99.126698,-71.888279,0
-99.089711,-71.871189,0
-98.970286,-71.838637,0
-98.880523,-71.774184,0
-98.856272,-71.765232,0
-98.531646,-71.756768,0
-97.982411,-71.859633,0
-98.040151,-71.915584,0
-98.040151,-71.915584,0
-97.984670,-71.861873,0
-97.902211,-71.877376,0
-97.762208,-71.886005,0
-97.739735,-71.883396,0
-97.602773,-71.888116,0
-97.472320,-71.907973,0
-97.622670,-71.950453,0
-97.622575,-71.950469,0
-97.475514,-71.908992,0
-97.336659,-71.886531,0
-97.051318,-71.880796,0
-97.048207,-71.876397,0
-96.990102,-71.847345,0
-96.922109,-71.834893,0
-96.856516,-71.833591,0
-96.736236,-71.860935,0
-96.360463,-71.835056,0
-96.282338,-71.842543,0
-96.208811,-71.860610,0
-96.065338,-71.913832,0
-96.115061,-71.995782,0
-96.139475,-72.013604,0
-96.200266,-72.023696,0
-96.422841,-72.004571,0
-96.427637,-72.005079,0
-96.422841,-72.004573,0
-96.200246,-72.023738,0
-96.168691,-72.021663,0
-96.139455,-72.013606,0
-96.115041,-71.995784,0
-96.115041,-71.995782,0
-96.095754,-71.969783,0
-96.066151,-71.915462,0
-96.017018,-71.943538,0
-95.995351,-71.955013,0
-95.964650,-71.961238,0
-95.914174,-71.959895,0
-95.891591,-71.963191,0
-95.847890,-71.990535,0
-95.691094,-72.051254,0
-95.658111,-72.047621,0
-95.594831,-72.076090,0
-95.613515,-72.067561,0
-95.536855,-72.081355,0
-95.506276,-72.091121,0
-95.477712,-72.106136,0
-95.406972,-72.168636,0
-95.375844,-72.187190,0
-95.367116,-72.195247,0
-95.352773,-72.218440,0
-95.344045,-72.227718,0
-95.334401,-72.235286,0
-95.344838,-72.240291,0
-95.350148,-72.242000,0
-95.313466,-72.257869,0
-95.276051,-72.267268,0
-95.160817,-72.283626,0
-94.915547,-72.364986,0
-94.670277,-72.446346,0
-94.631947,-72.453059,0
-94.477895,-72.461604,0
-94.166982,-72.518855,0
-93.778188,-72.535091,0
-93.389394,-72.551326,0
-93.332936,-72.563899,0
-93.359364,-72.579768,0
-93.388769,-72.602462,0
-93.326812,-72.560235,0
-93.276519,-72.545587,0
-93.219106,-72.541762,0
-93.110933,-72.559770,0
-93.161488,-72.547298,0
-93.165639,-72.546809,0
-93.085866,-72.537166,0
-92.644826,-72.576839,0
-92.432179,-72.634578,0
-92.376271,-72.636409,0
-92.186269,-72.606258,0
-91.785390,-72.602351,0
-91.766042,-72.606380,0
-91.746693,-72.617732,0
-91.715810,-72.620906,0
-91.696034,-72.611995,0
-91.685475,-72.611018,0
-91.666249,-72.632503,0
-91.620473,-72.669368,0
-91.616403,-72.674933,0
-91.620473,-72.669366,0
-91.686513,-72.609959,0
-91.390045,-72.550063,0
-91.044179,-72.543145,0
-90.915191,-72.562188,0
-90.816396,-72.603448,0
-90.779612,-72.636163,0
-90.757965,-72.697442,0
-90.787668,-72.744561,0
-90.901601,-72.819757,0
-90.901615,-72.819770,0
-90.901601,-72.819759,0
-90.787648,-72.744563,0
-90.779225,-72.731258,0
-90.751027,-72.741145,0
-90.747182,-72.743343,0
-90.744862,-72.744197,0
-90.705129,-72.747859,0
-90.514150,-72.689143,0
-90.492665,-72.678157,0
-90.481191,-72.665462,0
-90.472035,-72.652889,0
-90.457692,-72.642635,0
-90.444753,-72.639827,0
-90.397328,-72.640071,0
-90.378774,-72.634944,0
-90.338551,-72.615779,0
-90.317555,-72.610286,0
-90.246083,-72.611507,0
-90.209035,-72.606990,0
-90.182790,-72.590755,0
-90.154286,-72.559505,0
-90.121388,-72.532893,0
-90.113332,-72.528499,0
-90.105153,-72.525569,0
-90.097585,-72.521907,0
-90.091359,-72.514949,0
-90.078969,-72.486629,0
-90.072499,-72.478938,0
-90.038319,-72.463680,0
-90.000000,-72.462058,0
-90.000000,-72.974318,0
-90.005544,-72.976741,0
-90.005545,-72.976741,0
-90.005523,-72.976739,0
-90.000000,-72.974319,0
-90.000000,-73.068487,0
-90.127580,-73.093457,0
-90.000000,-73.068544,0
-90.000000,-89.999722,0
-150.000000,-89.999722,0
-150.000000,-80.527679,0
-149.950492,-80.527583,0
-149.665152,-80.527034,0
-149.622677,-80.537043,0
-149.622670,-80.537042,0
-149.665151,-80.527032,0
-150.000000,-80.527605,0
-150.000000,-77.096520,0
-149.872001,-77.098567,0
-149.809623,-77.106502,0
-149.795434,-77.104440,0
-149.795400,-77.104425,0
-149.872019,-77.098403,0
-150.000000,-77.096394,0
-150.000000,-76.560635,0
-149.931571,-76.554744,0
-149.794669,-76.521175,0
-150.000000,-76.535592,0</coordinates>
          </LinearRing>
        </outerBoundaryIs>
      </Polygon>
    </Placemark>
    <Placemark>
      <name>China</name>
      <description>See: 2050-snapshot/domains/borders-geopolitics.md#antarctica</description>
      <Polygon>
        <extrude>1</extrude>
        <altitudeMode>clampToGround</altitudeMode>
        <outerBoundaryIs>
          <LinearRing>
            <coordinates>-142.480589,-75.433039,0
-142.480580,-75.433038,0
-142.480580,-75.433040,0
-142.480589,-75.433039,0</coordinates>
          </LinearRing>
        </outerBoundaryIs>
      </Polygon>
    </Placemark>
    <Placemark>
      <name>China</name>
      <description>See: 2050-snapshot/domains/borders-geopolitics.md#antarctica</description>
      <Polygon>
        <extrude>1</extrude>
        <altitudeMode>clampToGround</altitudeMode>
        <outerBoundaryIs>
          <LinearRing>
            <coordinates>-103.608878,-75.107233,0
-103.608876,-75.107232,0
-103.608876,-75.107234,0
-103.608878,-75.107233,0</coordinates>
          </LinearRing>
        </outerBoundaryIs>
      </Polygon>
    </Placemark>
    <Placemark>
      <name>China</name>
      <description>See: 2050-snapshot/domains/borders-geopolitics.md#antarctica</description>
      <Polygon>
        <extrude>1</extrude>
        <altitudeMode>clampToGround</altitudeMode>
        <outerBoundaryIs>
          <LinearRing>
            <coordinates>-132.274403,-74.157647,0
-132.295155,-74.147882,0
-132.300526,-74.134942,0
-132.228668,-74.125909,0
-132.184885,-74.129327,0
-132.121897,-74.149591,0
-132.144032,-74.167576,0
-132.174672,-74.173110,0
-132.274403,-74.157647,0</coordinates>
          </LinearRing>
        </outerBoundaryIs>
      </Polygon>
    </Placemark>
    <Placemark>
      <name>China</name>
      <description>See: 2050-snapshot/domains/borders-geopolitics.md#antarctica</description>
      <Polygon>
        <extrude>1</extrude>
        <altitudeMode>clampToGround</altitudeMode>
        <outerBoundaryIs>
          <LinearRing>
            <coordinates>-104.687123,-73.096531,0
-104.553944,-73.145766,0
-104.532704,-73.174493,0
-104.630483,-73.211358,0
-104.746938,-73.218520,0
-104.859486,-73.206720,0
-104.945668,-73.186212,0
-105.037668,-73.140395,0
-105.098866,-73.086684,0
-105.155385,-73.005304,0
-105.061025,-72.954197,0
-105.014150,-72.940525,0
-104.958608,-72.942641,0
-104.687123,-73.096531,0</coordinates>
          </LinearRing>
        </outerBoundaryIs>
      </Polygon>
    </Placemark>
    <Placemark>
      <name>China</name>
      <description>See: 2050-snapshot/domains/borders-geopolitics.md#antarctica</description>
      <Polygon>
        <extrude>1</extrude>
        <altitudeMode>clampToGround</altitudeMode>
        <outerBoundaryIs>
          <LinearRing>
            <coordinates>-90.511708,-68.752618,0
-90.501210,-68.785414,0
-90.512441,-68.809177,0
-90.606923,-68.817478,0
-90.638580,-68.785089,0
-90.623769,-68.768650,0
-90.612294,-68.727960,0
-90.548207,-68.729181,0
-90.511708,-68.752618,0</coordinates>
          </LinearRing>
        </outerBoundaryIs>
      </Polygon>
    </Placemark>
  </Document>
</kml>
