<?xml version='1.0' encoding='UTF-8'?>
<kml xmlns="http://www.opengis.net/kml/2.2">
  <Document>
    <Placemark>
      <name>European Federation</name>
      <description>See: 2050-snapshot/domains/borders-geopolitics.md#antarctica</description>
      <Polygon>
        <extrude>1</extrude>
        <altitudeMode>clampToGround</altitudeMode>
        <outerBoundaryIs>
          <LinearRing>
            <coordinates>-19.868703,-73.054256,0
-19.863271,-73.041316,0
-19.876820,-73.021419,0
-19.885365,-72.999812,0
-19.864919,-72.981624,0
-19.796132,-72.953914,0
-19.719777,-72.932308,0
-19.586415,-72.859920,0
-19.541432,-72.847224,0
-19.389760,-72.842708,0
-19.369618,-72.831599,0
-19.387441,-72.812801,0
-19.437734,-72.782649,0
-19.287709,-72.712093,0
-19.130177,-72.668269,0
-18.724812,-72.626216,0
-18.319447,-72.584163,0
-18.204457,-72.596492,0
-18.165456,-72.595393,0
-18.187795,-72.608455,0
-18.168141,-72.610530,0
-18.128041,-72.606014,0
-18.106923,-72.606868,0
-18.119923,-72.624568,0
-18.105702,-72.627010,0
-18.060292,-72.618587,0
-18.070668,-72.635310,0
-18.046681,-72.640071,0
-18.012380,-72.641780,0
-17.993886,-72.648128,0
-18.017445,-72.666560,0
-18.000600,-72.671077,0
-17.815053,-72.650447,0
-17.744374,-72.630183,0
-17.642384,-72.619808,0
-17.646535,-72.610652,0
-17.652699,-72.603450,0
-17.660878,-72.598201,0
-17.670827,-72.594783,0
-17.658009,-72.582820,0
-17.640126,-72.577083,0
-17.601735,-72.574031,0
-17.654775,-72.557185,0
-17.298573,-72.533585,0
-16.942372,-72.509985,0
-16.586171,-72.486385,0
-16.565480,-72.489436,0
-16.546132,-72.496150,0
-16.541188,-72.501888,0
-16.541310,-72.516902,0
-16.516534,-72.530328,0
-16.516347,-72.519138,0
-16.470693,-72.480645,0
-16.409576,-72.456638,0
-16.338014,-72.460625,0
-16.363515,-72.455257,0
-16.390981,-72.453548,0
-16.409596,-72.456599,0
-16.415822,-72.459041,0
-16.410634,-72.441341,0
-16.399770,-72.432918,0
-16.392384,-72.414607,0
-16.381093,-72.402889,0
-16.367055,-72.396419,0
-16.063985,-72.349605,0
-15.760915,-72.302791,0
-15.696767,-72.284969,0
-15.595509,-72.285213,0
-15.529775,-72.269099,0
-15.416493,-72.206233,0
-15.348622,-72.194148,0
-15.362721,-72.180476,0
-15.379628,-72.169368,0
-15.344899,-72.158870,0
-15.202016,-72.168636,0
-15.098256,-72.132259,0
-15.072133,-72.129085,0
-15.003346,-72.138973,0
-14.954152,-72.138728,0
-14.524403,-72.072688,0
-14.070180,-72.055232,0
-13.967275,-72.027644,0
-13.698171,-71.998531,0
-13.429067,-71.969417,0
-13.329579,-71.974178,0
-13.312428,-71.978206,0
-13.296010,-71.987117,0
-13.273244,-72.005183,0
-13.261769,-72.011897,0
-13.247670,-72.016536,0
-13.216054,-72.037166,0
-12.963368,-72.005794,0
-12.911000,-72.012630,0
-12.937479,-72.033205,0
-12.897328,-72.002130,0
-12.862759,-72.001549,0
-12.858876,-71.985774,0
-12.872487,-71.979060,0
-12.915639,-71.966731,0
-12.881398,-71.945857,0
-12.584523,-71.873714,0
-12.636037,-71.876155,0
-12.899464,-71.923396,0
-12.954945,-71.924739,0
-12.988759,-71.904964,0
-12.933400,-71.876399,0
-12.743825,-71.848689,0
-12.611501,-71.812190,0
-12.507985,-71.766170,0
-12.478078,-71.761531,0
-12.416310,-71.762141,0
-12.151723,-71.728572,0
-12.124135,-71.718929,0
-12.089528,-71.700862,0
-12.059316,-71.679012,0
-12.048818,-71.663387,0
-11.987843,-71.679500,0
-11.875221,-71.692056,0
-11.987904,-71.679457,0
-12.150299,-71.636407,0
-12.175160,-71.623956,0
-12.330922,-71.494806,0
-12.367665,-71.450779,0
-12.380727,-71.395440,0
-12.349233,-71.356378,0
-12.295481,-71.329360,0
-12.208567,-71.302667,0
-12.064320,-71.297052,0
-11.879506,-71.260349,0
-11.806508,-71.259861,0
-11.660146,-71.276462,0
-11.660635,-71.276913,0
-11.660146,-71.276546,0
-11.607289,-71.269222,0
-11.445180,-71.198665,0
-11.433278,-71.190486,0
-11.423390,-71.180599,0
-11.418507,-71.169978,0
-11.421498,-71.158260,0
-11.435964,-71.138728,0
-11.434926,-71.131160,0
-11.412038,-71.117366,0
-11.086171,-71.021175,0
-11.003224,-71.012141,0
-10.984914,-71.016048,0
-10.972035,-71.022395,0
-10.958119,-71.023372,0
-10.920033,-71.002376,0
-10.899953,-70.998103,0
-10.720082,-71.004207,0
-10.843373,-70.981746,0
-10.816335,-70.959407,0
-10.763051,-70.961604,0
-10.662770,-70.983699,0
-10.510915,-70.984187,0
-10.458241,-70.995174,0
-10.448182,-70.993113,0
-10.450063,-70.990981,0
-10.430816,-70.974705,0
-10.394399,-70.961114,0
-10.266835,-70.931410,0
-10.069651,-70.911879,0
-10.002268,-70.919692,0
-9.968502,-70.933858,0
-10.000050,-70.920589,0
-9.810292,-70.870174,0
-9.788991,-70.856624,0
-9.774526,-70.837093,0
-9.751943,-70.790950,0
-9.738210,-70.774349,0
-9.694203,-70.748348,0
-9.288564,-70.642146,0
-9.067677,-70.611263,0
-9.035634,-70.601741,0
-9.029958,-70.595638,0
-9.029958,-70.589168,0
-9.027333,-70.583186,0
-9.014027,-70.579036,0
-8.754018,-70.530818,0
-8.720815,-70.528499,0
-8.657277,-70.543636,0
-8.615102,-70.543880,0
-8.585866,-70.552181,0
-8.570668,-70.553035,0
-8.556508,-70.548396,0
-8.523183,-70.532649,0
-8.395375,-70.513118,0
-8.318837,-70.519222,0
-8.237111,-70.506526,0
-8.197255,-70.505916,0
-8.211598,-70.539119,0
-8.184193,-70.528377,0
-8.158254,-70.528133,0
-8.139577,-70.541438,0
-8.133778,-70.571101,0
-8.137746,-70.583797,0
-8.144887,-70.596736,0
-8.150380,-70.609920,0
-8.149526,-70.623470,0
-8.100148,-70.658016,0
-8.047841,-70.675349,0
-7.753835,-70.685115,0
-7.722401,-70.678155,0
-7.722401,-70.678157,0
-7.454457,-70.619197,0
-7.439809,-70.611629,0
-7.436757,-70.600154,0
-7.447072,-70.567439,0
-7.429067,-70.564754,0
-7.427480,-70.528621,0
-7.388173,-70.506526,0
-7.289052,-70.482845,0
-7.284596,-70.456844,0
-7.243520,-70.440730,0
-7.062734,-70.423885,0
-6.790334,-70.445735,0
-6.753651,-70.456477,0
-6.734731,-70.459529,0
-6.645619,-70.455135,0
-6.648244,-70.448909,0
-6.648427,-70.445735,0
-6.650014,-70.442806,0
-6.656484,-70.437801,0
-6.644521,-70.434261,0
-6.629262,-70.419734,0
-6.618153,-70.414485,0
-6.608998,-70.414241,0
-6.465566,-70.429378,0
-6.444508,-70.435725,0
-6.419596,-70.447848,0
-6.295888,-70.460219,0
-6.086903,-70.406345,0
-6.012318,-70.403578,0
-5.939849,-70.422621,0
-5.978424,-70.465102,0
-5.971680,-70.483172,0
-5.978383,-70.465144,0
-5.941213,-70.424129,0
-5.880910,-70.445857,0
-5.851552,-70.464046,0
-5.824696,-70.485042,0
-5.826650,-70.451106,0
-5.790456,-70.441707,0
-5.741567,-70.437679,0
-5.705861,-70.419368,0
-5.700368,-70.407527,0
-5.700002,-70.400081,0
-5.698537,-70.393245,0
-5.689931,-70.382869,0
-5.678456,-70.373714,0
-5.640370,-70.355647,0
-5.618153,-70.349300,0
-5.593617,-70.347224,0
-5.569936,-70.351253,0
-5.550343,-70.362727,0
-5.588429,-70.377620,0
-5.600209,-70.384700,0
-5.567738,-70.396907,0
-5.115102,-70.378230,0
-5.008901,-70.356746,0
-4.514943,-70.376521,0
-4.020985,-70.396297,0
-3.527028,-70.416072,0
-3.505177,-70.421443,0
-3.463063,-70.440852,0
-3.441640,-70.448665,0
-3.461781,-70.458797,0
-3.492482,-70.481014,0
-3.492516,-70.481079,0
-3.492502,-70.481052,0
-3.392486,-70.423761,0
-3.296498,-70.349705,0
-3.260487,-70.331231,0
-3.144154,-70.300714,0
-2.988596,-70.280532,0
-2.833811,-70.281427,0
-2.793806,-70.292780,0
-2.314443,-70.175594,0
-2.157704,-70.188777,0
-1.901357,-70.167049,0
-1.876943,-70.149715,0
-1.858205,-70.147762,0
-1.841420,-70.140437,0
-1.810902,-70.118465,0
-1.796437,-70.111018,0
-1.543904,-70.081111,0
-1.291371,-70.051204,0
-1.313771,-70.037654,0
-1.355946,-70.033382,0
-1.435964,-70.034602,0
-1.473805,-70.022884,0
-1.477406,-69.997127,0
-1.466969,-69.964778,0
-1.462636,-69.933650,0
-1.547231,-69.940364,0
-1.631947,-69.935481,0
-1.609242,-69.921321,0
-1.586903,-69.910823,0
-1.508901,-69.888728,0
-1.489613,-69.877254,0
-1.452565,-69.841121,0
-1.488271,-69.835506,0
-1.500478,-69.826717,0
-1.505055,-69.808162,0
-1.398183,-69.768123,0
-1.317494,-69.720882,0
-1.286549,-69.712581,0
-1.174855,-69.707454,0
-1.063954,-69.721126,0
-1.098561,-69.709163,0
-1.104970,-69.705257,0
-1.104848,-69.694759,0
-1.099416,-69.682674,0
-1.091298,-69.672054,0
-1.083241,-69.666194,0
-1.063893,-69.661922,0
-1.024037,-69.657771,0
-0.963185,-69.641048,0
-0.576222,-69.651180,0
-0.273122,-69.617549,0
0.029979,-69.583919,0
0.078380,-69.591487,0
0.105968,-69.613216,0
0.115794,-69.647640,0
0.110484,-69.693294,0
0.127696,-69.709895,0
0.146251,-69.752498,0
0.169566,-69.839412,0
0.175792,-69.846858,0
0.193370,-69.854427,0
0.195811,-69.872371,0
0.191539,-69.889949,0
0.190929,-69.907893,0
0.196178,-69.924007,0
0.209483,-69.935481,0
0.209849,-69.901790,0
0.225108,-69.860774,0
0.251720,-69.830379,0
0.285899,-69.828182,0
0.298839,-69.838802,0
0.300548,-69.850398,0
0.294322,-69.861873,0
0.267100,-69.889095,0
0.261485,-69.906551,0
0.259776,-69.926082,0
0.255138,-69.949886,0
0.281016,-69.934505,0
0.324840,-69.900935,0
0.355601,-69.892146,0
0.378062,-69.897151,0
0.395885,-69.913265,0
0.405772,-69.935359,0
0.405040,-69.958553,0
0.398204,-69.970027,0
0.365367,-69.997615,0
0.355846,-70.009212,0
0.350352,-70.026790,0
0.289806,-70.099056,0
0.277110,-70.122005,0
0.453136,-70.021541,0
0.768443,-69.924983,0
0.800304,-69.906917,0
0.817027,-69.906429,0
0.827891,-69.904842,0
0.838756,-69.895442,0
0.841930,-69.902278,0
0.849986,-69.915462,0
0.852916,-69.922298,0
0.862193,-69.897517,0
0.881480,-69.899226,0
0.921275,-69.921932,0
0.945933,-69.923274,0
0.998790,-69.918147,0
1.025157,-69.920100,0
1.139049,-69.946468,0
1.191661,-69.971248,0
1.243262,-70.028325,0
1.299571,-70.023370,0
1.360850,-70.025079,0
1.410981,-70.040216,0
1.418883,-70.048039,0
1.463756,-70.056209,0
1.499034,-70.045100,0
1.644420,-69.976619,0
1.702403,-69.969539,0
1.716930,-69.965511,0
1.749889,-69.948177,0
1.766734,-69.945369,0
1.933604,-69.951717,0
1.977916,-69.958553,0
2.020763,-69.970149,0
2.091075,-69.999202,0
2.103282,-70.010310,0
2.109752,-70.028499,0
2.107310,-70.037532,0
2.101573,-70.047054,0
2.097911,-70.055843,0
2.102061,-70.062679,0
2.111461,-70.062679,0
2.121837,-70.056575,0
2.140636,-70.040950,0
2.182384,-70.026424,0
2.228282,-70.029353,0
2.271251,-70.045467,0
2.304454,-70.070613,0
2.295909,-70.073055,0
2.273204,-70.084529,0
2.356212,-70.137019,0
2.455455,-70.155574,0
2.658702,-70.143611,0
2.758067,-70.125301,0
2.836436,-70.126277,0
2.887584,-70.118953,0
2.932628,-70.117854,0
2.953502,-70.112483,0
2.977061,-70.102229,0
3.000011,-70.095149,0
3.004161,-70.093807,0
3.030528,-70.093562,0
3.051280,-70.107967,0
3.029307,-70.123225,0
3.021495,-70.127376,0
3.046764,-70.127620,0
3.122691,-70.102107,0
3.313487,-70.107112,0
3.336436,-70.100765,0
3.370982,-70.075008,0
3.393077,-70.065608,0
3.413219,-70.063899,0
3.456676,-70.067561,0
3.477916,-70.067073,0
3.577159,-70.053890,0
3.628062,-70.053279,0
3.769054,-70.079891,0
3.760997,-70.085872,0
3.758922,-70.093562,0
3.761851,-70.102474,0
3.768809,-70.112361,0
3.756114,-70.113826,0
3.800792,-70.123836,0
3.865611,-70.118953,0
3.979137,-70.094661,0
3.989635,-70.096004,0
4.031749,-70.113948,0
4.050059,-70.117122,0
4.105846,-70.116512,0
4.120250,-70.122371,0
4.118175,-70.135310,0
4.107677,-70.150447,0
4.097179,-70.162776,0
4.088390,-70.176326,0
4.071666,-70.222835,0
4.063243,-70.234920,0
4.054942,-70.244685,0
4.053477,-70.253963,0
4.065684,-70.264705,0
4.071544,-70.267635,0
4.077159,-70.269466,0
4.082408,-70.270320,0
4.101736,-70.273359,0
4.132660,-70.256036,0
4.297211,-70.237237,0
4.468761,-70.244561,0
4.474255,-70.246203,0
4.497081,-70.239803,0
4.506602,-70.233699,0
4.507335,-70.225032,0
4.496349,-70.213191,0
4.873057,-70.190486,0
5.214854,-70.132625,0
5.234996,-70.115657,0
5.298473,-70.104671,0
5.331798,-70.104305,0
5.351329,-70.116145,0
5.365733,-70.145320,0
5.383311,-70.171443,0
5.405772,-70.194026,0
5.434947,-70.211971,0
5.473643,-70.229427,0
5.488536,-70.234309,0
5.525872,-70.238688,0
5.560069,-70.229262,0
5.654633,-70.225681,0
5.732394,-70.245613,0
5.582286,-70.154598,0
5.532603,-70.118587,0
5.524669,-70.090633,0
5.597789,-70.052669,0
5.609386,-70.044368,0
5.620250,-70.020931,0
5.641978,-70.009456,0
5.969615,-70.005855,0
6.297252,-70.002254,0
6.492076,-70.042659,0
6.842662,-70.020442,0
7.193248,-69.998225,0
7.231456,-70.006038,0
7.235850,-70.034358,0
7.249522,-70.037166,0
7.259288,-70.044856,0
7.268443,-70.054744,0
7.279796,-70.063899,0
7.266490,-70.063289,0
7.350108,-70.131892,0
7.356456,-70.135921,0
7.386241,-70.137752,0
7.398204,-70.140437,0
7.412730,-70.153377,0
7.411632,-70.165462,0
7.391734,-70.193172,0
7.399547,-70.196712,0
7.408214,-70.199153,0
7.428117,-70.203158,0
7.479015,-70.189874,0
7.835297,-70.163670,0
7.891707,-70.176984,0
7.839976,-70.164729,0
7.908092,-70.151302,0
7.925548,-70.143001,0
7.944713,-70.129695,0
7.961925,-70.114192,0
7.973399,-70.099422,0
7.986095,-70.063533,0
7.995982,-70.049617,0
8.016734,-70.040340,0
8.002086,-70.028621,0
8.012096,-70.021419,0
8.022838,-70.015682,0
8.046031,-70.007259,0
8.031016,-69.995540,0
8.014293,-69.986263,0
8.032848,-69.981746,0
8.090343,-69.979183,0
8.078990,-69.976375,0
8.068126,-69.971980,0
8.058116,-69.965999,0
8.049205,-69.958553,0
8.093028,-69.949519,0
8.115489,-69.947810,0
8.137462,-69.949886,0
8.124034,-69.945613,0
8.110118,-69.942928,0
8.096080,-69.941951,0
8.081798,-69.942439,0
8.101085,-69.929500,0
8.111583,-69.924983,0
8.122813,-69.922420,0
8.125987,-69.896785,0
8.153087,-69.880550,0
8.188853,-69.873592,0
8.218150,-69.875911,0
8.242442,-69.889095,0
8.310191,-69.953670,0
8.354991,-69.985530,0
8.404552,-70.002254,0
8.512340,-70.024837,0
8.490977,-70.007259,0
8.433360,-69.990047,0
8.407848,-69.978084,0
8.407970,-69.963680,0
8.420055,-69.903377,0
8.428111,-69.885555,0
8.479259,-69.866145,0
8.536143,-69.876399,0
8.647838,-69.917293,0
8.729991,-69.927791,0
8.755748,-69.934139,0
8.823619,-69.960262,0
8.934215,-69.982112,0
8.988170,-69.981380,0
9.017711,-69.985652,0
9.045909,-69.995174,0
9.070811,-70.009944,0
9.055431,-70.014705,0
9.039683,-70.017391,0
9.007823,-70.016780,0
9.025035,-70.031917,0
9.043346,-70.041072,0
9.063487,-70.046443,0
9.086070,-70.049739,0
8.984019,-70.072322,0
8.996104,-70.083797,0
9.011974,-70.089778,0
9.030040,-70.091487,0
9.086681,-70.087581,0
9.081225,-70.089108,0
9.128754,-70.075942,0
9.182628,-70.070896,0
9.294281,-70.078790,0
9.415204,-70.109102,0
9.403575,-70.104427,0
9.337291,-70.088924,0
9.383189,-70.086360,0
9.645518,-70.021053,0
9.703502,-70.012996,0
9.871104,-70.027766,0
9.849498,-70.018245,0
9.841685,-70.015804,0
9.880626,-70.001033,0
9.867442,-69.988582,0
9.862682,-69.985042,0
9.889537,-69.984554,0
9.899791,-69.981502,0
9.905162,-69.971248,0
10.144542,-69.918514,0
10.226695,-69.911189,0
10.311290,-69.913142,0
10.337169,-69.916805,0
10.347057,-69.930476,0
10.380138,-69.928401,0
10.459361,-69.942806,0
10.451305,-69.954280,0
10.441051,-69.962459,0
10.428966,-69.967952,0
10.415172,-69.971736,0
10.434825,-69.970393,0
10.459483,-69.965511,0
10.480846,-69.963680,0
10.490001,-69.971980,0
10.497081,-69.985774,0
10.513194,-69.993709,0
10.574351,-70.008968,0
10.573879,-70.009003,0
10.634613,-70.004571,0
10.894216,-70.017836,0
10.988048,-70.045994,0
11.000824,-70.076430,0
10.921886,-70.082940,0
10.812022,-70.075860,0
10.576182,-70.031508,0
10.539873,-70.011526,0
10.539806,-70.011531,0
10.576182,-70.031551,0
10.812022,-70.075862,0
10.921886,-70.082942,0
11.000987,-70.076473,0
10.988048,-70.045955,0
10.978526,-70.043025,0
10.992320,-70.033626,0
10.999400,-70.024959,0
11.008678,-70.017268,0
11.025157,-70.011775,0
11.013316,-70.009334,0
11.003673,-70.003352,0
10.996471,-69.994563,0
10.992198,-69.983211,0
11.192027,-69.956599,0
11.304332,-69.955135,0
11.343272,-69.992488,0
11.376475,-69.986018,0
11.412852,-69.990169,0
11.549815,-70.033138,0
11.734630,-70.055354,0
11.766002,-70.049495,0
11.804332,-70.035579,0
11.815929,-70.025447,0
11.826549,-70.004207,0
11.837901,-69.995418,0
11.855724,-69.998225,0
11.889049,-70.013484,0
11.861827,-69.982356,0
11.855479,-69.964778,0
11.866832,-69.950008,0
11.885509,-69.950008,0
11.960948,-69.978572,0
11.948009,-69.971248,0
11.936168,-69.959651,0
11.931285,-69.945979,0
11.938975,-69.932185,0
11.953258,-69.929622,0
11.970592,-69.936458,0
11.999156,-69.954036,0
12.257945,-70.063655,0
12.328258,-70.081599,0
12.401622,-70.083186,0
12.430305,-70.082214,0
12.444591,-70.070245,0
12.497813,-70.055271,0
12.559337,-70.053806,0
12.735118,-70.071466,0
12.969249,-70.046157,0
12.999516,-70.048751,0
12.997569,-70.045345,0
12.980479,-70.036800,0
12.941051,-70.022395,0
12.930064,-70.009944,0
12.926036,-69.991023,0
12.928233,-69.976497,0
12.938243,-69.965144,0
12.957164,-69.955623,0
12.940929,-69.956355,0
12.896983,-69.970638,0
12.879161,-69.970638,0
12.862315,-69.962825,0
12.854137,-69.949641,0
12.862193,-69.933406,0
12.893199,-69.895808,0
12.909312,-69.883846,0
13.039195,-69.816585,0
13.260875,-69.765315,0
13.270274,-69.761409,0
13.273204,-69.754939,0
13.268687,-69.744930,0
13.255260,-69.732845,0
13.250743,-69.725642,0
13.269298,-69.672786,0
13.349132,-69.679378,0
13.504039,-69.730769,0
13.561656,-69.739436,0
13.581187,-69.737605,0
13.599742,-69.731258,0
13.634288,-69.713313,0
13.653331,-69.706477,0
13.689098,-69.698665,0
13.706798,-69.691585,0
13.716441,-69.681331,0
13.726207,-69.664607,0
13.741954,-69.657893,0
13.761485,-69.658504,0
13.782481,-69.662898,0
13.715831,-69.648006,0
13.731090,-69.642268,0
13.738170,-69.640926,0
13.746959,-69.640682,0
13.714610,-69.627376,0
13.744273,-69.618831,0
13.852794,-69.636287,0
13.740123,-69.588558,0
13.734874,-69.580867,0
13.760020,-69.578792,0
13.817638,-69.581844,0
13.809947,-69.570979,0
13.834483,-69.565974,0
13.878062,-69.549617,0
14.207286,-69.495296,0
14.534373,-69.480891,0
14.861461,-69.466487,0
15.162974,-69.496211,0
15.464488,-69.525935,0
15.454478,-69.529109,0
15.444224,-69.531184,0
15.423350,-69.532161,0
15.481578,-69.543880,0
15.497325,-69.550594,0
15.510509,-69.563045,0
15.504527,-69.569759,0
15.487071,-69.572566,0
15.448131,-69.573909,0
15.442515,-69.575740,0
15.442638,-69.576473,0
15.442515,-69.579036,0
15.454356,-69.588313,0
15.444835,-69.595760,0
15.426524,-69.600642,0
15.411143,-69.602351,0
15.346934,-69.595149,0
15.519176,-69.637874,0
15.573741,-69.658992,0
15.566051,-69.667415,0
15.556773,-69.674007,0
15.546519,-69.679012,0
15.535655,-69.682674,0
15.509532,-69.686824,0
15.501231,-69.689021,0
15.496471,-69.691219,0
15.495860,-69.693294,0
15.566173,-69.711849,0
15.558238,-69.720638,0
15.548350,-69.726619,0
15.536876,-69.729915,0
15.524547,-69.730891,0
15.547252,-69.738582,0
15.570811,-69.742732,0
15.559459,-69.756038,0
15.543101,-69.762630,0
15.506114,-69.766292,0
15.520274,-69.768977,0
15.560680,-69.784114,0
15.551280,-69.799739,0
15.538219,-69.806575,0
15.522227,-69.807674,0
15.504405,-69.805843,0
15.530406,-69.819148,0
15.554088,-69.825496,0
15.576549,-69.825984,0
15.609019,-69.820491,0
15.586914,-69.836231,0
15.630707,-69.805108,0
15.721853,-69.763930,0
15.972179,-69.717950,0
16.246837,-69.705987,0
16.552094,-69.718032,0
16.585726,-69.727838,0
16.967418,-69.699275,0
17.335826,-69.740047,0
17.365733,-69.733455,0
17.427501,-69.711360,0
17.463512,-69.706355,0
17.555186,-69.715144,0
17.659434,-69.705013,0
17.701793,-69.693660,0
17.711681,-69.672054,0
17.723399,-69.666438,0
17.726085,-69.662532,0
17.730724,-69.652278,0
17.746104,-69.668269,0
17.754161,-69.687679,0
17.764415,-69.706477,0
17.786754,-69.720516,0
18.090770,-69.780025,0
18.394786,-69.839534,0
18.511485,-69.881404,0
18.821544,-69.929988,0
18.978770,-69.983943,0
19.030284,-69.992244,0
19.136485,-69.986385,0
19.165782,-69.980037,0
19.182140,-69.967586,0
19.198863,-69.949641,0
19.225719,-69.942317,0
19.350474,-69.929744,0
19.833385,-69.960750,0
19.804454,-69.933528,0
19.923473,-69.954402,0
19.801768,-69.907649,0
19.707652,-69.895198,0
19.684215,-69.884212,0
19.697276,-69.880306,0
19.567271,-69.830989,0
19.584483,-69.821346,0
19.605235,-69.817561,0
19.626842,-69.818050,0
19.646495,-69.821224,0
19.640025,-69.812557,0
19.632213,-69.805354,0
19.623302,-69.799739,0
19.613170,-69.795711,0
19.625255,-69.782405,0
19.643077,-69.776424,0
19.662852,-69.776546,0
19.705455,-69.789363,0
19.723888,-69.789974,0
19.728282,-69.781184,0
19.711070,-69.761043,0
19.811046,-69.736385,0
19.911754,-69.723567,0
20.287608,-69.763240,0
20.663463,-69.802913,0
20.678966,-69.802791,0
20.717906,-69.795955,0
21.190074,-69.816219,0
21.283824,-69.831477,0
21.291392,-69.837337,0
21.306041,-69.859309,0
21.318370,-69.868099,0
21.333018,-69.871883,0
21.380870,-69.874202,0
21.341197,-69.897395,0
21.353770,-69.904842,0
21.367076,-69.908382,0
21.395763,-69.911678,0
21.408824,-69.916927,0
21.430186,-69.935237,0
21.443492,-69.941219,0
21.302257,-69.977351,0
21.271373,-70.005061,0
21.521495,-70.084590,0
21.771617,-70.164119,0
22.035228,-70.210811,0
22.298839,-70.257503,0
22.666515,-70.207698,0
22.689830,-70.198787,0
22.713390,-70.185725,0
22.723277,-70.168880,0
22.729869,-70.140559,0
22.731334,-70.112483,0
22.726939,-70.096004,0
22.758556,-70.090022,0
22.823619,-70.089778,0
22.954356,-70.104183,0
22.982677,-70.095638,0
22.974132,-70.085872,0
22.996104,-70.078670,0
23.017100,-70.076961,0
23.060802,-70.078182,0
23.048595,-70.088558,0
23.087291,-70.098323,0
23.160045,-70.135799,0
23.630748,-70.187434,0
23.652232,-70.192195,0
23.688731,-70.211604,0
23.709972,-70.216609,0
23.703990,-70.217586,0
23.686656,-70.223689,0
23.707286,-70.254207,0
23.730113,-70.280330,0
23.757823,-70.299495,0
23.793346,-70.309871,0
23.873912,-70.311946,0
23.917125,-70.304866,0
23.939708,-70.287410,0
23.928477,-70.281795,0
23.966930,-70.277522,0
24.089854,-70.306453,0
24.107188,-70.305110,0
24.143077,-70.296199,0
24.161632,-70.296199,0
24.219493,-70.310115,0
24.240489,-70.311824,0
24.230479,-70.296565,0
24.252208,-70.285823,0
24.285655,-70.279353,0
24.311412,-70.277766,0
24.338145,-70.282161,0
24.437877,-70.314632,0
24.492442,-70.325496,0
24.542003,-70.324519,0
24.598888,-70.341365,0
24.625987,-70.346248,0
24.626109,-70.330745,0
24.632457,-70.320003,0
24.643687,-70.314998,0
24.658702,-70.316463,0
24.645640,-70.312312,0
24.654307,-70.307552,0
24.663707,-70.304378,0
24.673717,-70.302791,0
24.683849,-70.302791,0
24.675670,-70.294246,0
24.689952,-70.291438,0
24.733775,-70.291316,0
24.722911,-70.280696,0
24.738170,-70.275935,0
24.650157,-70.237849,0
24.664317,-70.229549,0
24.653575,-70.214656,0
24.660655,-70.205135,0
24.694469,-70.192806,0
24.712535,-70.190974,0
24.885875,-70.241023,0
24.927501,-70.243831,0
24.897105,-70.236018,0
24.866954,-70.221248,0
24.813121,-70.184139,0
24.827403,-70.173274,0
24.815196,-70.163753,0
24.807017,-70.148494,0
24.807750,-70.133968,0
24.822032,-70.126766,0
25.066905,-70.104671,0
24.926646,-70.114436,0
24.852672,-70.109432,0
24.803355,-70.080989,0
24.843639,-70.067806,0
25.104747,-70.047786,0
25.145152,-70.037776,0
25.136851,-70.035213,0
25.112559,-70.024471,0
25.151988,-70.008968,0
25.204723,-70.004085,0
25.446178,-70.016292,0
25.474498,-70.035335,0
25.462657,-70.037166,0
25.556163,-70.042293,0
25.746837,-70.027278,0
25.836558,-70.047664,0
25.834117,-70.060848,0
25.839122,-70.074153,0
25.859630,-70.099788,0
25.785533,-70.140804,0
25.512828,-70.192561,0
25.544566,-70.233089,0
25.565562,-70.197933,0
25.612437,-70.185481,0
25.874278,-70.179378,0
25.921153,-70.191463,0
25.908702,-70.211726,0
25.893077,-70.244563,0
25.888438,-70.273494,0
25.908458,-70.281551,0
25.915294,-70.282405,0
25.912510,-70.284744,0
25.939626,-70.262953,0
25.937673,-70.247817,0
25.948904,-70.222589,0
25.987315,-70.195001,0
26.115082,-70.153090,0
26.221934,-70.094415,0
26.327403,-70.066583,0
26.458263,-70.059991,0
26.589692,-70.074802,0
26.650157,-70.092706,0
26.705960,-70.129583,0
26.691539,-70.114314,0
26.673106,-70.102718,0
26.666637,-70.099788,0
26.694347,-70.095271,0
26.680308,-70.080623,0
26.646739,-70.067928,0
26.632579,-70.053279,0
26.644054,-70.051570,0
26.655406,-70.048396,0
26.666148,-70.043880,0
26.676280,-70.038265,0
26.662486,-70.025447,0
26.640269,-70.018489,0
26.594371,-70.012264,0
26.599620,-70.003719,0
26.606212,-69.996639,0
26.614268,-69.991145,0
26.623668,-69.987361,0
26.597301,-69.991145,0
26.546886,-70.004573,0
26.520030,-70.006282,0
26.527476,-69.983089,0
26.552745,-69.969173,0
26.584605,-69.961971,0
26.611827,-69.959285,0
26.558971,-69.959407,0
26.454600,-69.977840,0
26.403575,-69.961238,0
26.443858,-69.938289,0
26.494640,-69.929744,0
26.792247,-69.943294,0
27.024303,-70.010677,0
27.070079,-70.014339,0
27.116344,-70.008724,0
27.369640,-69.940852,0
27.419200,-69.942928,0
27.509898,-69.970638,0
27.750133,-69.971126,0
28.094737,-69.926204,0
28.137706,-69.914607,0
28.125743,-69.903011,0
28.112804,-69.894099,0
28.097545,-69.887386,0
28.077891,-69.882991,0
28.006358,-69.877254,0
27.989268,-69.870784,0
27.973399,-69.852107,0
27.979625,-69.842342,0
28.034557,-69.823177,0
28.051768,-69.823787,0
28.087413,-69.837093,0
28.095958,-69.838069,0
28.110728,-69.831844,0
28.121715,-69.830745,0
28.132091,-69.832454,0
28.152354,-69.838558,0
28.162242,-69.840266,0
28.347057,-69.817195,0
28.430919,-69.786556,0
28.416759,-69.766780,0
28.409923,-69.761409,0
28.390147,-69.751033,0
28.442393,-69.753963,0
28.410777,-69.740779,0
28.426280,-69.736751,0
28.381114,-69.731136,0
28.498180,-69.685237,0
28.560557,-69.675960,0
28.616588,-69.695613,0
28.629405,-69.703548,0
28.664806,-69.715755,0
28.668224,-69.721858,0
28.666759,-69.729427,0
28.666759,-69.735652,0
28.683849,-69.739436,0
28.694713,-69.748103,0
28.701549,-69.750911,0
28.729869,-69.747981,0
28.783092,-69.723201,0
28.814708,-69.717830,0
28.828258,-69.720516,0
28.851817,-69.732356,0
28.864268,-69.736385,0
28.938975,-69.745052,0
29.078258,-69.734676,0
29.137218,-69.723933,0
29.221568,-69.698299,0
29.290294,-69.690974,0
29.315929,-69.677303,0
29.242076,-69.640437,0
29.303722,-69.647762,0
29.334849,-69.648006,0
29.356090,-69.634822,0
29.346446,-69.622859,0
29.315562,-69.611141,0
29.285411,-69.594173,0
29.278087,-69.566951,0
29.295787,-69.569881,0
29.306163,-69.553890,0
29.316051,-69.532527,0
29.332774,-69.519099,0
29.314830,-69.512386,0
29.346202,-69.502376,0
29.313975,-69.496028,0
29.333018,-69.489558,0
29.290538,-69.481380,0
29.306285,-69.475520,0
29.313365,-69.474056,0
29.322398,-69.473811,0
29.301768,-69.468562,0
29.289806,-69.456599,0
29.279552,-69.442561,0
29.243297,-69.419124,0
29.247203,-69.406062,0
29.265391,-69.395686,0
29.287974,-69.390315,0
29.308726,-69.390926,0
29.350108,-69.398250,0
29.370250,-69.399104,0
29.391856,-69.395442,0
29.631969,-69.301936,0
29.654307,-69.297908,0
29.717540,-69.298885,0
29.741710,-69.294368,0
29.877940,-69.250423,0
29.916026,-69.231990,0
29.974986,-69.211971,0
29.993175,-69.209285,0
30.056651,-69.221126,0
30.129649,-69.247493,0
30.156871,-69.252010,0
30.226451,-69.244930,0
30.385509,-69.263850,0
30.449107,-69.263484,0
30.477672,-69.270198,0
30.490001,-69.270442,0
30.524669,-69.260799,0
30.537242,-69.259456,0
30.531139,-69.245784,0
30.519054,-69.236629,0
30.503551,-69.231380,0
30.503917,-69.226131,0
30.491710,-69.214412,0
30.519298,-69.202449,0
30.527843,-69.173885,0
30.531871,-69.143123,0
30.546641,-69.124690,0
30.592418,-69.106502,0
30.612193,-69.103694,0
30.653941,-69.105281,0
30.694957,-69.113460,0
30.686778,-69.110774,0
30.662608,-69.098201,0
30.696300,-69.067561,0
30.748302,-69.053523,0
30.900767,-69.044368,0
30.973643,-69.054988,0
30.983775,-69.060359,0
30.990245,-69.070613,0
30.998302,-69.076473,0
31.014171,-69.078426,0
31.046275,-69.078059,0
31.458629,-69.137752,0
31.481944,-69.135433,0
31.499644,-69.128719,0
31.537974,-69.106258,0
31.564098,-69.096004,0
31.588756,-69.092708,0
32.056407,-69.142635,0
32.464488,-69.120906,0
32.497691,-69.110164,0
32.510681,-69.092289,0
32.504405,-69.084649,0
32.487641,-69.081638,0
32.530610,-69.048517,0
32.502940,-68.961602,0
32.498871,-68.930922,0
32.505707,-68.903090,0
32.562266,-68.856378,0
32.610606,-68.843683,0
32.838064,-68.752130,0
33.215994,-68.669610,0
34.214203,-68.677911,0
34.300629,-68.688165,0
34.363048,-68.725518,0
34.384892,-68.794055,0
34.396007,-68.799129,0
34.414806,-68.799983,0
34.485484,-68.785335,0
34.521251,-68.787532,0
34.688975,-68.818782,0
34.695079,-68.822810,0
34.698131,-68.837703,0
34.703746,-68.843929,0
34.763438,-68.877010,0
34.784068,-68.880916,0
34.823009,-68.878597,0
34.843394,-68.881404,0
34.834972,-68.888484,0
34.826182,-68.894222,0
34.806041,-68.903011,0
34.836436,-68.910945,0
34.844493,-68.915096,0
34.847057,-68.923763,0
34.843761,-68.933894,0
34.844493,-68.943294,0
34.858409,-68.949641,0
34.855968,-68.977107,0
34.884044,-69.004207,0
34.904063,-69.028865,0
34.877940,-69.049251,0
34.901378,-69.064021,0
34.929576,-69.071712,0
35.010875,-69.074397,0
35.023082,-69.072566,0
35.033702,-69.068660,0
35.045787,-69.057185,0
35.050792,-69.045833,0
35.058482,-69.037288,0
35.078502,-69.034358,0
35.132945,-69.042415,0
35.238414,-69.074886,0
35.452647,-69.096370,0
35.491222,-69.115535,0
35.509166,-69.130428,0
35.549937,-69.154842,0
35.591319,-69.185970,0
35.614146,-69.197200,0
35.639293,-69.203182,0
35.668468,-69.204646,0
35.644298,-69.191463,0
35.650890,-69.176570,0
35.673595,-69.163631,0
35.697520,-69.156062,0
35.710094,-69.154964,0
35.736949,-69.157893,0
35.749278,-69.160701,0
35.762828,-69.161678,0
35.773692,-69.158138,0
35.784312,-69.153011,0
35.797008,-69.149104,0
35.844737,-69.149349,0
36.179942,-69.249690,0
36.515147,-69.301570,0
36.655284,-69.359798,0
36.703380,-69.389949,0
36.710826,-69.417781,0
36.666881,-69.436946,0
36.605601,-69.435725,0
36.223765,-69.356258,0
36.193858,-69.354427,0
36.164195,-69.359676,0
36.223033,-69.361507,0
36.392345,-69.412776,0
36.376475,-69.418147,0
36.424449,-69.454280,0
36.439342,-69.458553,0
36.471446,-69.464168,0
36.485118,-69.471858,0
36.494395,-69.483943,0
36.499766,-69.499080,0
36.501598,-69.515071,0
36.500011,-69.530086,0
36.506236,-69.538631,0
36.523448,-69.547298,0
36.621104,-69.578304,0
36.655162,-69.584041,0
36.723277,-69.583675,0
36.819835,-69.602962,0
36.813121,-69.611018,0
36.804698,-69.616023,0
36.809459,-69.619563,0
36.861827,-69.612361,0
36.885997,-69.617000,0
36.909679,-69.624934,0
36.982432,-69.635799,0
37.003917,-69.642268,0
37.024791,-69.651424,0
37.044078,-69.663387,0
37.060802,-69.678890,0
37.072032,-69.676448,0
37.095714,-69.625789,0
37.107677,-69.606746,0
37.353953,-69.476436,0
37.600230,-69.346126,0
37.641246,-69.329891,0
37.953136,-69.277522,0
38.009654,-69.275081,0
38.043468,-69.277644,0
38.062633,-69.285457,0
38.046519,-69.304012,0
38.046519,-69.304010,0
37.994517,-69.322322,0
37.894664,-69.341731,0
37.900279,-69.351497,0
37.845103,-69.363704,0
37.827769,-69.371272,0
37.842540,-69.374324,0
37.822520,-69.380550,0
37.691539,-69.442317,0
37.582530,-69.472224,0
37.555553,-69.491756,0
37.567760,-69.495540,0
37.554454,-69.507015,0
37.517589,-69.523494,0
37.452891,-69.563411,0
37.380015,-69.595516,0
37.367931,-69.606868,0
37.354503,-69.624934,0
37.334361,-69.642268,0
37.311412,-69.655818,0
37.290050,-69.662532,0
37.297862,-69.671687,0
37.286388,-69.676326,0
37.281627,-69.682918,0
37.278087,-69.691463,0
37.271251,-69.701839,0
37.266246,-69.712093,0
37.273448,-69.716487,0
37.286021,-69.729060,0
37.281946,-69.728563,0
37.491466,-69.754571,0
37.596446,-69.730076,0
37.527517,-69.704685,0
37.508311,-69.690199,0
37.786306,-69.681899,0
37.769786,-69.701837,0
37.799490,-69.715102,0
37.780447,-69.727634,0
37.757579,-69.729099,0
37.785655,-69.757094,0
37.841563,-69.759047,0
38.038422,-69.717462,0
38.240733,-69.766534,0
38.244038,-69.771787,0
38.258800,-69.775569,0
38.264903,-69.776058,0
38.271495,-69.775691,0
38.259532,-69.791683,0
38.227306,-69.822688,0
38.221934,-69.833186,0
38.234752,-69.846858,0
38.316417,-69.882259,0
38.338023,-69.886775,0
38.347789,-69.890071,0
38.358165,-69.896785,0
38.375743,-69.911067,0
38.387950,-69.914607,0
38.406749,-69.912044,0
38.421764,-69.901546,0
38.451060,-69.869441,0
38.526500,-69.827205,0
38.618785,-69.818294,0
38.714000,-69.832454,0
38.798717,-69.859065,0
38.791148,-69.868343,0
38.807262,-69.875179,0
38.758678,-69.916683,0
38.738902,-69.941951,0
38.730235,-69.972469,0
38.736339,-70.000789,0
38.753917,-70.025569,0
38.779307,-70.044490,0
38.815074,-70.055232,0
38.815196,-70.055354,0
38.921031,-70.108577,0
39.065929,-70.146175,0
39.065929,-70.146173,0
39.071046,-70.150759,0
39.065929,-70.146091,0
38.921072,-70.108575,0
38.815196,-70.055352,0
38.797048,-70.028741,0
38.803559,-69.987726,0
39.079600,-69.905857,0
39.158865,-69.903741,0
39.192638,-69.892511,0
39.194509,-69.860772,0
39.221202,-69.860935,0
39.245860,-69.850518,0
39.178396,-69.847426,0
39.136078,-69.829522,0
39.129405,-69.811130,0
39.136892,-69.763767,0
39.161469,-69.726658,0
39.208832,-69.706638,0
39.495128,-69.686293,0
39.535981,-69.668390,0
39.588715,-69.598810,0
39.638438,-69.608575,0
39.625255,-69.636163,0
39.644216,-69.650974,0
39.677419,-69.656915,0
39.707205,-69.658298,0
39.642833,-69.626072,0
39.668793,-69.603448,0
39.703380,-69.600030,0
39.778656,-69.611423,0
39.757335,-69.586196,0
39.713064,-69.586847,0
39.686046,-69.541111,0
39.796235,-69.526462,0
39.740001,-69.490492,0
39.783214,-69.486017,0
39.817638,-69.422133,0
39.847911,-69.384698,0
39.831554,-69.359552,0
39.701671,-69.306817,0
39.712738,-69.290704,0
39.814789,-69.279962,0
39.803396,-69.247735,0
39.736176,-69.195977,0
39.811290,-69.180922,0
39.735362,-69.108005,0
39.707367,-69.067966,0
39.708995,-69.021173,0
39.737804,-68.976251,0
39.803477,-68.925551,0
39.857921,-68.829522,0
40.262869,-68.802179,0
40.372732,-68.775323,0
40.470551,-68.726170,0
40.523936,-68.719171,0
40.701834,-68.726821,0
40.702424,-68.727100,0
40.761363,-68.706966,0
40.761363,-68.706964,0
40.783214,-68.706355,0
40.842983,-68.720111,0
40.888845,-68.709405,0
40.991954,-68.651462,0
41.038259,-68.634210,0
41.038910,-68.621352,0
41.014822,-68.596449,0
41.068614,-68.587498,0
41.107921,-68.566095,0
41.206879,-68.560154,0
41.356293,-68.515883,0
41.451996,-68.506606,0
41.503673,-68.493097,0
41.543956,-68.472101,0
41.980724,-68.406345,0
42.109141,-68.410903,0
42.194102,-68.387628,0
42.254171,-68.381359,0
42.257091,-68.368099,0
42.277721,-68.365657,0
42.296764,-68.361263,0
42.314220,-68.353328,0
42.330943,-68.340266,0
42.318004,-68.325252,0
42.365123,-68.318782,0
42.412608,-68.318172,0
42.427501,-68.316341,0
42.431529,-68.310481,0
42.433360,-68.301570,0
42.441295,-68.290218,0
42.472301,-68.265926,0
42.481456,-68.250057,0
42.490001,-68.248103,0
42.509654,-68.251277,0
42.525279,-68.251155,0
42.532725,-68.244319,0
42.536143,-68.235530,0
42.539806,-68.229060,0
42.551280,-68.222102,0
42.565318,-68.219173,0
42.560313,-68.223689,0
42.547008,-68.245784,0
42.542755,-68.264860,0
42.560313,-68.223728,0
42.659434,-68.165785,0
42.847911,-68.136895,0
42.828624,-68.096449,0
42.859386,-68.103774,0
42.995860,-68.091485,0
43.107432,-68.064142,0
43.405528,-68.034601,0
43.507660,-68.059340,0
43.776052,-68.046482,0
43.810720,-68.038995,0
43.855968,-68.010431,0
43.939952,-67.998630,0
44.002208,-67.968520,0
44.155040,-67.978448,0
44.496430,-67.959405,0
44.523204,-67.962986,0
44.531355,-67.967228,0
44.554942,-67.969417,0
44.564708,-67.970027,0
44.633556,-67.960384,0
44.658824,-67.963191,0
44.620616,-67.945369,0
44.499156,-67.908504,0
44.512096,-67.894588,0
44.495006,-67.887386,0
44.489268,-67.885799,0
44.528453,-67.880916,0
44.564708,-67.869319,0
44.643829,-67.830673,0
44.660492,-67.811456,0
44.717133,-67.783624,0
44.973155,-67.731134,0
45.000000,-67.731430,0
45.000000,-89.999722,0
-20.000000,-89.999722,0
-20.000000,-75.521033,0
-19.767649,-75.549493,0
-19.767648,-75.549493,0
-20.000000,-75.521029,0
-20.000000,-73.097703,0
-19.868703,-73.054256,0</coordinates>
          </LinearRing>
        </outerBoundaryIs>
      </Polygon>
    </Placemark>
    <Placemark>
      <name>European Federation</name>
      <description>See: 2050-snapshot/domains/borders-geopolitics.md#antarctica</description>
      <Polygon>
        <extrude>1</extrude>
        <altitudeMode>clampToGround</altitudeMode>
        <outerBoundaryIs>
          <LinearRing>
            <coordinates>136.027920,-66.251468,0
136.083751,-66.237563,0
136.128429,-66.235528,0
136.159516,-66.245375,0
136.284353,-66.316583,0
136.352061,-66.368097,0
136.388520,-66.379653,0
136.511241,-66.395440,0
136.544688,-66.409845,0
136.548513,-66.413033,0
136.582286,-66.415584,0
136.598155,-66.414607,0
136.611461,-66.410823,0
136.663707,-66.392391,0
136.656328,-66.400011,0
136.689626,-66.366388,0
136.736013,-66.348728,0
136.944591,-66.328220,0
137.414887,-66.350274,0
137.457856,-66.344822,0
137.501475,-66.365411,0
137.669119,-66.377699,0
137.720551,-66.368097,0
137.767589,-66.403090,0
137.846365,-66.415623,0
137.911388,-66.442315,0
137.933930,-66.461033,0
138.018728,-66.488539,0
138.141612,-66.498712,0
138.162934,-66.525323,0
138.163058,-66.525399,0
138.162974,-66.525325,0
138.148814,-66.503963,0
138.143809,-66.500301,0
138.248668,-66.493221,0
138.253795,-66.520564,0
138.253795,-66.520562,0
138.284679,-66.525325,0
138.353770,-66.515804,0
138.347667,-66.537776,0
138.335947,-66.539549,0
138.378103,-66.533461,0
138.607107,-66.541681,0
138.641368,-66.522882,0
138.669607,-66.551853,0
138.732107,-66.569594,0
138.926443,-66.556248,0
139.029552,-66.575860,0
139.091156,-66.566583,0
139.251720,-66.567153,0
139.454926,-66.594008,0
139.441742,-66.623305,0
139.452485,-66.641860,0
139.452505,-66.641867,0
139.441783,-66.623348,0
139.454845,-66.594417,0
139.562755,-66.592464,0
139.597057,-66.598079,0
139.590343,-66.607478,0
139.588390,-66.614557,0
139.590099,-66.619685,0
139.598399,-66.626033,0
139.590343,-66.625545,0
139.573497,-66.627742,0
139.536817,-66.641474,0
139.590343,-66.625584,0
139.677582,-66.630466,0
139.777029,-66.670180,0
139.867035,-66.691827,0
139.890964,-66.720541,0
139.867076,-66.691829,0
139.859508,-66.689021,0
139.911021,-66.696224,0
139.926524,-66.698543,0
139.945689,-66.696468,0
140.004527,-66.675472,0
140.045055,-66.668880,0
140.082652,-66.673152,0
140.082652,-66.673150,0
140.159923,-66.696712,0
140.102306,-66.713558,0
140.108165,-66.719661,0
140.119510,-66.729177,0
140.284516,-66.729099,0
140.335704,-66.747166,0
140.384776,-66.787042,0
140.410818,-66.767511,0
140.414724,-66.737237,0
140.517426,-66.725030,0
140.695486,-66.749200,0
140.901622,-66.753025,0
141.003673,-66.767348,0
141.058787,-66.786059,0
141.076305,-66.781795,0
141.082774,-66.779598,0
141.130992,-66.770442,0
141.181285,-66.777034,0
141.230113,-66.795223,0
141.230113,-66.795221,0
141.277110,-66.823299,0
141.303808,-66.832808,0
141.305675,-66.827407,0
141.362071,-66.839451,0
141.578136,-66.779962,0
141.981700,-66.799981,0
142.000000,-66.804499,0
142.000000,-89.999722,0
136.000000,-89.999722,0
136.000000,-66.242599,0
136.027920,-66.251468,0</coordinates>
          </LinearRing>
        </outerBoundaryIs>
      </Polygon>
    </Placemark>
  </Document>
</kml>
