<?xml version='1.0' encoding='UTF-8'?>
<kml xmlns="http://www.opengis.net/kml/2.2">
  <Document>
    <Placemark>
      <name>India</name>
      <description>See: 2050-snapshot/domains/borders-geopolitics.md#antarctica</description>
      <Polygon>
        <extrude>1</extrude>
        <altitudeMode>clampToGround</altitudeMode>
        <outerBoundaryIs>
          <LinearRing>
            <coordinates>60.234386,-67.381768,0
60.328787,-67.377130,0
60.393077,-67.383884,0
60.466645,-67.369806,0
60.499197,-67.388849,0
60.618907,-67.400567,0
60.677501,-67.427504,0
60.747732,-67.443129,0
60.793305,-67.443536,0
60.793590,-67.443660,0
60.807872,-67.436214,0
60.812877,-67.424739,0
60.820811,-67.420223,0
60.834727,-67.417903,0
60.850597,-67.417537,0
60.863780,-67.420833,0
60.870250,-67.429622,0
60.873302,-67.444270,0
60.878184,-67.453548,0
60.878184,-67.453546,0
60.884288,-67.458553,0
60.903575,-67.465511,0
60.894542,-67.465999,0
60.890972,-67.466634,0
60.914073,-67.464776,0
60.974132,-67.482843,0
61.013357,-67.465102,0
61.018565,-67.483819,0
61.033865,-67.491143,0
61.165332,-67.505126,0
61.173473,-67.501521,0
61.234874,-67.481014,0
61.245128,-67.483699,0
61.269054,-67.504329,0
61.283092,-67.509578,0
61.298717,-67.505306,0
61.328014,-67.484798,0
61.343028,-67.479060,0
61.374644,-67.486751,0
61.388072,-67.509578,0
61.379893,-67.533870,0
61.379893,-67.533868,0
61.346934,-67.545711,0
61.448741,-67.565120,0
61.324528,-67.584987,0
61.608084,-67.539646,0
62.117442,-67.562270,0
62.201508,-67.586114,0
62.329438,-67.589288,0
62.410655,-67.625258,0
62.492198,-67.633559,0
62.617361,-67.660089,0
62.770844,-67.642999,0
63.112641,-67.533787,0
63.650890,-67.503351,0
63.843272,-67.527439,0
63.960623,-67.527032,0
64.425466,-67.590509,0
64.553233,-67.622817,0
64.603852,-67.619724,0
64.720958,-67.653090,0
66.724946,-67.791925,0
66.773448,-67.773126,0
66.864268,-67.786391,0
67.005544,-67.758884,0
67.128917,-67.759047,0
67.285818,-67.786798,0
67.339610,-67.810805,0
68.070811,-67.847914,0
68.181651,-67.876560,0
68.376720,-67.895196,0
68.710623,-67.873468,0
68.777110,-67.886000,0
69.106781,-67.846287,0
69.154145,-67.832615,0
69.189952,-67.811130,0
69.207693,-67.773045,0
69.229015,-67.758559,0
69.302582,-67.736098,0
69.352387,-67.730076,0
69.555186,-67.738458,0
69.639008,-67.763279,0
69.648611,-67.779962,0
69.650401,-67.830336,0
69.662283,-67.852472,0
69.682953,-67.864435,0
69.632335,-67.938572,0
69.595470,-68.043064,0
69.601817,-68.069920,0
69.634776,-68.122166,0
69.813650,-68.285252,0
69.997732,-68.379653,0
70.009125,-68.398045,0
70.038259,-68.413344,0
70.089366,-68.483005,0
70.115408,-68.493585,0
70.179698,-68.494806,0
70.177621,-68.495419,0
70.178599,-68.495174,0
70.193248,-68.494197,0
70.203990,-68.496028,0
70.214000,-68.499446,0
70.235728,-68.513973,0
70.253551,-68.534847,0
70.266368,-68.559139,0
70.279185,-68.608577,0
70.287852,-68.624080,0
70.331554,-68.680110,0
70.351207,-68.695857,0
70.373912,-68.706722,0
70.399425,-68.712703,0
70.424571,-68.713191,0
70.474498,-68.708308,0
70.608775,-68.716853,0
70.684093,-68.705501,0
70.691661,-68.700740,0
70.707042,-68.682552,0
70.714854,-68.675105,0
70.730235,-68.667537,0
70.764171,-68.656184,0
70.780284,-68.648372,0
70.817149,-68.615047,0
70.838390,-68.604060,0
70.864513,-68.607723,0
71.017345,-68.670955,0
71.059947,-68.698055,0
71.078868,-68.701228,0
71.127696,-68.693538,0
71.150157,-68.692806,0
71.218150,-68.700740,0
71.243907,-68.699275,0
71.250621,-68.687801,0
71.254893,-68.670100,0
71.273814,-68.650447,0
71.316661,-68.627254,0
71.363902,-68.609432,0
71.412852,-68.601375,0
71.461192,-68.607478,0
71.607066,-68.650081,0
71.654063,-68.650081,0
71.890391,-68.594539,0
72.199718,-68.591487,0
72.418101,-68.628841,0
72.468150,-68.629451,0
72.565074,-68.619197,0
72.704112,-68.632991,0
72.746715,-68.646541,0
72.774303,-68.674007,0
72.772716,-68.683406,0
72.768077,-68.697566,0
72.768321,-68.710262,0
72.780650,-68.715633,0
72.860484,-68.717708,0
72.934337,-68.732845,0
73.098643,-68.739314,0
73.154674,-68.749080,0
73.204723,-68.767391,0
73.344493,-68.837215,0
73.441661,-68.861751,0
73.486583,-68.879085,0
73.526012,-68.910091,0
73.510020,-68.912288,0
73.504771,-68.912410,0
73.523692,-68.931087,0
73.545543,-68.938533,0
73.568980,-68.941707,0
73.592906,-68.947933,0
73.618663,-68.961849,0
73.714488,-69.029109,0
73.788341,-69.101131,0
73.807872,-69.115779,0
73.819224,-69.121883,0
73.835582,-69.127376,0
73.880504,-69.130550,0
73.904307,-69.138728,0
74.025890,-69.212703,0
74.074229,-69.232112,0
74.181163,-69.300227,0
74.231578,-69.320125,0
74.254405,-69.333675,0
74.272227,-69.354427,0
74.251964,-69.357478,0
74.193614,-69.350154,0
74.215343,-69.361385,0
74.241099,-69.378597,0
74.263805,-69.398860,0
74.276866,-69.418636,0
74.192027,-69.424861,0
74.192027,-69.424859,0
74.024547,-69.418514,0
73.940684,-69.426692,0
73.964366,-69.436336,0
74.038707,-69.448177,0
74.053477,-69.455989,0
74.083018,-69.476863,0
74.097545,-69.481624,0
74.114024,-69.483821,0
74.160411,-69.497493,0
74.149303,-69.506404,0
74.137828,-69.512019,0
74.110728,-69.518123,0
74.121715,-69.524959,0
74.108531,-69.531917,0
74.095470,-69.537044,0
74.067393,-69.542781,0
74.059459,-69.541683,0
74.047130,-69.534724,0
74.042125,-69.533260,0
74.034679,-69.535945,0
74.020152,-69.546321,0
74.012706,-69.548885,0
73.999278,-69.547420,0
73.973643,-69.540828,0
73.959361,-69.541194,0
73.945201,-69.546809,0
73.934581,-69.554256,0
73.922862,-69.559261,0
73.905650,-69.557796,0
73.909923,-69.568660,0
73.746471,-69.592586,0
73.733897,-69.597469,0
73.721690,-69.605037,0
73.711314,-69.616390,0
73.696910,-69.640926,0
73.685313,-69.650447,0
73.704112,-69.676204,0
73.718272,-69.703670,0
73.715709,-69.726863,0
73.684459,-69.738826,0
73.702525,-69.754329,0
73.731334,-69.757869,0
73.826793,-69.747127,0
73.849864,-69.748714,0
73.858043,-69.748103,0
73.865245,-69.746516,0
73.886974,-69.744808,0
73.884419,-69.745765,0
73.986501,-69.718927,0
74.074880,-69.712660,0
74.234972,-69.737528,0
74.221324,-69.733577,0
74.206432,-69.731502,0
74.321056,-69.719173,0
74.345958,-69.726741,0
74.368663,-69.741390,0
74.383800,-69.743831,0
74.427989,-69.734676,0
74.452647,-69.733455,0
74.482310,-69.735164,0
74.509532,-69.742244,0
74.527110,-69.757015,0
74.535167,-69.741756,0
74.548839,-69.654109,0
74.555308,-69.640804,0
74.569102,-69.633479,0
74.689098,-69.605891,0
74.738902,-69.600520,0
74.781261,-69.607723,0
74.794688,-69.616390,0
74.797252,-69.624324,0
74.797618,-69.632503,0
74.804942,-69.641658,0
74.848277,-69.667171,0
74.875865,-69.670711,0
74.896739,-69.665340,0
74.938853,-69.646785,0
74.961558,-69.645198,0
75.001231,-69.651790,0
75.032725,-69.642146,0
75.049327,-69.643001,0
75.097789,-69.618709,0
75.084483,-69.609920,0
75.051768,-69.596492,0
75.035411,-69.592220,0
75.122935,-69.561214,0
75.142589,-69.559627,0
75.168712,-69.574153,0
75.183116,-69.572688,0
75.199840,-69.568050,0
75.218028,-69.565242,0
75.234996,-69.566707,0
75.319102,-69.585872,0
75.383311,-69.589900,0
75.445689,-69.586482,0
75.461558,-69.587459,0
75.494762,-69.599910,0
75.531871,-69.594417,0
75.551890,-69.595760,0
75.566295,-69.565608,0
75.597057,-69.554378,0
75.763438,-69.542293,0
75.795504,-69.548145,0
75.820486,-69.525079,0
75.931163,-69.526137,0
75.972992,-69.489923,0
76.079926,-69.468683,0
76.215668,-69.420668,0
76.378184,-69.405369,0
76.378043,-69.405665,0
76.407359,-69.396907,0
76.407359,-69.396905,0
76.442393,-69.392513,0
76.522227,-69.401302,0
76.517711,-69.403987,0
76.458271,-69.450111,0
76.559581,-69.380304,0
76.572534,-69.376002,0
76.576060,-69.367854,0
76.578136,-69.362605,0
76.589610,-69.348445,0
76.606700,-69.344539,0
76.625377,-69.342464,0
76.641368,-69.333675,0
76.657359,-69.320857,0
76.713267,-69.296565,0
76.711192,-69.287044,0
76.707896,-69.278133,0
76.703380,-69.269832,0
76.697520,-69.262141,0
76.751231,-69.248958,0
76.776500,-69.249080,0
76.776500,-69.249078,0
76.804210,-69.257869,0
76.840709,-69.282771,0
76.839854,-69.283016,0
76.828258,-69.289445,0
76.868337,-69.274835,0
76.929878,-69.275589,0
76.926768,-69.274959,0
76.897716,-69.272029,0
76.891124,-69.272640,0
76.894298,-69.250911,0
76.893932,-69.237972,0
76.901256,-69.229671,0
76.940807,-69.228328,0
76.954356,-69.226131,0
76.954356,-69.226129,0
76.989087,-69.219717,0
77.000499,-69.211684,0
77.063487,-69.201837,0
77.237966,-69.203790,0
77.318696,-69.182875,0
77.431651,-69.184666,0
77.451184,-69.195205,0
77.443126,-69.189632,0
77.433482,-69.185481,0
77.433849,-69.179256,0
77.429454,-69.166072,0
77.438975,-69.148372,0
77.466075,-69.113338,0
77.478526,-69.103328,0
77.497569,-69.100887,0
77.613170,-69.111507,0
77.654307,-69.110896,0
77.684703,-69.099666,0
77.654674,-69.091609,0
77.666270,-69.087947,0
77.650157,-69.083308,0
77.671641,-69.061336,0
77.707408,-69.062923,0
77.746593,-69.073055,0
77.746593,-69.073053,0
77.777965,-69.076717,0
77.850597,-69.069270,0
77.849132,-69.070125,0
77.831329,-69.083172,0
77.889008,-69.045831,0
77.922504,-69.007712,0
77.912364,-69.015437,0
77.897594,-69.034602,0
77.892100,-69.028987,0
77.886485,-69.024226,0
77.893443,-69.020076,0
77.906505,-69.009700,0
77.913585,-69.005794,0
77.903331,-68.994197,0
77.914317,-68.984187,0
77.944469,-68.972224,0
77.945689,-68.958553,0
77.936900,-68.950130,0
77.910533,-68.940242,0
77.891368,-68.936824,0
77.905528,-68.930599,0
77.920177,-68.925960,0
77.935313,-68.923152,0
77.938731,-68.919978,0
78.031807,-68.925102,0
78.031912,-68.925063,0
77.936209,-68.919692,0
77.943614,-68.898696,0
77.939626,-68.856134,0
77.985606,-68.820082,0
78.142859,-68.758987,0
78.118663,-68.763973,0
78.117686,-68.764339,0
78.118541,-68.759334,0
78.119151,-68.757137,0
78.118663,-68.755183,0
78.117320,-68.753230,0
78.088145,-68.738216,0
78.050548,-68.733333,0
77.977306,-68.732845,0
77.876231,-68.719661,0
77.860362,-68.714778,0
77.847545,-68.704891,0
77.831798,-68.687312,0
77.870006,-68.672908,0
78.142161,-68.656978,0
78.414317,-68.641048,0
78.513392,-68.623585,0
78.531586,-68.614841,0
78.544607,-68.601007,0
78.511485,-68.551935,0
78.516124,-68.518487,0
78.526703,-68.506280,0
78.496349,-68.498793,0
78.464366,-68.501642,0
78.461681,-68.485528,0
78.501475,-68.460626,0
78.511241,-68.425063,0
78.559906,-68.364679,0
78.604015,-68.348810,0
78.746593,-68.262465,0
79.131358,-68.147719,0
79.757091,-68.038181,0
79.867035,-68.031915,0
80.737071,-67.884698,0
80.794932,-67.882013,0
80.876231,-67.892348,0
81.356062,-67.802449,0
81.366344,-67.791805,0
81.372813,-67.787410,0
81.377452,-67.782283,0
81.380138,-67.776302,0
81.375133,-67.773616,0
81.360484,-67.738826,0
81.359141,-67.732600,0
81.351085,-67.721614,0
81.342296,-67.712337,0
81.332042,-67.704768,0
81.319347,-67.698787,0
81.356090,-67.653743,0
81.376475,-67.634700,0
81.401622,-67.626277,0
81.356822,-67.575984,0
81.347057,-67.551692,0
81.361217,-67.520686,0
81.356456,-67.517635,0
81.347667,-67.510066,0
81.343028,-67.507381,0
81.545055,-67.466243,0
81.669688,-67.380428,0
81.679454,-67.377376,0
81.713267,-67.372859,0
81.768199,-67.357967,0
81.747569,-67.345149,0
81.726817,-67.338924,0
81.708140,-67.330013,0
81.693736,-67.308894,0
81.716197,-67.300594,0
81.783336,-67.296932,0
81.891368,-67.276424,0
81.982921,-67.273616,0
82.028575,-67.266170,0
82.115489,-67.228572,0
82.169444,-67.218684,0
82.326427,-67.212703,0
82.617076,-67.249446,0
82.837413,-67.230647,0
82.908214,-67.215389,0
82.998546,-67.206722,0
83.194347,-67.162532,0
83.317882,-67.148128,0
83.341441,-67.150569,0
83.402354,-67.170223,0
83.481334,-67.165096,0
83.496959,-67.158504,0
83.510997,-67.142513,0
83.519054,-67.126888,0
83.530284,-67.113094,0
83.542003,-67.112605,0
83.551646,-67.117000,0
83.561534,-67.119808,0
83.571910,-67.121150,0
83.582408,-67.121150,0
83.581187,-67.109065,0
83.576793,-67.098445,0
83.569347,-67.089778,0
83.558971,-67.083308,0
83.803111,-67.021541,0
84.135631,-66.993831,0
84.468150,-66.966121,0
84.498424,-66.966975,0
84.498057,-66.945857,0
84.487193,-66.947078,0
84.481700,-66.945979,0
84.468761,-66.938045,0
84.503184,-66.924983,0
84.483531,-66.924129,0
84.446544,-66.931575,0
84.427257,-66.933162,0
84.355235,-66.925716,0
84.334117,-66.926814,0
84.327159,-66.925227,0
84.312755,-66.913142,0
84.303477,-66.908382,0
84.291270,-66.906795,0
84.254893,-66.909847,0
84.163341,-66.902889,0
84.187999,-66.894954,0
84.118419,-66.901058,0
84.124766,-66.883724,0
84.118419,-66.869075,0
84.117198,-66.856868,0
84.138438,-66.846370,0
84.116588,-66.836604,0
84.075450,-66.805599,0
84.059703,-66.798274,0
84.005382,-66.791438,0
83.977061,-66.790950,0
83.956554,-66.797542,0
83.966197,-66.783382,0
83.995494,-66.767268,0
84.004161,-66.756282,0
84.000011,-66.745906,0
83.960094,-66.711116,0
84.019786,-66.698177,0
84.008067,-66.688655,0
84.080089,-66.667049,0
84.380870,-66.639461,0
84.415904,-66.630183,0
84.519298,-66.579158,0
84.553477,-66.570003,0
84.691783,-66.576350,0
84.725230,-66.572322,0
84.759898,-66.572322,0
84.794444,-66.580135,0
84.862804,-66.604060,0
84.879893,-66.607967,0
84.930431,-66.613094,0
84.950450,-66.618343,0
84.964488,-66.626033,0
85.010997,-66.663387,0
85.023570,-66.670223,0
85.037974,-66.670467,0
85.059093,-66.663020,0
85.072887,-66.654353,0
85.079600,-66.644222,0
85.080333,-66.633113,0
85.073253,-66.615291,0
85.106655,-66.631546,0
85.054861,-66.606215,0
85.110688,-66.520685,0
85.137073,-66.517937,0
85.189708,-66.489436,0
85.389415,-66.429012,0
85.414073,-66.426814,0
85.485850,-66.431575,0
85.686656,-66.392757,0
85.786876,-66.342830,0
85.833751,-66.328548,0
86.034801,-66.302425,0
86.140636,-66.309505,0
86.208751,-66.323299,0
86.232677,-66.320247,0
86.279185,-66.308406,0
86.305797,-66.306453,0
86.358775,-66.313289,0
86.436656,-66.313289,0
86.535533,-66.349666,0
86.585704,-66.361995,0
86.661998,-66.363826,0
86.674205,-66.368953,0
86.686778,-66.393611,0
86.712657,-66.398860,0
86.770763,-66.387752,0
86.823619,-66.386043,0
87.082896,-66.409297,0
87.342174,-66.432552,0
87.408824,-66.452815,0
87.451915,-66.456722,0
87.490977,-66.471736,0
87.540660,-66.484798,0
87.586192,-66.488216,0
87.866222,-66.541072,0
88.212047,-66.548030,0
88.332774,-66.569759,0
88.349864,-66.576717,0
88.394054,-66.603694,0
88.415538,-66.608455,0
88.458385,-66.611507,0
88.479503,-66.616756,0
88.486095,-66.634944,0
88.600597,-66.682063,0
88.549449,-66.694759,0
88.533702,-66.704891,0
88.549693,-66.716975,0
88.570811,-66.721492,0
88.613658,-66.724056,0
88.634044,-66.727718,0
88.643321,-66.732600,0
88.657359,-66.745418,0
88.666515,-66.748958,0
88.693736,-66.750301,0
88.693736,-66.750299,0
88.702647,-66.752132,0
88.757701,-66.787166,0
88.744762,-66.785091,0
88.735006,-66.784972,0
88.893077,-66.809503,0
89.003429,-66.788263,0
89.128754,-66.809503,0
89.305349,-66.805841,0
89.364594,-66.812188,0
89.475759,-66.841567,0
89.599864,-66.845961,0
89.654307,-66.840427,0
89.810720,-66.788751,0
89.940929,-66.793878,0
90.087576,-66.770196,0
90.112377,-66.770591,0
90.311290,-66.736018,0
90.305431,-66.739925,0
90.289317,-66.753719,0
90.333629,-66.760310,0
90.399425,-66.757625,0
90.455577,-66.745296,0
90.470470,-66.723445,0
90.563243,-66.695247,0
90.563243,-66.695245,0
90.609264,-66.687434,0
90.747813,-66.695613,0
90.723336,-66.705851,0
90.801280,-66.673435,0
91.003429,-66.613946,0
91.086111,-66.578058,0
91.145193,-66.573826,0
91.379405,-66.600274,0
91.436778,-66.595961,0
91.642263,-66.558201,0
91.696788,-66.537286,0
91.781749,-66.537856,0
91.960134,-66.498224,0
92.065278,-66.514418,0
92.167979,-66.511651,0
92.216970,-66.520278,0
92.369802,-66.594985,0
92.422699,-66.602309,0
92.506847,-66.597589,0
92.644216,-66.626235,0
92.760265,-66.633884,0
92.874766,-66.612726,0
93.021332,-66.562188,0
93.074474,-66.565362,0
93.185720,-66.589532,0
93.296153,-66.580336,0
93.458263,-66.587009,0
93.623546,-66.582615,0
93.665794,-66.591109,0
93.712779,-66.586971,0
93.746837,-66.580501,0
93.730846,-66.567561,0
93.755626,-66.555599,0
93.776622,-66.551814,0
93.797374,-66.553767,0
93.821056,-66.558528,0
93.826182,-66.557674,0
93.829478,-66.554500,0
93.833018,-66.552058,0
93.839854,-66.553523,0
93.865855,-66.565242,0
93.902110,-66.587947,0
93.958507,-66.604793,0
94.042491,-66.641170,0
94.042491,-66.641168,0
94.136974,-66.663631,0
94.166637,-66.669002,0
94.131114,-66.673396,0
94.120128,-66.678157,0
94.112804,-66.687190,0
94.107093,-66.699325,0
94.131033,-66.673435,0
94.295421,-66.653416,0
94.426036,-66.621677,0
94.490977,-66.569757,0
94.545095,-66.543145,0
94.703949,-66.512791,0
94.785655,-66.507013,0
94.916794,-66.475446,0
94.916270,-66.475520,0
94.945567,-66.458553,0
94.962169,-66.441097,0
94.968028,-66.418880,0
94.958873,-66.391780,0
94.937266,-66.371761,0
94.884654,-66.358577,0
94.861827,-66.341975,0
94.848155,-66.317317,0
94.847789,-66.296199,0
94.859019,-66.275935,0
94.880015,-66.253963,0
94.886729,-66.243099,0
94.888682,-66.222224,0
94.892467,-66.216365,0
94.906749,-66.213191,0
94.921641,-66.215022,0
94.951182,-66.222102,0
95.310557,-66.241023,0
95.338023,-66.238582,0
95.558116,-66.169002,0
95.570811,-66.153011,0
95.575450,-66.118465,0
95.571666,-66.106014,0
95.562022,-66.097224,0
95.550426,-66.088802,0
95.541148,-66.077693,0
95.538707,-66.065730,0
95.544688,-66.045589,0
95.540660,-66.030086,0
95.532848,-66.024349,0
95.518809,-66.017513,0
95.505382,-66.007381,0
95.498912,-65.991878,0
95.501475,-65.976375,0
95.509776,-65.963313,0
95.522227,-65.953304,0
95.537242,-65.947078,0
95.524791,-65.939876,0
95.535777,-65.919124,0
95.521007,-65.899837,0
95.499766,-65.879939,0
95.491099,-65.857356,0
95.505626,-65.773616,0
95.538341,-65.707942,0
95.536510,-65.656917,0
95.517100,-65.606868,0
95.485240,-65.565120,0
95.412242,-65.525325,0
95.402721,-65.513118,0
95.420299,-65.488582,0
95.448497,-65.478572,0
95.480479,-65.473079,0
95.509532,-65.462459,0
95.545177,-65.419002,0
95.548961,-65.367732,0
95.533824,-65.259212,0
95.790782,-65.268489,0
95.839976,-65.259700,0
95.859874,-65.245052,0
95.874766,-65.219051,0
95.896251,-65.165218,0
95.930675,-65.131770,0
95.981822,-65.115779,0
96.135509,-65.094051,0
96.157970,-65.085872,0
96.174571,-65.071834,0
96.180675,-65.050838,0
96.178844,-65.030940,0
96.182872,-65.011897,0
96.206309,-64.993709,0
96.253795,-64.980037,0
96.460094,-64.983699,0
96.780772,-65.040218,0
96.948497,-65.040340,0
97.000743,-65.047542,0
97.131114,-65.088558,0
97.154552,-65.108089,0
97.198497,-65.137508,0
97.213390,-65.144588,0
97.249644,-65.151302,0
97.283458,-65.161311,0
97.299205,-65.168025,0
97.290416,-65.173396,0
97.281139,-65.177303,0
97.271251,-65.179866,0
97.261119,-65.181209,0
97.287608,-65.200618,0
97.389781,-65.228816,0
97.394908,-65.232723,0
97.397105,-65.238826,0
97.400157,-65.253108,0
97.405772,-65.263240,0
97.411021,-65.266780,0
97.418101,-65.268245,0
97.463634,-65.286800,0
97.473765,-65.298396,0
97.478648,-65.320247,0
97.468028,-65.319759,0
97.459239,-65.322444,0
97.452037,-65.328304,0
97.446910,-65.337459,0
97.493663,-65.357845,0
97.534801,-65.363704,0
97.544688,-65.367244,0
97.549815,-65.372981,0
97.553722,-65.379085,0
97.559825,-65.383357,0
97.657603,-65.391536,0
97.680431,-65.403255,0
97.674815,-65.406551,0
97.664561,-65.415706,0
97.658946,-65.419002,0
97.696178,-65.459163,0
97.715709,-65.471126,0
97.747447,-65.481868,0
97.855724,-65.505672,0
97.844981,-65.513973,0
97.852061,-65.516536,0
97.865733,-65.523494,0
97.873057,-65.525691,0
97.866588,-65.537532,0
97.870616,-65.544612,0
97.877330,-65.551448,0
97.879893,-65.562068,0
97.876475,-65.571101,0
97.855968,-65.603450,0
97.852550,-65.613338,0
97.837901,-65.629939,0
97.825450,-65.640682,0
97.838878,-65.651302,0
97.848765,-65.674251,0
97.864635,-65.681209,0
97.900157,-65.689632,0
97.913463,-65.698787,0
97.914439,-65.713435,0
97.929332,-65.715144,0
97.953380,-65.727596,0
97.967052,-65.732600,0
97.982555,-65.733943,0
98.087169,-65.720638,0
98.103892,-65.722469,0
98.118175,-65.729427,0
98.127940,-65.737605,0
98.138927,-65.744441,0
98.156261,-65.747859,0
98.387218,-65.745052,0
98.416759,-65.734920,0
98.409923,-65.733211,0
98.396129,-65.727474,0
98.389049,-65.725520,0
98.403575,-65.708553,0
98.428233,-65.699397,0
98.428722,-65.693050,0
98.543346,-65.653743,0
98.585582,-65.648860,0
98.733775,-65.655696,0
98.974742,-65.638118,0
99.091685,-65.646663,0
99.151134,-65.638118,0
99.164806,-65.642513,0
99.221812,-65.685359,0
99.272594,-65.747249,0
99.304576,-65.763362,0
99.413219,-65.787044,0
99.446788,-65.788875,0
99.487315,-65.780696,0
99.568858,-65.752376,0
99.610606,-65.744075,0
99.607432,-65.729671,0
99.656871,-65.724056,0
99.679332,-65.725520,0
99.732921,-65.737727,0
99.887462,-65.751766,0
100.008556,-65.737117,0
100.085216,-65.738216,0
100.160167,-65.730647,0
100.197887,-65.731502,0
100.216807,-65.734187,0
100.231334,-65.734554,0
100.243419,-65.728328,0
100.254161,-65.711604,0
100.265147,-65.700008,0
100.316783,-65.680599,0
100.309947,-65.664241,0
100.322645,-65.670084,0
100.298025,-65.658624,0
100.276215,-65.633071,0
100.268240,-65.594659,0
100.303722,-65.536065,0
100.385102,-65.478611,0
100.482432,-65.431248,0
100.523680,-65.417298,0
100.523680,-65.795911,0
100.399723,-65.854645,0
100.523680,-65.799806,0
100.523680,-65.869676,0
100.460216,-65.875665,0
100.399671,-65.854670,0
100.399669,-65.854671,0
100.427989,-65.869319,0
100.460216,-65.875667,0
100.523680,-65.874478,0
100.523680,-89.999722,0
60.000000,-89.999722,0
60.000000,-67.403602,0
60.094981,-67.405369,0
60.234386,-67.381768,0</coordinates>
          </LinearRing>
        </outerBoundaryIs>
      </Polygon>
    </Placemark>
    <Placemark>
      <name>India</name>
      <description>See: 2050-snapshot/domains/borders-geopolitics.md#antarctica</description>
      <Polygon>
        <extrude>1</extrude>
        <altitudeMode>clampToGround</altitudeMode>
        <outerBoundaryIs>
          <LinearRing>
            <coordinates>92.423350,-65.693292,0
92.621104,-65.726007,0
92.671641,-65.749200,0
92.668956,-65.784845,0
92.578868,-65.817560,0
92.434418,-65.824395,0
92.299164,-65.802911,0
92.235850,-65.750665,0
92.285330,-65.712172,0
92.350271,-65.694757,0
92.423350,-65.693292,0</coordinates>
          </LinearRing>
        </outerBoundaryIs>
      </Polygon>
    </Placemark>
  </Document>
</kml>
