<?xml version='1.0' encoding='UTF-8'?>
<kml xmlns="http://www.opengis.net/kml/2.2">
  <Document>
    <Placemark>
      <name>New Zealand</name>
      <description>See: 2050-snapshot/domains/borders-geopolitics.md#antarctica</description>
      <Polygon>
        <extrude>1</extrude>
        <altitudeMode>clampToGround</altitudeMode>
        <outerBoundaryIs>
          <LinearRing>
            <coordinates>-179.999989,-81.923641,0
-179.999989,-81.721126,0
-179.999989,-81.518733,0
-179.999989,-81.316219,0
-179.999989,-81.113826,0
-179.999989,-80.911433,0
-179.999989,-80.709041,0
-179.999989,-80.506526,0
-179.999989,-80.304134,0
-179.999989,-80.101619,0
-179.999989,-79.899226,0
-179.999989,-79.696712,0
-179.999989,-79.494319,0
-179.999989,-79.291805,0
-179.999989,-79.089412,0
-179.999989,-78.887019,0
-179.999989,-78.684505,0
-179.999989,-78.481990,0
-179.999989,-78.279598,0
-179.999989,-78.077083,0
-179.999989,-77.874690,0
-179.551486,-77.910038,0
-179.102982,-77.945386,0
-178.654479,-77.980735,0
-178.205975,-78.016083,0
-177.757472,-78.051431,0
-177.308968,-78.086779,0
-176.860465,-78.122127,0
-176.843253,-78.130672,0
-176.852042,-78.141902,0
-176.915519,-78.203914,0
-176.868277,-78.213558,0
-176.933402,-78.251277,0
-176.956656,-78.260188,0
-176.914542,-78.269710,0
-176.417429,-78.283972,0
-175.920315,-78.298234,0
-175.423201,-78.312495,0
-174.926088,-78.326757,0
-174.428974,-78.341019,0
-173.931861,-78.355281,0
-173.434747,-78.369543,0
-172.937634,-78.383805,0
-172.440520,-78.398067,0
-171.943407,-78.412329,0
-171.446293,-78.426591,0
-170.949180,-78.440852,0
-170.452066,-78.455114,0
-169.954952,-78.469376,0
-169.457839,-78.483638,0
-168.960725,-78.497900,0
-168.463612,-78.512162,0
-167.966498,-78.526424,0
-167.469385,-78.540686,0
-166.972271,-78.554947,0
-166.475158,-78.569209,0
-165.978044,-78.583471,0
-165.480931,-78.597733,0
-164.983817,-78.611995,0
-164.805350,-78.594905,0
-164.816947,-78.590755,0
-164.712149,-78.566341,0
-164.353537,-78.579524,0
-163.994925,-78.592708,0
-163.965567,-78.584285,0
-163.786246,-78.602107,0
-163.423270,-78.591975,0
-163.060294,-78.581844,0
-163.033744,-78.573299,0
-163.049735,-78.570613,0
-162.574712,-78.496625,0
-162.099689,-78.422637,0
-161.624666,-78.348649,0
-161.149643,-78.274660,0
-160.674620,-78.200672,0
-160.199597,-78.126684,0
-159.724574,-78.052696,0
-159.249550,-77.978708,0
-158.774527,-77.904720,0
-158.759635,-77.899715,0
-158.748282,-77.891292,0
-158.740226,-77.880550,0
-158.734488,-77.874934,0
-158.726249,-77.873103,0
-158.696219,-77.873592,0
-158.650931,-77.867244,0
-158.637442,-77.862727,0
-158.637076,-77.864558,0
-158.463278,-77.897768,0
-158.637074,-77.864516,0
-158.639963,-77.848565,0
-158.624623,-77.829767,0
-158.533437,-77.764907,0
-158.453806,-77.746026,0
-158.400828,-77.722263,0
-158.324900,-77.636489,0
-158.274363,-77.615818,0
-158.157338,-77.590102,0
-158.118113,-77.555841,0
-158.286326,-77.513930,0
-158.218699,-77.462823,0
-158.140207,-77.427911,0
-158.181508,-77.400486,0
-158.291819,-77.375584,0
-158.329457,-77.342869,0
-158.325388,-77.296075,0
-158.280832,-77.257582,0
-158.177480,-77.205824,0
-158.208445,-77.182794,0
-158.282175,-77.153904,0
-158.311716,-77.132420,0
-158.300893,-77.105645,0
-158.220204,-77.073663,0
-157.925404,-77.056329,0
-157.843088,-77.074965,0
-157.693308,-77.142755,0
-157.609364,-77.158298,0
-157.589895,-77.173751,0
-157.594291,-77.169246,0
-157.609366,-77.158260,0
-157.622001,-77.153987,0
-157.596671,-77.147762,0
-157.587516,-77.147640,0
-157.597892,-77.143489,0
-157.608451,-77.140682,0
-157.619437,-77.139339,0
-157.630607,-77.139339,0
-157.603934,-77.132381,0
-157.545646,-77.132259,0
-157.516593,-77.126399,0
-157.560904,-77.108821,0
-157.654654,-77.092586,0
-157.654652,-77.092584,0
-157.696830,-77.070491,0
-157.481254,-77.029598,0
-157.493216,-77.017146,0
-157.474601,-77.015437,0
-157.489249,-77.004573,0
-157.338614,-76.972347,0
-157.260917,-76.965511,0
-157.184440,-76.968440,0
-157.191520,-76.981868,0
-157.179313,-76.989192,0
-157.140128,-76.995052,0
-157.147941,-77.003474,0
-157.157462,-77.009578,0
-157.097220,-77.003352,0
-157.118216,-77.013606,0
-157.190116,-77.026912,0
-157.166678,-77.037898,0
-157.066398,-77.054622,0
-157.073722,-77.065730,0
-157.084098,-77.071712,0
-157.110343,-77.081111,0
-157.080497,-77.090999,0
-156.995108,-77.105281,0
-156.966544,-77.104549,0
-157.001517,-77.115169,0
-156.990409,-77.124080,0
-156.972159,-77.145198,0
-156.961112,-77.150935,0
-156.796699,-77.171922,0
-156.782338,-77.165785,0
-156.655141,-77.157159,0
-156.590281,-77.112400,0
-156.510610,-77.105239,0
-156.414662,-77.077895,0
-156.323842,-77.066095,0
-155.865549,-77.059747,0
-155.695017,-77.081720,0
-155.582590,-77.113214,0
-155.519542,-77.149925,0
-155.582572,-77.113216,0
-155.660575,-77.091365,0
-155.644462,-77.090511,0
-155.610892,-77.086726,0
-155.593680,-77.087581,0
-155.605887,-77.078914,0
-155.589835,-77.078548,0
-155.623404,-77.061946,0
-155.605399,-77.062557,0
-155.703666,-77.027766,0
-155.678946,-77.028987,0
-155.687003,-77.025569,0
-155.687001,-77.025567,0
-155.693351,-77.021053,0
-155.705130,-77.010433,0
-155.681388,-77.000789,0
-155.657340,-77.000789,0
-155.607718,-77.009212,0
-155.542899,-77.005672,0
-155.515738,-77.011897,0
-155.516898,-77.034847,0
-155.274466,-77.062801,0
-155.241080,-77.071590,0
-155.257377,-77.083186,0
-155.281974,-77.097102,0
-155.301444,-77.111873,0
-155.302600,-77.134865,0
-155.290517,-77.128839,0
-154.900197,-77.104060,0
-154.695853,-77.067195,0
-154.670524,-77.068294,0
-154.689689,-77.077937,0
-154.638785,-77.082210,0
-154.621756,-77.080745,0
-154.633780,-77.088313,0
-154.587821,-77.092220,0
-154.523706,-77.089437,0
-154.433542,-77.072524,0
-154.284006,-77.064142,0
-154.128245,-77.078220,0
-154.055124,-77.097263,0
-154.040263,-77.112043,0
-154.045218,-77.104671,0
-154.049430,-77.100276,0
-154.055106,-77.097224,0
-154.099662,-77.085628,0
-153.825248,-77.081233,0
-153.722464,-77.107112,0
-153.607047,-77.103450,0
-153.453666,-77.120662,0
-153.474601,-77.128230,0
-153.497184,-77.131770,0
-153.473563,-77.134334,0
-153.451346,-77.139461,0
-153.463736,-77.141414,0
-153.475699,-77.145198,0
-153.486930,-77.150813,0
-153.497184,-77.158016,0
-153.478629,-77.175349,0
-153.457572,-77.188167,0
-153.443351,-77.193904,0
-153.422660,-77.202937,0
-153.435284,-77.202827,0
-153.122737,-77.206083,0
-152.994986,-77.190974,0
-152.958548,-77.193294,0
-152.974784,-77.179988,0
-152.963431,-77.172908,0
-152.919425,-77.169490,0
-152.454947,-77.194026,0
-152.431144,-77.200984,0
-152.416190,-77.208797,0
-152.424247,-77.214046,0
-152.506278,-77.212337,0
-152.480277,-77.221736,0
-152.535697,-77.228450,0
-152.522086,-77.235042,0
-152.507865,-77.239436,0
-152.493216,-77.241512,0
-152.478080,-77.240657,0
-152.486564,-77.250423,0
-152.502311,-77.254329,0
-152.520743,-77.256892,0
-152.537162,-77.262386,0
-152.355521,-77.265559,0
-152.368644,-77.279109,0
-152.384696,-77.286189,0
-152.402518,-77.288875,0
-152.421256,-77.289363,0
-152.352560,-77.302714,0
-152.350697,-77.302667,0
-152.185659,-77.333185,0
-152.185658,-77.333185,0
-152.216788,-77.324519,0
-152.272513,-77.315486,0
-152.061759,-77.323055,0
-152.015983,-77.331844,0
-152.001273,-77.337825,0
-151.993399,-77.347591,0
-151.975638,-77.372981,0
-151.996024,-77.379451,0
-152.005065,-77.389698,0
-151.987620,-77.387953,0
-151.792024,-77.399731,0
-151.820243,-77.381282,0
-151.960868,-77.362727,0
-151.969840,-77.355159,0
-151.929740,-77.348445,0
-151.969535,-77.327083,0
-152.214347,-77.282893,0
-152.305594,-77.248103,0
-152.295218,-77.236507,0
-152.286734,-77.224544,0
-152.276175,-77.214168,0
-152.259452,-77.207210,0
-152.271354,-77.203059,0
-152.159232,-77.161678,0
-152.122550,-77.156917,0
-151.980155,-77.156673,0
-151.947196,-77.161067,0
-151.829703,-77.195125,0
-151.819693,-77.199275,0
-151.809073,-77.215266,0
-151.815299,-77.224178,0
-151.830497,-77.230769,0
-151.846732,-77.240291,0
-151.762381,-77.227718,0
-151.736869,-77.228450,0
-151.544974,-77.281062,0
-151.511858,-77.277769,0
-151.511464,-77.270766,0
-151.479929,-77.258071,0
-151.131441,-77.217449,0
-151.329154,-77.199519,0
-151.376395,-77.170955,0
-151.229056,-77.137019,0
-151.212333,-77.130916,0
-151.177482,-77.110652,0
-151.071830,-77.084407,0
-151.112052,-77.083064,0
-151.279593,-77.117732,0
-151.555045,-77.144222,0
-151.697135,-77.128108,0
-151.701712,-77.128841,0
-151.705008,-77.127620,0
-151.706900,-77.124324,0
-151.707450,-77.119075,0
-151.711844,-77.111018,0
-151.716056,-77.110042,0
-151.721610,-77.111751,0
-151.741996,-77.109920,0
-151.767936,-77.110896,0
-151.780509,-77.109676,0
-151.756949,-77.096370,0
-151.702506,-77.080501,0
-151.676749,-77.068904,0
-151.826590,-77.096492,0
-151.811026,-77.085628,0
-151.757254,-77.068172,0
-151.703788,-77.042171,0
-151.684501,-77.036922,0
-151.693168,-77.031917,0
-151.699149,-77.026302,0
-151.710563,-77.011653,0
-151.661246,-77.008235,0
-151.693412,-77.004451,0
-151.601554,-76.980281,0
-151.597281,-76.965511,0
-151.618949,-76.959651,0
-151.721488,-76.963924,0
-151.700675,-76.940364,0
-151.650626,-76.939143,0
-151.594718,-76.945857,0
-151.556205,-76.945735,0
-151.533011,-76.940608,0
-151.133963,-76.939143,0
-150.996573,-76.965877,0
-151.008841,-76.978450,0
-150.971915,-76.981502,0
-150.865043,-77.003963,0
-150.846549,-77.003963,0
-150.826957,-77.000545,0
-150.809317,-76.993465,0
-150.799796,-76.986995,0
-150.801106,-76.989972,0
-150.782541,-76.970798,0
-150.646230,-76.942478,0
-150.419016,-76.922052,0
-150.443959,-76.900079,0
-150.474843,-76.890802,0
-150.394765,-76.877537,0
-150.392934,-76.907159,0
-150.069506,-76.879758,0
-150.080436,-76.876155,0
-150.093558,-76.874690,0
-150.210074,-76.879451,0
-150.295279,-76.861873,0
-150.377616,-76.832454,0
-150.357840,-76.827815,0
-150.379996,-76.819637,0
-150.403006,-76.814266,0
-150.389396,-76.809749,0
-150.374869,-76.810359,0
-150.344901,-76.816463,0
-150.357291,-76.811702,0
-150.382804,-76.806331,0
-150.431025,-76.787798,0
-150.601796,-76.796645,0
-150.815541,-76.769789,0
-150.875478,-76.740492,0
-150.851186,-76.718927,0
-150.827626,-76.710382,0
-150.352713,-76.692352,0
-150.390677,-76.693782,0
-150.184195,-76.645931,0
-150.125419,-76.620052,0
-150.000174,-76.582820,0
-150.013541,-76.578548,0
-150.039847,-76.574031,0
-150.053153,-76.569759,0
-150.023734,-76.562679,0
-150.000000,-76.560635,0
-150.000000,-77.096394,0
-150.421503,-77.089777,0
-150.421500,-77.089778,0
-150.146750,-77.094173,0
-150.000000,-77.096520,0
-150.000000,-80.527605,0
-150.235911,-80.528009,0
-150.322130,-80.514825,0
-150.322135,-80.514827,0
-150.235831,-80.528133,0
-150.000000,-80.527679,0
-150.000000,-89.999722,0
-180.000000,-89.999722,0
-180.000000,-84.352796,0
-179.999989,-84.352796,0
-179.999989,-84.150447,0
-179.999989,-83.948055,0
-179.999989,-83.745540,0
-179.999989,-83.543147,0
-179.999989,-83.340755,0
-179.999989,-83.138240,0
-179.999989,-82.935725,0
-179.999989,-82.733333,0
-179.999989,-82.530940,0
-179.999989,-82.328548,0
-179.999989,-82.126033,0
-179.999989,-81.923641,0</coordinates>
          </LinearRing>
        </outerBoundaryIs>
      </Polygon>
    </Placemark>
    <Placemark>
      <name>New Zealand</name>
      <description>See: 2050-snapshot/domains/borders-geopolitics.md#antarctica</description>
      <Polygon>
        <extrude>1</extrude>
        <altitudeMode>clampToGround</altitudeMode>
        <outerBoundaryIs>
          <LinearRing>
            <coordinates>-150.000000,-76.535592,0
-150.144980,-76.545772,0
-150.495292,-76.570369,0
-150.521476,-76.566707,0
-150.546622,-76.559871,0
-150.568473,-76.549007,0
-150.575675,-76.534236,0
-150.556937,-76.515804,0
-150.513053,-76.501766,0
-150.076774,-76.465816,0
-150.000000,-76.459490,0
-150.000000,-76.535592,0</coordinates>
          </LinearRing>
        </outerBoundaryIs>
      </Polygon>
    </Placemark>
    <Placemark>
      <name>New Zealand</name>
      <description>See: 2050-snapshot/domains/borders-geopolitics.md#antarctica</description>
      <Polygon>
        <extrude>1</extrude>
        <altitudeMode>clampToGround</altitudeMode>
        <outerBoundaryIs>
          <LinearRing>
            <coordinates>164.483531,-77.794368,0
164.528941,-77.828426,0
164.521861,-77.832332,0
164.508922,-77.841975,0
164.496193,-77.853977,0
164.500743,-77.853936,0
164.544119,-77.874933,0
164.556651,-77.889581,0
164.567393,-77.914321,0
164.527110,-77.919122,0
164.533702,-77.987074,0
164.483572,-78.018976,0
164.339529,-78.029962,0
164.377452,-78.051853,0
164.420258,-78.063084,0
164.413596,-78.071079,0
164.416637,-78.067439,0
164.438975,-78.078792,0
164.463634,-78.080623,0
164.599620,-78.058162,0
164.787974,-78.050960,0
164.810924,-78.045345,0
164.880382,-78.017635,0
165.160167,-77.979915,0
165.186412,-77.972102,0
165.209239,-77.962337,0
165.252940,-77.933162,0
165.261363,-77.923641,0
165.265025,-77.908382,0
165.274181,-77.898372,0
165.288097,-77.889583,0
165.302989,-77.883968,0
165.573253,-77.854060,0
165.843516,-77.824153,0
166.276256,-77.868465,0
166.708995,-77.912776,0
166.762584,-77.909724,0
166.812999,-77.900691,0
166.839610,-77.883846,0
166.839610,-77.869808,0
166.828746,-77.860774,0
166.809947,-77.855647,0
166.767467,-77.846492,0
166.677257,-77.859959,0
166.614513,-77.836358,0
166.651703,-77.809015,0
166.789317,-77.769952,0
166.865408,-77.718683,0
166.890636,-77.712498,0
166.511078,-77.721775,0
166.453380,-77.710056,0
166.627778,-77.706720,0
166.683116,-77.696466,0
166.814220,-77.691583,0
166.895681,-77.675714,0
166.388682,-77.613377,0
166.299815,-77.569513,0
166.213715,-77.563653,0
166.165538,-77.534845,0
166.370616,-77.498224,0
166.401622,-77.485447,0
166.476817,-77.431248,0
166.676117,-77.359959,0
166.575857,-77.332127,0
166.547862,-77.313409,0
166.400076,-77.266534,0
166.451915,-77.212335,0
166.524425,-77.183038,0
166.679454,-77.163344,0
166.827159,-77.160903,0
166.973318,-77.182224,0
167.029063,-77.203790,0
167.088145,-77.240655,0
167.113129,-77.281915,0
167.065766,-77.316339,0
167.139008,-77.341892,0
167.568126,-77.413263,0
168.219574,-77.372328,0
169.144054,-77.431736,0
169.273448,-77.454522,0
169.339592,-77.479662,0
169.311168,-77.466243,0
169.448863,-77.453182,0
169.931651,-77.490169,0
169.984019,-77.488338,0
169.999034,-77.485774,0
170.010509,-77.480769,0
170.019908,-77.471980,0
170.027965,-77.459163,0
170.036632,-77.451106,0
170.049571,-77.447933,0
170.510997,-77.462412,0
170.972423,-77.476891,0
171.433849,-77.491371,0
171.895274,-77.505850,0
172.356700,-77.520330,0
172.818126,-77.534809,0
173.279552,-77.549288,0
173.740977,-77.563768,0
174.202403,-77.578247,0
174.663829,-77.592727,0
175.125255,-77.607206,0
175.586681,-77.621686,0
176.048106,-77.636165,0
176.075450,-77.643367,0
176.116710,-77.664851,0
176.231944,-77.701350,0
176.702951,-77.723018,0
177.173958,-77.744685,0
177.644965,-77.766353,0
178.115972,-77.788020,0
178.586979,-77.809688,0
179.057986,-77.831355,0
179.528993,-77.853022,0
180.000000,-77.874690,0
180.000000,-84.352959,0
180.000000,-89.999722,0
164.000000,-89.999722,0
160.000000,-89.999722,0
160.000000,-69.628901,0
160.058767,-69.643650,0
160.102306,-69.684991,0
160.143809,-69.693129,0
160.202322,-69.736912,0
160.291270,-69.770278,0
160.334483,-69.796075,0
160.336702,-69.806952,0
160.403453,-69.838802,0
160.414928,-69.848079,0
160.420177,-69.839534,0
160.424815,-69.836360,0
160.440440,-69.833431,0
160.438609,-69.845516,0
160.434825,-69.856868,0
160.429210,-69.867488,0
160.422496,-69.877498,0
160.479869,-69.874202,0
160.509166,-69.875911,0
160.536265,-69.880550,0
160.561778,-69.893611,0
160.572032,-69.911678,0
160.579112,-69.932552,0
160.595103,-69.954036,0
160.557140,-69.965511,0
160.503429,-69.975520,0
160.449962,-69.979671,0
160.412852,-69.973445,0
160.475352,-70.007991,0
160.524417,-70.032463,0
160.636485,-70.048761,0
160.649425,-70.074314,0
160.661388,-70.081638,0
160.595958,-70.104669,0
160.723318,-70.095798,0
160.759776,-70.101983,0
160.827159,-70.139744,0
160.903331,-70.209568,0
160.985850,-70.241306,0
161.019705,-70.279474,0
161.066080,-70.305380,0
161.094005,-70.307552,0
161.103892,-70.307430,0
161.113414,-70.305476,0
161.122447,-70.301326,0
161.172618,-70.270686,0
161.199962,-70.258724,0
161.229503,-70.252376,0
161.202525,-70.252498,0
161.175792,-70.249324,0
161.149913,-70.242244,0
161.125377,-70.230891,0
161.175792,-70.222591,0
161.158702,-70.218929,0
161.138316,-70.217220,0
161.122325,-70.211849,0
161.117931,-70.197078,0
161.127330,-70.187434,0
161.146617,-70.180110,0
161.183482,-70.171809,0
161.566661,-70.140193,0
161.584972,-70.143123,0
161.596568,-70.156307,0
161.608409,-70.191341,0
161.620372,-70.202571,0
161.606822,-70.212825,0
161.640147,-70.210628,0
161.630870,-70.220027,0
161.672740,-70.232112,0
161.682262,-70.238338,0
161.663463,-70.247371,0
161.693614,-70.248348,0
161.681163,-70.254085,0
161.703990,-70.259700,0
161.741710,-70.283992,0
161.763072,-70.288020,0
161.759288,-70.323909,0
161.795543,-70.296809,0
161.808116,-70.291805,0
161.820811,-70.292659,0
161.856822,-70.300960,0
161.901500,-70.306087,0
161.934825,-70.316829,0
161.955943,-70.335750,0
161.947887,-70.363704,0
161.985362,-70.393489,0
161.967662,-70.401058,0
161.986095,-70.410579,0
162.004157,-70.423516,0
162.020274,-70.385186,0
162.071951,-70.358331,0
162.094412,-70.314142,0
162.204600,-70.328058,0
162.318858,-70.283949,0
162.372813,-70.275811,0
162.595225,-70.269138,0
162.685069,-70.285252,0
162.707530,-70.299737,0
162.780040,-70.378351,0
162.821462,-70.403985,0
162.895518,-70.408868,0
162.915538,-70.426528,0
162.886485,-70.434259,0
162.856700,-70.429946,0
162.878184,-70.471856,0
162.920177,-70.502537,0
163.017914,-70.529962,0
163.100271,-70.532973,0
163.124522,-70.542739,0
163.170258,-70.587579,0
163.361583,-70.624282,0
163.422130,-70.653578,0
163.450043,-70.657485,0
163.527192,-70.652602,0
163.633311,-70.665134,0
163.679698,-70.656915,0
163.731130,-70.632420,0
163.866547,-70.626560,0
163.870715,-70.635416,0
163.866588,-70.626521,0
163.846446,-70.622737,0
163.836070,-70.624324,0
163.809581,-70.620296,0
163.795665,-70.612361,0
163.782359,-70.600520,0
163.761851,-70.590633,0
163.743175,-70.588558,0
163.677745,-70.590633,0
163.740733,-70.580989,0
163.774913,-70.579524,0
163.801768,-70.585140,0
163.792979,-70.570003,0
163.774425,-70.568660,0
163.752208,-70.572566,0
163.732066,-70.572566,0
163.722911,-70.566829,0
163.705333,-70.548641,0
163.693858,-70.544490,0
163.685313,-70.547542,0
163.664439,-70.561092,0
163.652843,-70.563899,0
163.652843,-70.563897,0
163.632823,-70.554866,0
163.632457,-70.535579,0
163.643565,-70.513606,0
163.658336,-70.496150,0
163.676158,-70.484920,0
163.691905,-70.482600,0
163.774303,-70.485164,0
163.799937,-70.490169,0
163.841563,-70.507503,0
163.882335,-70.507869,0
163.903453,-70.512386,0
163.910167,-70.517635,0
163.923350,-70.534358,0
163.931285,-70.540584,0
163.940562,-70.542537,0
163.965465,-70.544368,0
163.978160,-70.549129,0
163.988048,-70.551204,0
164.000000,-70.549317,0
164.013560,-70.547176,0
164.036320,-70.543281,0
164.027599,-70.532322,0
164.095714,-70.506768,0
164.167328,-70.493829,0
164.240408,-70.491143,0
164.493907,-70.520440,0
164.596202,-70.546075,0
164.700450,-70.546563,0
164.757660,-70.537856,0
164.876475,-70.573826,0
165.111990,-70.563572,0
165.141124,-70.587009,0
165.312266,-70.560317,0
165.363943,-70.565118,0
165.385265,-70.577081,0
165.427013,-70.565037,0
165.468516,-70.572686,0
165.435395,-70.593032,0
165.459972,-70.601739,0
165.556163,-70.598728,0
165.540050,-70.614841,0
165.925792,-70.684259,0
165.925059,-70.663751,0
165.937511,-70.653090,0
166.019379,-70.648858,0
166.096934,-70.617283,0
166.369477,-70.583917,0
166.409841,-70.588962,0
166.441417,-70.611261,0
166.724457,-70.618259,0
166.809418,-70.651056,0
166.837413,-70.676690,0
166.825043,-70.692560,0
166.801768,-70.700942,0
166.753184,-70.706231,0
166.729747,-70.693617,0
166.696300,-70.699640,0
166.663259,-70.687595,0
166.597504,-70.700779,0
166.457530,-70.709161,0
166.426443,-70.733087,0
166.470714,-70.766290,0
166.558604,-70.764825,0
166.627615,-70.785333,0
166.774587,-70.764825,0
166.798676,-70.766534,0
166.857188,-70.788832,0
166.927908,-70.770440,0
167.002615,-70.774184,0
167.071625,-70.764418,0
167.416189,-70.759047,0
167.550466,-70.784438,0
167.700857,-70.791274,0
167.738943,-70.810317,0
167.746349,-70.844415,0
167.793468,-70.845310,0
167.833018,-70.861423,0
167.870128,-70.923923,0
167.828787,-70.942641,0
167.477712,-70.949395,0
167.477704,-70.949397,0
167.757457,-70.944148,0
167.808726,-70.958675,0
167.811778,-70.970393,0
167.808482,-70.980769,0
167.800548,-70.988460,0
167.789561,-70.992732,0
167.790904,-70.995540,0
167.792613,-70.998103,0
167.794688,-71.000545,0
167.804210,-71.012264,0
167.711358,-71.009693,0
167.877940,-71.014337,0
167.903656,-71.024591,0
167.948985,-71.064223,0
167.976817,-71.077407,0
168.101329,-71.108494,0
168.065196,-71.137628,0
168.044281,-71.143731,0
167.986094,-71.136834,0
168.018565,-71.144588,0
168.044322,-71.143733,0
168.065196,-71.137630,0
168.083385,-71.125911,0
168.094371,-71.115291,0
168.099742,-71.120174,0
168.100230,-71.120906,0
168.141612,-71.133968,0
168.157603,-71.142635,0
168.173595,-71.160823,0
168.185069,-71.171443,0
168.201915,-71.178890,0
168.245019,-71.188092,0
168.262869,-71.184340,0
168.358572,-71.197198,0
168.500255,-71.161065,0
168.561860,-71.170668,0
168.595470,-71.185235,0
168.669770,-71.182794,0
168.692149,-71.190525,0
168.754242,-71.236912,0
168.776215,-71.239923,0
168.761485,-71.275567,0
169.016612,-71.324884,0
169.084321,-71.354669,0
169.134532,-71.335382,0
169.164806,-71.364679,0
169.269216,-71.379978,0
169.345063,-71.433526,0
169.418630,-71.442560,0
169.463715,-71.463556,0
169.495291,-71.463474,0
169.464610,-71.491143,0
169.515961,-71.515069,0
169.587901,-71.520115,0
169.760265,-71.507908,0
169.889496,-71.575128,0
169.977387,-71.562921,0
169.974946,-71.581150,0
169.986176,-71.595310,0
170.075857,-71.656020,0
170.120128,-71.657647,0
170.182791,-71.674412,0
170.228770,-71.668878,0
170.271739,-71.650811,0
170.253591,-71.641697,0
170.249034,-71.626560,0
170.257009,-71.612970,0
170.276541,-71.608982,0
170.263194,-71.593357,0
170.361827,-71.544041,0
170.313813,-71.441664,0
170.230642,-71.367364,0
170.208669,-71.314223,0
170.216075,-71.302911,0
170.238617,-71.294610,0
170.282400,-71.298761,0
170.321788,-71.347426,0
170.360118,-71.359633,0
170.402680,-71.408868,0
170.491710,-71.481622,0
170.536388,-71.538507,0
170.691173,-71.656996,0
170.664236,-71.680597,0
170.813731,-71.699802,0
170.789236,-71.712091,0
170.830903,-71.746840,0
170.884776,-71.758966,0
170.865408,-71.768243,0
170.864513,-71.782485,0
170.887543,-71.810317,0
170.925466,-71.828871,0
170.966075,-71.834649,0
170.945811,-71.860772,0
170.917003,-71.878351,0
170.773611,-71.950860,0
170.638927,-71.968194,0
170.613780,-71.997979,0
170.585297,-72.007420,0
170.557384,-71.998305,0
170.537664,-71.954323,0
170.544932,-71.975642,0
170.510997,-71.977107,0
170.494640,-71.978450,0
170.478404,-71.981868,0
170.486705,-71.991756,0
170.497447,-71.996516,0
170.524425,-71.998958,0
170.504283,-72.008846,0
170.481822,-72.010066,0
170.458507,-72.008357,0
170.392955,-72.015437,0
170.233653,-72.006160,0
170.212291,-72.005672,0
170.218516,-72.000179,0
170.238292,-71.977107,0
170.256235,-71.950920,0
170.195811,-72.020196,0
170.168712,-72.037530,0
170.138438,-72.043715,0
170.045746,-72.019952,0
170.053233,-72.043064,0
170.040050,-72.062270,0
170.089203,-72.084405,0
170.070974,-72.094985,0
170.067638,-72.123630,0
170.029307,-72.143813,0
170.016368,-72.170831,0
169.989513,-72.180841,0
169.949880,-72.178318,0
169.878917,-72.203302,0
169.797130,-72.209568,0
169.772634,-72.220147,0
169.765391,-72.244806,0
169.782725,-72.243341,0
169.820323,-72.260186,0
169.891775,-72.265313,0
169.934093,-72.282485,0
170.009939,-72.287774,0
169.867629,-72.396367,0
169.991710,-72.306941,0
170.004771,-72.293025,0
170.036998,-72.295345,0
170.053966,-72.295100,0
170.121471,-72.285457,0
170.138682,-72.285457,0
170.149547,-72.291194,0
170.166515,-72.315486,0
170.181407,-72.322566,0
170.224754,-72.325610,0
170.244477,-72.320489,0
170.266287,-72.318617,0
170.282400,-72.326349,0
170.292166,-72.365004,0
170.312999,-72.369399,0
170.340505,-72.431248,0
170.302257,-72.473565,0
170.281993,-72.563897,0
170.255382,-72.602960,0
170.203949,-72.615411,0
170.099620,-72.611993,0
169.973695,-72.573588,0
170.047984,-72.600154,0
170.099620,-72.611995,0
170.151744,-72.617732,0
170.168224,-72.617000,0
170.110118,-72.631770,0
170.094005,-72.631282,0
170.141978,-72.645076,0
170.165538,-72.655574,0
170.176280,-72.667537,0
170.167491,-72.688899,0
170.143321,-72.703426,0
170.114513,-72.711726,0
170.091319,-72.714534,0
169.916270,-72.685970,0
169.865489,-72.693660,0
169.872541,-72.709101,0
169.884044,-72.711684,0
169.932465,-72.735935,0
169.848806,-72.800226,0
169.720876,-72.867446,0
169.682302,-72.921157,0
169.584483,-72.962172,0
169.608165,-72.993341,0
169.577322,-73.011163,0
169.631196,-73.043715,0
169.582286,-73.080499,0
169.555024,-73.091241,0
169.408953,-73.109326,0
169.413463,-73.120296,0
169.397105,-73.124934,0
169.379649,-73.125789,0
169.344493,-73.123348,0
169.334483,-73.144710,0
169.302257,-73.151546,0
169.264049,-73.149715,0
169.227550,-73.147517,0
169.226718,-73.145894,0
169.249522,-73.190688,0
169.251150,-73.248468,0
169.214610,-73.276462,0
169.073090,-73.266534,0
169.014955,-73.270593,0
169.034923,-73.281673,0
169.062755,-73.288753,0
169.089122,-73.299373,0
169.108653,-73.312312,0
169.099132,-73.320979,0
169.054454,-73.345882,0
168.991954,-73.361018,0
169.035411,-73.369197,0
169.080333,-73.372737,0
169.159679,-73.387752,0
169.184825,-73.384212,0
169.158946,-73.405940,0
169.153941,-73.412288,0
169.155528,-73.419490,0
169.166026,-73.438899,0
169.166148,-73.451106,0
169.154430,-73.462459,0
169.132213,-73.471858,0
169.008189,-73.503597,0
168.966197,-73.506038,0
168.929454,-73.495540,0
168.894054,-73.478816,0
168.735484,-73.427913,0
168.615367,-73.366023,0
168.640636,-73.357967,0
168.589366,-73.362239,0
168.565929,-73.356258,0
168.579845,-73.372371,0
168.594005,-73.383846,0
168.605113,-73.397151,0
168.613536,-73.430476,0
168.617198,-73.436092,0
168.616222,-73.440486,0
168.604869,-73.448177,0
168.596202,-73.451106,0
168.585582,-73.451473,0
168.565318,-73.448299,0
168.582652,-73.454646,0
168.617198,-73.462337,0
168.632701,-73.472835,0
168.617198,-73.477718,0
168.629527,-73.482967,0
168.601573,-73.482600,0
168.619395,-73.491756,0
168.610240,-73.503719,0
168.597789,-73.507503,0
168.583751,-73.509578,0
168.569469,-73.516414,0
168.581920,-73.521785,0
168.546764,-73.525569,0
168.565196,-73.530940,0
168.565318,-73.545833,0
168.554698,-73.562679,0
168.540172,-73.574641,0
168.519542,-73.581111,0
168.397838,-73.598567,0
168.303477,-73.598445,0
167.952769,-73.541316,0
167.546886,-73.532771,0
167.523204,-73.525447,0
167.475597,-73.503841,0
167.463267,-73.500667,0
167.450938,-73.501521,0
167.431651,-73.504573,0
167.431163,-73.504573,0
167.434703,-73.503230,0
167.434651,-73.503223,0
167.381847,-73.523045,0
167.326996,-73.532485,0
167.272797,-73.528009,0
167.194591,-73.491957,0
167.021739,-73.462335,0
166.989268,-73.465102,0
166.989336,-73.465139,0
167.021739,-73.462337,0
167.117320,-73.478816,0
167.133067,-73.487972,0
167.182750,-73.505794,0
167.225474,-73.536678,0
167.291392,-73.571224,0
167.306407,-73.582942,0
167.302501,-73.593074,0
167.288707,-73.595760,0
167.240001,-73.590755,0
167.225474,-73.585384,0
167.122813,-73.511287,0
167.098643,-73.505916,0
167.095958,-73.507503,0
167.095958,-73.507501,0
167.072765,-73.518611,0
167.076915,-73.512630,0
167.076914,-73.512629,0
167.032970,-73.566095,0
167.006684,-73.571547,0
166.885427,-73.561293,0
166.849132,-73.590509,0
166.815811,-73.577873,0
166.838390,-73.588802,0
166.849132,-73.590511,0
166.857921,-73.585506,0
166.858775,-73.591487,0
166.859874,-73.596858,0
166.862071,-73.601863,0
166.865489,-73.606502,0
166.877086,-73.611995,0
167.023936,-73.627742,0
167.055431,-73.635066,0
167.041148,-73.650935,0
167.021007,-73.662044,0
166.998424,-73.668391,0
166.925914,-73.669856,0
166.900157,-73.665462,0
166.878917,-73.654842,0
166.869395,-73.666316,0
166.858653,-73.664607,0
166.847179,-73.657283,0
166.835948,-73.652034,0
166.737071,-73.649349,0
166.724864,-73.646907,0
166.719737,-73.642268,0
166.718761,-73.635555,0
166.716319,-73.629329,0
166.707408,-73.626155,0
166.688609,-73.623714,0
166.670177,-73.619075,0
166.686290,-73.609676,0
166.680675,-73.609065,0
166.661388,-73.601497,0
166.654307,-73.599544,0
166.624400,-73.601253,0
166.595348,-73.607967,0
166.567393,-73.618709,0
166.540660,-73.632381,0
166.513560,-73.651180,0
166.505504,-73.653255,0
166.531749,-73.655574,0
166.613414,-73.652278,0
166.604015,-73.663875,0
166.599010,-73.667415,0
166.589732,-73.670345,0
166.661388,-73.667415,0
166.677501,-73.674007,0
166.690318,-73.682796,0
166.734264,-73.700740,0
166.750987,-73.704402,0
166.737682,-73.710506,0
166.755748,-73.716121,0
166.784312,-73.734432,0
166.801402,-73.737727,0
166.757091,-73.752742,0
166.447032,-73.797786,0
166.408214,-73.785823,0
166.420543,-73.776180,0
166.380626,-73.779353,0
166.388438,-73.765804,0
166.394054,-73.761043,0
166.404307,-73.756526,0
166.383556,-73.758357,0
166.348399,-73.742366,0
166.326915,-73.740779,0
166.337413,-73.728694,0
166.292003,-73.726497,0
166.294322,-73.725765,0
166.266490,-73.708919,0
166.227550,-73.703182,0
166.150700,-73.700864,0
166.266449,-73.708917,0
166.294200,-73.725763,0
166.271332,-73.732843,0
166.235362,-73.759210,0
166.170177,-73.762140,0
166.160492,-73.799005,0
166.144379,-73.813409,0
166.029959,-73.809177,0
165.937755,-73.833429,0
165.856326,-73.822330,0
165.842662,-73.836360,0
165.916759,-73.864558,0
166.151988,-73.906673,0
166.124644,-73.915218,0
165.837779,-73.879573,0
165.786998,-73.874690,0
165.793058,-73.872509,0
165.700043,-73.892022,0
165.651866,-73.913670,0
165.260590,-73.893324,0
165.198985,-73.859063,0
165.192149,-73.830173,0
165.245372,-73.777927,0
165.256033,-73.744073,0
165.230642,-73.722263,0
165.244965,-73.697442,0
165.215994,-73.661065,0
165.215099,-73.645685,0
165.236664,-73.606622,0
165.231212,-73.593032,0
165.167491,-73.549249,0
165.125011,-73.462172,0
165.031993,-73.410903,0
165.177501,-73.351007,0
165.221853,-73.342462,0
165.358165,-73.340020,0
165.252208,-73.321384,0
165.195160,-73.322198,0
165.145518,-73.332615,0
165.033051,-73.373793,0
164.977224,-73.386326,0
164.913910,-73.387872,0
164.558849,-73.324395,0
164.526134,-73.330173,0
164.443207,-73.368748,0
164.489513,-73.397882,0
164.538748,-73.417169,0
164.591156,-73.425714,0
164.702403,-73.419041,0
164.829112,-73.437758,0
164.880138,-73.461602,0
164.893809,-73.483494,0
164.878103,-73.526951,0
164.911957,-73.571954,0
164.915375,-73.600763,0
164.905935,-73.657159,0
164.889985,-73.682712,0
164.861990,-73.697686,0
164.775564,-73.714614,0
164.714610,-73.781671,0
164.790782,-73.814060,0
164.824880,-73.816013,0
164.840994,-73.823907,0
164.862804,-73.864028,0
164.952485,-73.890883,0
164.870860,-73.931573,0
164.911388,-73.954197,0
165.000011,-73.974867,0
165.046641,-73.972589,0
165.019379,-73.943780,0
165.133474,-73.978936,0
165.260265,-74.001153,0
165.239106,-74.010024,0
165.308849,-74.030369,0
165.255219,-74.046075,0
165.075834,-74.054768,0
165.097911,-74.056819,0
165.103770,-74.072322,0
165.116344,-74.081233,0
165.131847,-74.088802,0
165.146129,-74.097835,0
165.137706,-74.106624,0
165.151500,-74.110042,0
165.138805,-74.123225,0
165.152599,-74.126399,0
165.123668,-74.158504,0
165.084239,-74.167659,0
165.040538,-74.160457,0
164.999522,-74.143245,0
165.060191,-74.133846,0
164.988170,-74.128719,0
164.964732,-74.119808,0
164.904430,-74.080013,0
164.885265,-74.076839,0
164.878551,-74.078792,0
164.873424,-74.081111,0
164.860240,-74.083675,0
164.844615,-74.064754,0
164.818370,-74.040218,0
164.805891,-74.032700,0
164.818207,-74.040216,0
164.864431,-74.088637,0
164.818126,-74.101983,0
164.834483,-74.112726,0
164.893809,-74.120375,0
164.855724,-74.139581,0
164.812755,-74.145929,0
164.882335,-74.170831,0
164.859874,-74.209161,0
164.898936,-74.227472,0
165.062755,-74.256606,0
165.077403,-74.273126,0
165.088634,-74.313165,0
165.113943,-74.320082,0
165.128184,-74.340916,0
165.100597,-74.342462,0
165.121918,-74.354669,0
165.153819,-74.389825,0
165.223643,-74.415785,0
165.271658,-74.458754,0
165.405121,-74.477797,0
165.457774,-74.494399,0
165.463552,-74.529962,0
165.448090,-74.606866,0
165.434744,-74.629002,0
165.410981,-74.640313,0
165.387218,-74.633966,0
165.266567,-74.563107,0
165.127940,-74.567195,0
165.067271,-74.556819,0
165.082652,-74.554378,0
165.105846,-74.544978,0
165.105846,-74.544976,0
165.130870,-74.530086,0
165.175186,-74.526442,0
165.130870,-74.530043,0
165.082693,-74.554295,0
164.897472,-74.566827,0
164.848399,-74.585219,0
164.764903,-74.569594,0
164.587413,-74.574884,0
164.550548,-74.565606,0
164.488536,-74.567315,0
164.421727,-74.537831,0
164.464610,-74.559505,0
164.488536,-74.567317,0
164.496959,-74.568050,0
164.505015,-74.584407,0
164.532603,-74.610896,0
164.537608,-74.626033,0
164.540538,-74.644344,0
164.550304,-74.663265,0
164.575206,-74.700374,0
164.543101,-74.700374,0
164.354747,-74.640804,0
164.323375,-74.636043,0
164.242246,-74.627894,0
164.244314,-74.631280,0
164.087657,-74.625421,0
164.038097,-74.636326,0
164.059093,-74.648207,0
164.059093,-74.669203,0
164.046397,-74.688165,0
164.030284,-74.693943,0
164.098399,-74.719008,0
164.107188,-74.736098,0
164.077403,-74.757501,0
164.000000,-74.765033,0
163.926036,-74.772231,0
164.000000,-74.794802,0
164.037771,-74.806329,0
164.000000,-74.828895,0
163.980968,-74.840265,0
164.000000,-74.845430,0
164.003754,-74.846449,0
164.000000,-74.848303,0
163.963390,-74.866388,0
163.944102,-74.862237,0
163.944102,-74.862239,0
163.950572,-74.866512,0
163.955821,-74.866512,0
163.951060,-74.876277,0
163.944469,-74.881526,0
163.936046,-74.885188,0
163.924937,-74.886653,0
163.837779,-74.873103,0
163.773204,-74.876155,0
163.743053,-74.881770,0
163.756969,-74.893489,0
163.726207,-74.906429,0
163.708385,-74.938045,0
163.686900,-75.008357,0
163.676524,-75.029475,0
163.668468,-75.039363,0
163.656383,-75.047298,0
163.603160,-75.064754,0
163.586681,-75.076106,0
163.613658,-75.094295,0
163.592052,-75.109676,0
163.550304,-75.120052,0
163.516612,-75.123592,0
163.441051,-75.116145,0
163.402110,-75.106136,0
163.386974,-75.090511,0
163.342784,-75.092952,0
163.372081,-75.108943,0
163.383067,-75.119197,0
163.376475,-75.128108,0
163.280284,-75.176692,0
163.211436,-75.195613,0
163.175059,-75.200618,0
163.139415,-75.199886,0
163.096690,-75.191097,0
163.067149,-75.171932,0
163.070689,-75.140437,0
163.083263,-75.130672,0
163.120250,-75.112972,0
163.134410,-75.100276,0
163.146739,-75.085994,0
163.175182,-75.062801,0
163.187755,-75.049007,0
163.094737,-75.007381,0
163.116222,-75.035701,0
163.122325,-75.046199,0
163.078136,-75.050472,0
162.990977,-75.071101,0
162.924449,-75.076595,0
162.855724,-75.092830,0
162.759288,-75.103938,0
162.775890,-75.112361,0
162.812144,-75.118831,0
162.836436,-75.137996,0
162.886485,-75.152522,0
162.902354,-75.161556,0
162.911021,-75.171932,0
162.908458,-75.179866,0
162.889659,-75.181819,0
162.807506,-75.178890,0
162.701671,-75.152766,0
162.671397,-75.154598,0
162.665294,-75.157649,0
162.660655,-75.161189,0
162.657237,-75.165218,0
162.654552,-75.166805,0
162.627818,-75.153499,0
162.608165,-75.148839,0
162.655610,-75.167413,0
162.646007,-75.188897,0
162.595225,-75.223728,0
162.563099,-75.233932,0
162.563121,-75.233941,0
162.563121,-75.233943,0
162.563096,-75.233933,0
162.543468,-75.240167,0
162.262543,-75.271173,0
162.029552,-75.259861,0
161.920258,-75.236261,0
161.831391,-75.194431,0
161.776378,-75.188897,0
161.666840,-75.199965,0
161.614268,-75.214288,0
161.554698,-75.263930,0
161.474864,-75.285577,0
160.975922,-75.287205,0
160.848481,-75.310235,0
160.799571,-75.340427,0
160.707774,-75.365492,0
160.582367,-75.378351,0
160.638682,-75.397638,0
160.925304,-75.427992,0
160.976736,-75.422052,0
161.087087,-75.384373,0
162.191091,-75.387791,0
162.262218,-75.441664,0
162.301117,-75.505060,0
162.306651,-75.529392,0
162.280772,-75.542657,0
162.144542,-75.536554,0
162.073578,-75.542739,0
162.029552,-75.574151,0
162.111827,-75.594985,0
162.216482,-75.591974,0
162.225841,-75.598403,0
162.223155,-75.613051,0
162.200531,-75.637872,0
162.225352,-75.642673,0
162.250336,-75.666925,0
162.297699,-75.672540,0
162.314952,-75.694431,0
162.487804,-75.710870,0
162.503103,-75.744887,0
162.513194,-75.748793,0
162.595225,-75.747654,0
162.624278,-75.761407,0
162.843110,-75.793064,0
162.900076,-75.822931,0
162.805024,-75.873630,0
162.809418,-75.897149,0
162.792735,-75.907159,0
162.759532,-75.914809,0
162.667038,-75.912000,0
162.759654,-75.914851,0
162.792735,-75.907161,0
162.803844,-75.901546,0
162.809093,-75.897517,0
162.816783,-75.899959,0
162.823619,-75.905940,0
162.858531,-75.915218,0
162.996715,-75.919490,0
163.039558,-75.943414,0
162.745860,-75.938533,0
162.648814,-75.947322,0
162.652826,-75.957047,0
162.706879,-75.981052,0
162.709239,-75.993341,0
162.696056,-76.019789,0
162.722992,-76.040460,0
162.736095,-76.073907,0
162.650076,-76.091078,0
162.394216,-76.059828,0
162.424490,-76.074314,0
162.521821,-76.098240,0
162.483409,-76.108982,0
162.441091,-76.105727,0
162.361827,-76.078058,0
162.301117,-76.100518,0
162.333507,-76.113946,0
162.447602,-76.128188,0
162.414073,-76.148126,0
162.264659,-76.147231,0
162.165782,-76.154962,0
162.115571,-76.170180,0
162.098980,-76.193036,0
162.115611,-76.170223,0
162.165782,-76.154964,0
162.264659,-76.147273,0
162.363048,-76.151668,0
162.414073,-76.148128,0
162.444713,-76.130061,0
162.475352,-76.141048,0
162.523936,-76.146785,0
162.955821,-76.133968,0
163.047618,-76.143245,0
163.030650,-76.164241,0
163.010997,-76.179988,0
162.962657,-76.204158,0
162.962657,-76.204156,0
162.933726,-76.211360,0
162.876231,-76.211849,0
162.820933,-76.220760,0
162.687022,-76.211726,0
162.592174,-76.220149,0
162.584727,-76.216731,0
162.571554,-76.214780,0
162.622813,-76.234308,0
162.751475,-76.235121,0
162.787283,-76.259454,0
162.787283,-76.284845,0
162.772472,-76.301853,0
162.748057,-76.308526,0
162.700450,-76.307712,0
162.722341,-76.317560,0
162.738780,-76.358575,0
162.822520,-76.396661,0
162.884288,-76.439060,0
162.834483,-76.493341,0
162.723888,-76.542657,0
162.686209,-76.550063,0
162.577045,-76.536217,0
162.686290,-76.550105,0
162.723888,-76.542659,0
162.737559,-76.536678,0
162.741099,-76.543514,0
162.740489,-76.544734,0
162.825572,-76.545100,0
162.867808,-76.551082,0
162.901866,-76.569392,0
162.875133,-76.583919,0
162.875133,-76.583917,0
162.840587,-76.590633,0
162.638682,-76.601741,0
162.694713,-76.647273,0
162.701821,-76.650888,0
162.756196,-76.649347,0
162.843110,-76.664727,0
162.931407,-76.707452,0
162.974620,-76.789727,0
162.938487,-76.798923,0
162.899587,-76.841078,0
162.865977,-76.850030,0
162.782888,-76.832452,0
162.626150,-76.824884,0
162.422537,-76.899184,0
162.545421,-76.904392,0
162.585623,-76.918064,0
162.520193,-76.936944,0
162.301768,-76.951349,0
162.526703,-76.960219,0
162.500662,-76.976495,0
162.461681,-76.985121,0
162.386974,-76.988458,0
162.429373,-77.011651,0
162.469005,-77.015313,0
162.617442,-77.001397,0
162.646332,-77.003676,0
162.691661,-77.026137,0
162.716156,-77.027602,0
162.819998,-77.015883,0
162.921641,-77.021173,0
163.020763,-77.014093,0
163.069509,-77.018731,0
163.162852,-77.043634,0
163.124360,-77.083917,0
163.185069,-77.107680,0
163.267100,-77.159112,0
163.344086,-77.164972,0
163.377289,-77.176690,0
163.418142,-77.225681,0
163.466156,-77.239435,0
163.542979,-77.313165,0
163.548106,-77.329767,0
163.535655,-77.362563,0
163.603526,-77.387953,0
163.715831,-77.396580,0
163.759776,-77.428643,0
163.824067,-77.430841,0
163.774262,-77.447849,0
163.818207,-77.476658,0
163.831309,-77.495782,0
163.821788,-77.518324,0
163.800548,-77.528009,0
163.548188,-77.549005,0
163.505138,-77.569431,0
163.667491,-77.595147,0
163.718761,-77.614923,0
163.655772,-77.646661,0
163.585704,-77.661310,0
163.440115,-77.668552,0
163.534190,-77.715509,0
163.557140,-77.719985,0
163.906505,-77.696384,0
163.916005,-77.701966,0
163.915050,-77.701106,0
163.909190,-77.697933,0
164.000000,-77.685251,0
164.191539,-77.658504,0
164.327769,-77.674983,0
164.358653,-77.684871,0
164.452647,-77.728816,0
164.457896,-77.733089,0
164.467052,-77.743587,0
164.474132,-77.756160,0
164.473155,-77.764095,0
164.470836,-77.771297,0
164.473155,-77.781429,0
164.483531,-77.794368,0</coordinates>
          </LinearRing>
        </outerBoundaryIs>
      </Polygon>
    </Placemark>
    <Placemark>
      <name>New Zealand</name>
      <description>See: 2050-snapshot/domains/borders-geopolitics.md#antarctica</description>
      <Polygon>
        <extrude>1</extrude>
        <altitudeMode>clampToGround</altitudeMode>
        <outerBoundaryIs>
          <LinearRing>
            <coordinates>166.977306,-76.962660,0
166.872244,-76.972914,0
166.866466,-76.947931,0
166.853282,-76.936212,0
166.854666,-76.929132,0
166.874034,-76.926446,0
166.956554,-76.938409,0
166.977306,-76.950616,0
166.977306,-76.962660,0</coordinates>
          </LinearRing>
        </outerBoundaryIs>
      </Polygon>
    </Placemark>
    <Placemark>
      <name>New Zealand</name>
      <description>See: 2050-snapshot/domains/borders-geopolitics.md#antarctica</description>
      <Polygon>
        <extrude>1</extrude>
        <altitudeMode>clampToGround</altitudeMode>
        <outerBoundaryIs>
          <LinearRing>
            <coordinates>163.039561,-75.943414,0
163.039561,-75.943416,0
163.039558,-75.943414,0
163.039561,-75.943414,0</coordinates>
          </LinearRing>
        </outerBoundaryIs>
      </Polygon>
    </Placemark>
    <Placemark>
      <name>New Zealand</name>
      <description>See: 2050-snapshot/domains/borders-geopolitics.md#antarctica</description>
      <Polygon>
        <extrude>1</extrude>
        <altitudeMode>clampToGround</altitudeMode>
        <outerBoundaryIs>
          <LinearRing>
            <coordinates>162.878184,-75.654392,0
162.813487,-75.693292,0
162.742198,-75.701837,0
162.635102,-75.690037,0
162.576508,-75.662774,0
162.767833,-75.576104,0
162.972341,-75.554864,0
162.977550,-75.565037,0
162.898611,-75.619806,0
162.878184,-75.654392,0</coordinates>
          </LinearRing>
        </outerBoundaryIs>
      </Polygon>
    </Placemark>
    <Placemark>
      <name>New Zealand</name>
      <description>See: 2050-snapshot/domains/borders-geopolitics.md#antarctica</description>
      <Polygon>
        <extrude>1</extrude>
        <altitudeMode>clampToGround</altitudeMode>
        <outerBoundaryIs>
          <LinearRing>
            <coordinates>162.572276,-75.481134,0
162.533702,-75.484063,0
162.504649,-75.474054,0
162.487966,-75.457208,0
162.531505,-75.426528,0
162.570811,-75.422947,0
162.601248,-75.436782,0
162.617849,-75.459161,0
162.572276,-75.481134,0</coordinates>
          </LinearRing>
        </outerBoundaryIs>
      </Polygon>
    </Placemark>
    <Placemark>
      <name>New Zealand</name>
      <description>See: 2050-snapshot/domains/borders-geopolitics.md#antarctica</description>
      <Polygon>
        <extrude>1</extrude>
        <altitudeMode>clampToGround</altitudeMode>
        <outerBoundaryIs>
          <LinearRing>
            <coordinates>169.813731,-73.348565,0
169.819184,-73.400811,0
169.850271,-73.416111,0
169.861501,-73.441583,0
169.961681,-73.514418,0
169.943533,-73.531915,0
169.858409,-73.563084,0
169.866466,-73.565362,0
169.869314,-73.589288,0
169.854015,-73.606866,0
169.666189,-73.631036,0
169.649425,-73.629083,0
169.646495,-73.596856,0
169.622813,-73.582778,0
169.458751,-73.554946,0
169.542003,-73.497003,0
169.677501,-73.421808,0
169.637055,-73.395440,0
169.636974,-73.385512,0
169.670584,-73.364353,0
169.672211,-73.341404,0
169.705251,-73.325779,0
169.751638,-73.320082,0
169.793712,-73.327244,0
169.813731,-73.348565,0</coordinates>
          </LinearRing>
        </outerBoundaryIs>
      </Polygon>
    </Placemark>
    <Placemark>
      <name>New Zealand</name>
      <description>See: 2050-snapshot/domains/borders-geopolitics.md#antarctica</description>
      <Polygon>
        <extrude>1</extrude>
        <altitudeMode>clampToGround</altitudeMode>
        <outerBoundaryIs>
          <LinearRing>
            <coordinates>163.309581,-70.386407,0
163.395681,-70.345392,0
163.455333,-70.339125,0
163.516287,-70.345961,0
163.566661,-70.363946,0
163.515636,-70.378188,0
163.346202,-70.395278,0
163.309581,-70.386407,0</coordinates>
          </LinearRing>
        </outerBoundaryIs>
      </Polygon>
    </Placemark>
    <Placemark>
      <name>New Zealand</name>
      <description>See: 2050-snapshot/domains/borders-geopolitics.md#antarctica</description>
      <Polygon>
        <extrude>1</extrude>
        <altitudeMode>clampToGround</altitudeMode>
        <outerBoundaryIs>
          <LinearRing>
            <coordinates>161.920421,-70.240655,0
161.888031,-70.257257,0
161.855724,-70.261163,0
161.828787,-70.255141,0
161.811860,-70.241469,0
161.834483,-70.222101,0
161.867686,-70.217462,0
161.900076,-70.224542,0
161.920421,-70.240655,0</coordinates>
          </LinearRing>
        </outerBoundaryIs>
      </Polygon>
    </Placemark>
    <Placemark>
      <name>New Zealand</name>
      <description>See: 2050-snapshot/domains/borders-geopolitics.md#antarctica</description>
      <Polygon>
        <extrude>1</extrude>
        <altitudeMode>clampToGround</altitudeMode>
        <outerBoundaryIs>
          <LinearRing>
            <coordinates>164.712169,-67.268487,0
164.840343,-67.339288,0
164.836925,-67.362726,0
164.913910,-67.404392,0
164.926036,-67.431085,0
164.916189,-67.454278,0
164.848969,-67.500909,0
164.875011,-67.515069,0
164.819835,-67.550226,0
164.760427,-67.570408,0
164.703787,-67.568617,0
164.657237,-67.538344,0
164.651866,-67.511407,0
164.632823,-67.488702,0
164.682140,-67.447849,0
164.696300,-67.416762,0
164.696056,-67.385186,0
164.659516,-67.333591,0
164.670421,-67.312107,0
164.657237,-67.260837,0
164.674571,-67.257745,0
164.712169,-67.268487,0</coordinates>
          </LinearRing>
        </outerBoundaryIs>
      </Polygon>
    </Placemark>
    <Placemark>
      <name>New Zealand</name>
      <description>See: 2050-snapshot/domains/borders-geopolitics.md#antarctica</description>
      <Polygon>
        <extrude>1</extrude>
        <altitudeMode>clampToGround</altitudeMode>
        <outerBoundaryIs>
          <LinearRing>
            <coordinates>163.081309,-66.706476,0
163.114757,-66.687270,0
163.169932,-66.690199,0
163.260509,-66.716241,0
163.265310,-66.748468,0
163.257009,-66.763279,0
163.313243,-66.781508,0
163.286143,-66.797784,0
163.312511,-66.828709,0
163.293712,-66.838067,0
163.295095,-66.884861,0
163.249197,-66.877374,0
163.190766,-66.843845,0
163.155040,-66.812270,0
163.081309,-66.706476,0</coordinates>
          </LinearRing>
        </outerBoundaryIs>
      </Polygon>
    </Placemark>
    <Placemark>
      <name>New Zealand</name>
      <description>See: 2050-snapshot/domains/borders-geopolitics.md#antarctica</description>
      <Polygon>
        <extrude>1</extrude>
        <altitudeMode>clampToGround</altitudeMode>
        <outerBoundaryIs>
          <LinearRing>
            <coordinates>162.324474,-66.346775,0
162.328868,-66.312758,0
162.287608,-66.294041,0
162.297862,-66.254815,0
162.314708,-66.251397,0
162.556326,-66.436619,0
162.626150,-66.462498,0
162.568044,-66.526137,0
162.546397,-66.534601,0
162.471039,-66.506606,0
162.340505,-66.410252,0
162.290212,-66.397638,0
162.342947,-66.372491,0
162.349457,-66.360447,0
162.324474,-66.346775,0</coordinates>
          </LinearRing>
        </outerBoundaryIs>
      </Polygon>
    </Placemark>
  </Document>
</kml>
