<?xml version='1.0' encoding='UTF-8'?>
<kml xmlns="http://www.opengis.net/kml/2.2">
  <Document>
    <Placemark>
      <name>South Africa</name>
      <description>See: 2050-snapshot/domains/borders-geopolitics.md#antarctica</description>
      <Polygon>
        <extrude>1</extrude>
        <altitudeMode>clampToGround</altitudeMode>
        <outerBoundaryIs>
          <LinearRing>
            <coordinates>45.020885,-67.731624,0
45.020885,-67.731622,0
45.131114,-67.718440,0
45.208263,-67.724666,0
45.189764,-67.731200,0
45.248709,-67.715020,0
45.346934,-67.715427,0
45.403819,-67.695082,0
45.529552,-67.719334,0
45.585297,-67.744887,0
45.557465,-67.779962,0
45.517112,-67.797870,0
45.538707,-67.791683,0
45.557506,-67.779964,0
45.573131,-67.764095,0
45.583873,-67.747249,0
45.604015,-67.752742,0
45.624889,-67.757503,0
45.649058,-67.758235,0
45.673106,-67.754817,0
45.710216,-67.741878,0
45.710216,-67.741876,0
45.722911,-67.743831,0
45.750436,-67.760200,0
45.772227,-67.758559,0
45.739513,-67.708673,0
45.819347,-67.665216,0
45.848643,-67.657485,0
46.216970,-67.653009,0
46.225319,-67.656167,0
46.239757,-67.653255,0
46.254161,-67.650569,0
46.369029,-67.605037,0
46.380504,-67.595638,0
46.376720,-67.586849,0
46.367931,-67.579524,0
46.346690,-67.567994,0
46.306000,-67.559259,0
46.293142,-67.549412,0
46.289073,-67.523207,0
46.272309,-67.504002,0
46.311697,-67.473810,0
46.234548,-67.448663,0
46.259125,-67.416274,0
46.248220,-67.399591,0
46.251801,-67.373305,0
46.280772,-67.334242,0
46.377940,-67.296157,0
46.479991,-67.275323,0
46.583995,-67.274509,0
46.687755,-67.289158,0
46.766287,-67.275486,0
46.817149,-67.278985,0
46.868012,-67.267511,0
46.914399,-67.267022,0
46.981700,-67.289321,0
46.954926,-67.313084,0
46.963552,-67.332696,0
46.991710,-67.346449,0
47.305675,-67.369806,0
47.441091,-67.409438,0
47.327159,-67.433852,0
47.326884,-67.433992,0
47.327159,-67.433894,0
47.441051,-67.409480,0
47.465099,-67.428035,0
47.500255,-67.476619,0
47.520396,-67.496028,0
47.532848,-67.502132,0
47.563609,-67.521175,0
47.558973,-67.520937,0
47.605473,-67.523913,0
47.654918,-67.516780,0
47.682994,-67.525691,0
47.715587,-67.542049,0
47.746349,-67.553035,0
47.783336,-67.543025,0
47.838145,-67.557552,0
47.834117,-67.558162,0
47.771007,-67.582088,0
47.770516,-67.582203,0
47.771007,-67.582127,0
47.834158,-67.558201,0
47.875662,-67.564467,0
47.923350,-67.586602,0
47.881992,-67.597006,0
47.912730,-67.589290,0
47.951793,-67.614192,0
47.979747,-67.621394,0
48.008067,-67.625301,0
48.114268,-67.625301,0
48.129161,-67.622981,0
48.139537,-67.614803,0
48.148692,-67.604427,0
48.159434,-67.596126,0
48.185069,-67.586971,0
48.301524,-67.566097,0
48.329234,-67.567073,0
48.389293,-67.577693,0
48.375743,-67.570125,0
48.387096,-67.564266,0
48.398570,-67.565608,0
48.423717,-67.574519,0
48.442393,-67.577449,0
48.452403,-67.576473,0
48.473643,-67.558894,0
48.482066,-67.554256,0
48.516978,-67.540950,0
48.558360,-67.533504,0
48.567271,-67.528499,0
48.571818,-67.523115,0
48.569102,-67.517673,0
48.566580,-67.495294,0
48.582042,-67.474786,0
48.629405,-67.451918,0
49.011078,-67.394464,0
49.094493,-67.372735,0
49.174653,-67.377048,0
49.207530,-67.349379,0
49.198009,-67.338067,0
49.219981,-67.313735,0
49.256114,-67.298435,0
49.288271,-67.294167,0
49.256114,-67.298396,0
49.233165,-67.306453,0
49.221812,-67.312801,0
49.186534,-67.306331,0
49.000865,-67.293758,0
48.940929,-67.302058,0
48.844859,-67.290340,0
48.786265,-67.299129,0
48.765391,-67.292537,0
48.742931,-67.264583,0
48.756969,-67.261043,0
48.770274,-67.255672,0
48.795665,-67.241267,0
48.789561,-67.232600,0
48.779552,-67.226619,0
48.766490,-67.222713,0
48.747395,-67.217516,0
48.731619,-67.220798,0
48.640880,-67.218927,0
48.531993,-67.192478,0
48.475841,-67.188084,0
48.394542,-67.159275,0
48.354666,-67.121515,0
48.338878,-67.064874,0
48.342052,-67.036228,0
48.361095,-67.016371,0
48.588064,-66.937270,0
49.059337,-66.884861,0
49.216482,-66.818943,0
49.271251,-66.830743,0
49.327973,-66.883477,0
49.336599,-66.902927,0
49.335297,-66.939142,0
49.347483,-66.954658,0
49.347545,-66.954646,0
49.345348,-66.951839,0
49.385631,-66.978206,0
49.385631,-66.978204,0
49.465099,-67.009944,0
49.516013,-67.023343,0
49.793305,-67.028090,0
49.826834,-67.037286,0
49.882823,-67.078220,0
49.893077,-67.106622,0
49.851725,-67.149780,0
49.872325,-67.134090,0
49.884654,-67.117854,0
49.889171,-67.125911,0
49.890880,-67.129085,0
49.892955,-67.132259,0
49.895640,-67.135066,0
49.911998,-67.143123,0
49.933482,-67.145442,0
49.974498,-67.143001,0
49.974498,-67.142999,0
49.980601,-67.143977,0
50.006969,-67.161800,0
49.995869,-67.165459,0
50.093272,-67.154718,0
50.111990,-67.126397,0
50.147716,-67.115330,0
50.201671,-67.120701,0
50.302094,-67.161879,0
50.401866,-67.170994,0
50.471202,-67.195245,0
50.585948,-67.216404,0
50.642426,-67.241957,0
50.720714,-67.238214,0
50.694347,-67.222345,0
50.640147,-67.207452,0
50.619640,-67.184747,0
50.649913,-67.177667,0
50.747244,-67.183038,0
50.811046,-67.211114,0
50.881196,-67.216241,0
50.818533,-67.177830,0
50.853770,-67.164158,0
50.896169,-67.161310,0
50.978201,-67.168145,0
50.947113,-67.145929,0
50.943533,-67.132420,0
50.955414,-67.114028,0
50.926931,-67.120294,0
50.840017,-67.096856,0
50.692393,-67.081720,0
50.655284,-67.064630,0
50.584809,-67.056085,0
50.556651,-67.053643,0
50.459321,-67.068780,0
50.479828,-67.049412,0
50.482270,-67.007257,0
50.523611,-66.994887,0
50.451020,-66.978692,0
50.427745,-66.962579,0
50.445811,-66.940118,0
50.493826,-66.902032,0
50.548513,-66.883396,0
50.579600,-66.850518,0
50.761729,-66.821059,0
50.829845,-66.774672,0
50.775727,-66.754815,0
50.734060,-66.767755,0
50.674815,-66.758477,0
50.613780,-66.761977,0
50.510427,-66.792250,0
50.454112,-66.772556,0
50.286143,-66.768976,0
50.239513,-66.743097,0
50.196056,-66.611017,0
50.193614,-66.570489,0
50.227550,-66.522231,0
50.240977,-66.475356,0
50.322032,-66.393813,0
50.424490,-66.337823,0
50.537364,-66.303888,0
51.052582,-66.255955,0
51.181163,-66.215753,0
51.323253,-66.227960,0
51.352306,-66.221775,0
51.403575,-66.162205,0
51.478282,-66.120538,0
51.613780,-66.094008,0
51.772146,-66.037205,0
52.221690,-65.972914,0
52.847667,-65.962091,0
53.278005,-65.899998,0
53.400238,-65.901951,0
53.734548,-65.845880,0
53.790212,-65.845392,0
53.957856,-65.884373,0
54.013357,-65.889744,0
54.241059,-65.876397,0
55.183442,-65.930922,0
55.611583,-66.027927,0
55.770518,-66.115655,0
55.861339,-66.119806,0
55.844737,-66.149102,0
55.871755,-66.181329,0
55.915050,-66.209080,0
55.947276,-66.224786,0
56.036143,-66.247003,0
56.126231,-66.309747,0
56.210704,-66.319920,0
56.241954,-66.368097,0
56.330753,-66.410932,0
56.309825,-66.398860,0
56.298106,-66.394099,0
56.379771,-66.398494,0
56.447014,-66.397274,0
56.447276,-66.397149,0
56.516775,-66.387953,0
56.807791,-66.405450,0
57.207693,-66.531183,0
57.276052,-66.581231,0
57.286957,-66.603692,0
57.281423,-66.626397,0
57.249522,-66.653416,0
57.248057,-66.664972,0
57.283702,-66.692966,0
57.287771,-66.701430,0
57.281423,-66.708754,0
57.242442,-66.718927,0
57.014659,-66.729262,0
56.954763,-66.708429,0
56.796397,-66.714614,0
56.622244,-66.681329,0
56.611730,-66.676004,0
56.622203,-66.681331,0
56.743663,-66.709407,0
56.782481,-66.713313,0
56.800914,-66.741634,0
56.807872,-66.746272,0
56.769054,-66.768245,0
56.682872,-66.783138,0
56.644176,-66.796321,0
56.676036,-66.844417,0
56.688731,-66.860408,0
56.686207,-66.859634,0
56.695567,-66.862563,0
56.659353,-66.890313,0
56.706798,-66.899672,0
56.658214,-66.933282,0
56.601727,-66.943370,0
56.634044,-66.940486,0
56.658214,-66.933284,0
56.680186,-66.920345,0
56.702037,-66.903621,0
56.713023,-66.908626,0
56.717784,-66.911189,0
56.722545,-66.914607,0
56.740367,-66.920589,0
56.759166,-66.915340,0
56.795665,-66.898982,0
56.814586,-66.897273,0
56.855357,-66.900691,0
56.884288,-66.906062,0
56.915294,-66.903987,0
56.924083,-66.907649,0
56.934337,-66.922786,0
56.942638,-66.923030,0
56.983165,-66.912044,0
57.020030,-66.914119,0
57.055186,-66.925594,0
57.055186,-66.925592,0
57.090465,-66.942561,0
57.099864,-66.955623,0
57.085094,-66.966121,0
57.062266,-66.973445,0
57.047374,-66.976497,0
56.964366,-66.977718,0
56.969249,-66.980403,0
56.978526,-66.987605,0
56.983531,-66.990657,0
56.954234,-67.014217,0
56.942149,-67.026668,0
56.933360,-67.045223,0
56.933360,-67.047341,0
56.967947,-67.046157,0
57.277517,-67.084893,0
57.359141,-67.087823,0
57.308930,-67.042576,0
57.375255,-67.030043,0
57.508067,-67.031834,0
57.562755,-66.994236,0
57.593516,-66.989923,0
57.666189,-67.002618,0
57.721202,-67.023614,0
57.827810,-67.033380,0
57.873871,-67.060642,0
57.957042,-67.074314,0
58.005138,-67.108331,0
58.073497,-67.094008,0
58.136338,-67.098393,0
58.123790,-67.093929,0
58.081432,-67.094051,0
58.084605,-67.061458,0
58.104503,-67.051204,0
58.250499,-67.054744,0
58.278819,-67.062434,0
58.270763,-67.066341,0
58.251353,-67.081966,0
58.261119,-67.086726,0
58.271129,-67.089900,0
58.281505,-67.091609,0
58.292369,-67.091731,0
58.281749,-67.112483,0
58.277599,-67.128596,0
58.280650,-67.139949,0
58.294078,-67.148128,0
58.270274,-67.148006,0
58.268017,-67.148823,0
58.270274,-67.148045,0
58.426280,-67.148614,0
58.420665,-67.186782,0
58.455333,-67.194920,0
58.688731,-67.156996,0
58.870616,-67.165134,0
58.915863,-67.177504,0
59.044119,-67.236912,0
59.093761,-67.244724,0
59.019867,-67.304946,0
58.988617,-67.310154,0
58.734049,-67.276305,0
58.952891,-67.305476,0
58.926890,-67.312312,0
58.837657,-67.346858,0
58.842296,-67.352962,0
58.793346,-67.341243,0
58.757823,-67.336849,0
58.725963,-67.338191,0
58.697794,-67.342764,0
58.793305,-67.341241,0
58.939138,-67.376235,0
59.051524,-67.428643,0
59.093272,-67.436700,0
59.126964,-67.424981,0
59.128754,-67.446547,0
59.120392,-67.455075,0
59.128795,-67.446590,0
59.127452,-67.430232,0
59.142100,-67.424617,0
59.151988,-67.419978,0
59.159190,-67.414729,0
59.163219,-67.409236,0
59.141246,-67.405452,0
59.120128,-67.398006,0
59.128184,-67.371394,0
59.133433,-67.366878,0
59.227183,-67.350520,0
59.249156,-67.351619,0
59.273936,-67.357234,0
59.269420,-67.361873,0
59.267100,-67.365413,0
59.263805,-67.368343,0
59.255748,-67.371150,0
59.382091,-67.371761,0
59.387584,-67.373836,0
59.399669,-67.381770,0
59.406993,-67.383724,0
59.413097,-67.382381,0
59.430186,-67.375179,0
59.437999,-67.373225,0
59.456065,-67.373225,0
59.472789,-67.376033,0
59.488536,-67.382259,0
59.503429,-67.392757,0
59.486217,-67.401790,0
59.510387,-67.406184,0
59.519054,-67.406551,0
59.522960,-67.422542,0
59.533824,-67.435603,0
59.548839,-67.445125,0
59.556285,-67.443294,0
59.585582,-67.432918,0
59.599864,-67.432430,0
59.623546,-67.442561,0
59.629161,-67.444270,0
59.633678,-67.444270,0
59.644648,-67.441467,0
59.645274,-67.438735,0
59.666677,-67.421563,0
59.648123,-67.415948,0
59.646251,-67.406183,0
59.657481,-67.397231,0
60.000000,-67.403602,0
60.000000,-89.999722,0
45.000000,-89.999722,0
45.000000,-67.731430,0
45.038562,-67.731855,0
45.020885,-67.731624,0</coordinates>
          </LinearRing>
        </outerBoundaryIs>
      </Polygon>
    </Placemark>
    <Placemark>
      <name>South Africa</name>
      <description>See: 2050-snapshot/domains/borders-geopolitics.md#antarctica</description>
      <Polygon>
        <extrude>1</extrude>
        <altitudeMode>clampToGround</altitudeMode>
        <outerBoundaryIs>
          <LinearRing>
            <coordinates>48.773692,-66.720473,0
48.808930,-66.767348,0
48.763357,-66.783298,0
48.594737,-66.777520,0
48.399913,-66.808038,0
48.312185,-66.809503,0
48.281586,-66.767185,0
48.287852,-66.736261,0
48.305024,-66.721612,0
48.375255,-66.699151,0
48.725352,-66.703058,0
48.773692,-66.720473,0</coordinates>
          </LinearRing>
        </outerBoundaryIs>
      </Polygon>
    </Placemark>
  </Document>
</kml>
