<?xml version='1.0' encoding='UTF-8'?>
<kml xmlns="http://www.opengis.net/kml/2.2">
  <Document>
    <name>Absaroka</name>
    <Placemark>
      <name>Absaroka</name>
      <Polygon>
        <outerBoundaryIs>
          <LinearRing>
            <coordinates>-112.034317,44.057358,0 -112.033664,44.144049,0 -111.913601,44.144337,0 -111.913744,44.18779,0 -111.857851,44.187759,0 -111.852276,44.316996,0 -111.791541,44.317021,0 -111.791624,44.40161,0 -111.617437,44.401254,0 -111.6173,44.550281,0 -111.632731,44.553268,0 -111.586507,44.562657,0 -111.51527,44.537016,0 -111.463673,44.541591,0 -111.469318,44.557552,0 -111.509975,44.565159,0 -111.50134,44.57249,0 -111.525198,44.6052,0 -111.502489,44.62682,0 -111.516167,44.644059,0 -111.491934,44.643134,0 -111.472255,44.666896,0 -111.488784,44.705643,0 -111.442733,44.720232,0 -111.414273,44.710739,0 -111.392475,44.752369,0 -111.355153,44.727195,0 -111.323052,44.728555,0 -111.266804,44.667512,0 -111.278477,44.651265,0 -111.253183,44.651173,0 -111.220145,44.622996,0 -111.240332,44.613687,0 -111.227504,44.577172,0 -111.18103,44.569231,0 -111.173755,44.549333,0 -111.131382,44.532429,0 -111.127383,44.49762,0 -111.052434,44.478411,0 -111.054556,45.000955,0 -109.798486,45.00225399999999,0 -109.798666,45.17212799999999,0 -110.228052,45.172129,0 -110.220908,45.784973,0 -110.292662,45.78505700000001,0 -110.273337,46.710509,0 -110.33376,46.672056,0 -110.375292,46.692912,0 -110.466812,46.678795,0 -110.483057,46.70147,0 -110.561491,46.73208799999999,0 -110.563704,46.771363,0 -110.631712,46.779645,0 -110.650755,46.82450399999999,0 -110.678922,46.824774,0 -110.698301,46.845035,0 -110.754751,46.846584,0 -110.759828,46.900162,0 -110.856038,46.921347,0 -110.85552,46.942987,0 -110.925452,46.985159,0 -111.084285,47.010613,0 -111.104792,47.02903599999999,0 -111.076802,47.045283,0 -111.080918,47.088033,0 -111.158559,47.088301,0 -111.158386,47.011771,0 -111.539373,47.000559,0 -111.539214,46.91337099999999,0 -111.790236,46.91376399999999,0 -111.789278,47.128922,0 -111.896359,47.121281,0 -111.896286,47.13574100000001,0 -111.964183,47.15875100000001,0 -111.977382,47.183932,0 -112.044829,47.19271100000001,0 -112.047781,47.516034,0 -112.278,47.505623,0 -112.319606,47.54305,0 -112.405595,47.552423,0 -112.405258,47.57652,0 -112.429506,47.606094,0 -112.509389,47.61928200000001,0 -112.520943,47.64307000000001,0 -112.548591,47.65182399999999,0 -112.576811,47.633687,0 -112.732078,47.61713099999999,0 -112.776608,47.598028,0 -112.856907,47.629491,0 -112.91422,47.694958,0 -112.901992,47.732207,0 -112.926599,47.761527,0 -112.913256,47.826216,0 -112.952975,47.904852,0 -112.97431,47.913308,0 -112.984605,47.953723,0 -112.912591,47.946407,0 -112.878701,47.977163,0 -112.90767,48.02959,0 -112.950029,48.03352699999999,0 -112.93777,48.060926,0 -112.981771,48.07376,0 -112.996088,48.10609300000001,0 -112.984927,48.120455,0 -113.030624,48.133309,0 -113.051183,48.12131,0 -113.069823,48.152754,0 -113.129014,48.135318,0 -113.181746,48.17473500000001,0 -113.230906,48.170426,0 -113.236777,48.247211,0 -113.289585,48.265339,0 -113.387137,48.342146,0 -113.334014,48.381944,0 -113.356379,48.42409199999999,0 -113.411016,48.419536,0 -113.47916,48.45311499999999,0 -113.467372,48.547555,0 -113.543853,48.587025,0 -113.604188,48.57539300000001,0 -113.632257,48.598819,0 -113.663557,48.585639,0 -113.750454,48.614335,0 -113.745569,48.652773,0 -113.725891,48.67146,0 -113.740546,48.692906,0 -113.702657,48.717935,0 -113.771663,48.78775700000001,0 -113.756941,48.818318,0 -113.790539,48.84553,0 -113.81075,48.83858399999999,0 -113.841588,48.855842,0 -113.875706,48.837269,0 -113.911619,48.849998,0 -113.956864,48.817474,0 -114.002245,48.83187,0 -113.993032,48.854123,0 -114.058061,48.889065,0 -114.013602,48.910082,0 -114.025047,48.933461,0 -114.047615,48.93671200000001,0 -114.021207,48.961343,0 -114.050365,48.96336699999999,0 -114.068179,48.998919,0 -116.049086,49.000846,0 -116.049108,47.976842,0 -116.019758,47.96324,0 -115.918772,47.85365599999999,0 -115.852312,47.827857,0 -115.831944,47.755983,0 -115.797332,47.75712800000001,0 -115.773957,47.717904,0 -115.722789,47.694725,0 -115.736497,47.654738,0 -115.694444,47.623761,0 -115.68855,47.594333,0 -115.755663,47.5483,0 -115.698724,47.531653,0 -115.711398,47.516771,0 -115.686264,47.48494,0 -115.629974,47.479633,0 -115.640133,47.459714,0 -115.717039,47.452575,0 -115.759304,47.42386199999999,0 -115.721435,47.42571400000001,0 -115.657304,47.400208,0 -115.642921,47.37736699999999,0 -115.577639,47.367404,0 -115.549074,47.347205,0 -115.528511,47.299314,0 -115.483637,47.282134,0 -115.320147,47.25670000000001,0 -115.291579,47.21000100000001,0 -115.300504,47.18813899999999,0 -115.262422,47.181687,0 -115.245265,47.151751,0 -115.144341,47.101977,0 -115.131134,47.068956,0 -115.071728,47.02585499999999,0 -115.048383,46.969819,0 -115.001274,46.971901,0 -114.960964,46.930408,0 -114.925295,46.918749,0 -114.948039,46.85963999999999,0 -114.898236,46.822001,0 -114.895189,46.80163,0 -114.865779,46.814529,0 -114.829613,46.782967,0 -114.784838,46.780019,0 -114.765578,46.745623,0 -114.788555,46.71366100000001,0 -114.767272,46.697195,0 -114.713923,46.715061,0 -114.698594,46.74045100000001,0 -114.664572,46.739084,0 -114.621526,46.707879,0 -114.642246,46.67361799999999,0 -114.605269,46.635822,0 -114.541304,46.649656,0 -114.467095,46.631764,0 -114.424424,46.660648,0 -114.358528,46.670697,0 -114.321118,46.647514,0 -114.322537,46.611284,0 -114.343733,46.590456,0 -114.329788,46.57722,0 -114.347221,46.55242100000001,0 -114.342794,46.51825699999999,0 -114.40255,46.500207,0 -114.368541,46.43795900000001,0 -114.422212,46.387331,0 -114.410493,46.365143,0 -114.432796,46.3061,0 -114.425441,46.287856,0 -114.47072,46.26604100000001,0 -114.448564,46.232964,0 -114.444091,46.169273,0 -114.514977,46.167415,0 -114.527096,46.146218,0 -114.520513,46.12491,0 -114.460475,46.09779,0 -114.469438,46.06182999999999,0 -114.507419,46.031861,0 -114.480505,46.030424,0 -114.479992,45.99290200000001,0 -114.411755,45.97787000000001,0 -114.402524,45.95794399999999,0 -114.431396,45.93604,0 -114.388557,45.882189,0 -114.410706,45.851824,0 -114.438348,45.862555,0 -114.509303,45.845531,0 -114.566465,45.77331,0 -114.495385,45.70305500000001,0 -114.514993,45.685032,0 -114.499049,45.67874,0 -114.509065,45.656806,0 -114.563987,45.637621,0 -114.538471,45.605764,0 -114.571537,45.549603,0 -114.631996,45.519177,0 -114.663725,45.47100500000001,0 -114.774378,45.51360999999999,0 -114.798042,45.496793,0 -114.793207,45.43633400000001,0 -114.769127,45.434557,0 -114.763189,45.41408999999999,0 -114.716235,45.39548,0 -114.675205,45.3652,0 -114.66347,45.336687,0 -114.593325,45.297415,0 -114.675715,45.232729,0 -114.73227,45.151155,0 -114.721482,45.121023,0 -114.733191,45.09449,0 -114.719485,45.08796699999999,0 -114.735991,44.974869,0 -114.723272,44.934387,0 -114.735905,44.925044,0 -114.723294,44.891177,0 -114.768911,44.872444,0 -114.766449,44.842742,0 -114.79309,44.836111,0 -114.813167,44.806914,0 -114.913627,44.75755,0 -114.947413,44.723038,0 -114.995963,44.728718,0 -115.00962,44.713367,0 -115.017155,44.743422,0 -115.032816,44.734974,0 -115.038655,44.750652,0 -115.088934,44.771077,0 -115.151937,44.728592,0 -115.139369,44.714875,0 -115.167998,44.647618,0 -115.198961,44.624182,0 -115.280531,44.611468,0 -115.305042,44.579592,0 -115.294503,44.532124,0 -115.247135,44.519717,0 -115.223645,44.463449,0 -115.231361,44.415347,0 -115.284281,44.358222,0 -115.288934,44.325855,0 -115.249734,44.311087,0 -115.243468,44.292244,0 -115.236791,44.30793,0 -115.213114,44.30451,0 -115.201221,44.282399,0 -115.175249,44.29298,0 -115.156613,44.246948,0 -115.174831,44.235464,0 -115.167684,44.20284,0 -115.107931,44.17006,0 -115.082361,44.17616,0 -115.024181,44.155478,0 -115.018491,44.138789,0 -115.046725,44.119971,0 -114.996903,44.090551,0 -115.035298,44.069438,0 -115.048135,44.037803,0 -115.017628,44.012521,0 -114.982558,44.011188,0 -114.987427,43.99224,0 -114.967343,43.982088,0 -114.991311,43.953149,0 -114.971351,43.938308,0 -114.888111,43.98911,0 -114.813873,43.992941,0 -114.81379,43.927772,0 -114.660061,43.921884,0 -114.606151,43.89362,0 -114.56235,43.844368,0 -114.523498,43.848558,0 -114.515108,43.894739,0 -114.485066,43.904504,0 -114.359293,43.874177,0 -114.343532,43.890279,0 -114.292484,43.887062,0 -114.278814,43.878849,0 -114.275725,43.831138,0 -114.142407,43.774368,0 -114.116996,43.740347,0 -114.070019,43.734696,0 -114.029718,43.773361,0 -114.004151,43.764994,0 -113.974222,43.707825,0 -113.911904,43.671724,0 -113.904918,43.649719,0 -113.862703,43.645249,0 -113.835607,43.604909,0 -113.813355,43.600059,0 -113.802376,43.569987,0 -113.727656,43.59014,0 -113.694737,43.579559,0 -113.665557,43.511766,0 -113.67283,43.500359,0 -113.634325,43.497474,0 -113.63523,43.367546,0 -113.36191,43.36716,0 -113.361958,43.284678,0 -112.947016,43.284821,0 -112.936835,43.449386,0 -112.816704,43.449164,0 -112.816278,43.535949,0 -112.698891,43.540052,0 -112.694744,44.058464,0 -112.034317,44.057358,0</coordinates>
          </LinearRing>
        </outerBoundaryIs>
      </Polygon>
    </Placemark>
  </Document>
</kml>
