<?xml version="1.0" encoding="UTF-8"?>
<kml xmlns="http://www.opengis.net/kml/2.2"
     xmlns:gx="http://www.google.com/kml/ext/2.2">
  <Placemark>
    <name>Akimiski Island</name>
    <Polygon>
      <outerBoundaryIs>
        <LinearRing>
          <coordinates>
            -82.20,53.12,0
            -82.00,53.20,0
            -81.65,53.12,0
            -81.40,52.95,0
            -81.20,52.80,0
            -81.15,52.72,0
            -81.40,52.70,0
            -81.80,52.75,0
            -82.10,52.85,0
            -82.30,53.00,0
            -82.20,53.12,0
          </coordinates>
        </LinearRing>
      </outerBoundaryIs>
    </Polygon>
  </Placemark>
</kml>
