<?xml version='1.0' encoding='UTF-8'?>
<kml xmlns="http://www.opengis.net/kml/2.2">
  <Document><name>Alleghenia</name><Placemark id="5C7726A3F9000235">
						<name>Alleghenia</name>
						<description>See: 2050-snapshot/domains/borders-geopolitics.md#alleghenia</description>
						<styleUrl>#__managed_style_06DADB02173F969C6F6B</styleUrl>
						<Polygon>
							<outerBoundaryIs>
								<LinearRing>
									<coordinates>
										-79.829111,41.62207,0 -79.850054,41.587056,0 -79.892732,41.574138,0 -79.92334,41.537596,0 -79.99848799999999,41.500948,0 -79.999779,41.171861,0 -80.166472,41.000928,0 -80.14511,40.613447,0 -80.180755,40.609107,0 -80.36080200000001,40.477739,0 -80.51899,40.477363,0 -80.518991,40.638801,0 -80.576736,40.614224,0 -80.627171,40.619936,0 -80.665892,40.587728,0 -80.595494,40.475266,0 -80.612195,40.402667,0 -80.633596,40.390467,0 -80.609695,40.374968,0 -80.599895,40.317669,0 -80.619297,40.26517,0 -80.652098,40.24497,0 -80.70460199999999,40.154823,0 -80.709102,40.101472,0 -80.738604,40.075672,0 -80.740126,39.970793,0 -80.76447899999999,39.95025,0 -80.756432,39.91393,0 -80.80601799999999,39.91713,0 -80.790761,39.86728,0 -80.824276,39.847159,0 -80.82607899999999,39.798584,0 -80.869933,39.763555,0 -80.83346299999999,39.720812,0 -77.48999999999999,39.720119,0 -77.48999999999999,39.78,0 -77.53,39.87,0 -77.37,39.93,0 -77.405,40.01,0 -77.36,40.11,0 -77.27,40.2,0 -77.27,40.28,0 -76.95,40.37,0 -76.59999999999999,40.515,0 -76.34,40.575,0 -75.95,40.74,0 -75.79000000000001,40.86,0 -75.68000000000001,40.92,0 -75.08,41.05,0 -74.92,41.38,0 -74.92,41.47708,0 -74.983341,41.480894,0 -74.98437199999999,41.506611,0 -75.003151,41.508101,0 -75.02475699999999,41.535099,0 -75.018524,41.551802,0 -75.074613,41.605711,0 -75.044224,41.617978,0 -75.052736,41.688393,0 -75.06883000000001,41.708161,0 -75.049862,41.713309,0 -75.053431,41.752538,0 -75.10464,41.774203,0 -75.07217199999999,41.813732,0 -75.11333399999999,41.822782,0 -75.11559800000001,41.844638,0 -75.161541,41.849836,0 -75.170565,41.871608,0 -75.185254,41.85993,0 -75.260527,41.8638,0 -75.279094,41.938917,0 -75.293713,41.954593,0 -75.312817,41.950182,0 -75.359579,41.999445,0 -76.927059,42.001674,0 -79.61083600000001,41.998989,0 -79.613147,41.623863,0 -79.829111,41.62207,0 
									</coordinates>
								</LinearRing>
							</outerBoundaryIs>
						</Polygon>
					</Placemark>
				</Document>
</kml>
