<?xml version='1.0' encoding='UTF-8'?>
<kml xmlns="http://www.opengis.net/kml/2.2">
  <Document><name>Appalachia</name><Placemark id="5C7726A3F9000237">
						<name>Appalachia</name>
						<description>See: 2050-snapshot/domains/borders-geopolitics.md#appalachia</description>
						<styleUrl>#__managed_style_0D8FC28CB13F9581089C</styleUrl>
						<Polygon>
							<outerBoundaryIs>
								<LinearRing>
									<coordinates>
										-81.92264400000001,36.616213,0 -81.627599,36.611613,0 -81.602216,36.641898,0 -81.547229,36.65648,0 -81.531194,36.685012,0 -81.54395700000001,36.701517,0 -81.529337,36.70636,0 -81.268055,36.762492,0 -81.08851,36.767422,0 -81.08651,36.787522,0 -81.030306,36.814522,0 -80.812735,36.853232,0 -80.68259,36.895144,0 -80.680826,36.909229,0 -80.55304700000001,36.970149,0 -80.518314,37.011655,0 -80.49336,36.981477,0 -80.451612,37.021453,0 -80.417126,37.0017,0 -80.41399699999999,37.022107,0 -80.347858,37.021593,0 -80.283675,37.07883,0 -80.128674,37.122901,0 -80.08651,37.161748,0 -80.005309,37.167816,0 -79.962822,37.137274,0 -79.847217,37.225406,0 -79.858405,37.267155,0 -79.84419800000001,37.31775,0 -79.788679,37.34935,0 -79.775352,37.377319,0 -79.81420300000001,37.403654,0 -79.756185,37.425384,0 -79.677468,37.483473,0 -79.653498,37.481959,0 -79.628162,37.453604,0 -79.582745,37.451878,0 -79.55895599999999,37.496422,0 -79.545551,37.489512,0 -79.496545,37.537107,0 -79.44110000000001,37.563445,0 -79.457504,37.599323,0 -79.445277,37.618248,0 -79.345235,37.660625,0 -79.264674,37.794694,0 -79.231557,37.813175,0 -79.208741,37.788928,0 -79.170751,37.80056,0 -79.14438800000001,37.856096,0 -79.157388,37.891003,0 -79.06228299999999,37.91752,0 -79.044329,37.890903,0 -79.00579,37.881587,0 -78.94206800000001,37.940237,0 -78.89905299999999,37.948862,0 -78.89261,37.974964,0 -78.90694499999999,37.987538,0 -78.87369200000001,38.028624,0 -78.77891,38.084369,0 -78.788073,38.126404,0 -78.74517400000001,38.214431,0 -78.706566,38.246438,0 -78.662188,38.253476,0 -78.651214,38.293463,0 -78.55158299999999,38.336318,0 -78.544528,38.362518,0 -78.522792,38.36951,0 -78.465073,38.447,0 -78.441428,38.490491,0 -78.442767,38.527775,0 -78.385221,38.557582,0 -78.38319300000001,38.588319,0 -78.32586999999999,38.630718,0 -78.314386,38.682509,0 -78.332216,38.705638,0 -78.318775,38.737866,0 -78.279337,38.762215,0 -78.200885,38.77666,0 -78.152641,38.854384,0 -78.062016,38.891926,0 -78.07530199999999,38.907273,0 -78.06210400000001,38.930312,0 -77.862825,39.080979,0 -77.828157,39.132329,0 -77.734899,39.312409,0 -77.67712299999999,39.324077,0 -77.616156,39.468371,0 -77.622604,39.507598,0 -77.570182,39.619998,0 -77.52016399999999,39.640678,0 -77.492874,39.676425,0 -77.50836,39.684072,0 -77.469145,39.720018,0 -78.92841900000001,39.722779,0 -80.83346299999999,39.720812,0 -80.833882,39.703497,0 -80.863698,39.691724,0 -80.88036,39.620706,0 -80.92584100000001,39.617396,0 -80.97043600000001,39.590127,0 -81.070594,39.515991,0 -81.128533,39.449375,0 -81.185946,39.430731,0 -81.217315,39.38759,0 -81.27071599999999,39.385914,0 -81.37967399999999,39.342081,0 -81.412706,39.394618,0 -81.456143,39.409274,0 -81.557547,39.338774,0 -81.57024699999999,39.267675,0 -81.656138,39.277355,0 -81.689483,39.266043,0 -81.692395,39.226443,0 -81.726973,39.215068,0 -81.755815,39.180524,0 -81.745453,39.098078,0 -81.775554,39.078378,0 -81.813855,39.079278,0 -81.803355,39.047678,0 -81.764253,39.015279,0 -81.78182,38.964935,0 -81.759995,38.925828,0 -81.827354,38.945898,0 -81.858921,38.89019,0 -81.89854099999999,38.874582,0 -81.928,38.893492,0 -81.89847,38.929603,0 -81.93318600000001,38.987659,0 -81.98115799999999,38.994351,0 -82.00599,39.029387,0 -82.03774900000001,39.023865,0 -82.14316700000001,38.898079,0 -82.144867,38.84048,0 -82.221566,38.787187,0 -82.182467,38.708782,0 -82.177267,38.603784,0 -82.20517100000001,38.591719,0 -82.26206999999999,38.598183,0 -82.29127099999999,38.578983,0 -82.30422299999999,38.496308,0 -82.33033500000001,38.4445,0 -82.571613,38.405138,0 -82.59348199999999,38.418252,0 -82.61045799999999,38.471457,0 -82.665481,38.505737,0 -82.810637,38.393024,0 -82.817454,38.373935,0 -82.912712,38.398949,0 -82.970648,38.393666,0 -83.05156599999999,38.46524,0 -83.16531999999999,38.504595,0 -83.18850500000001,38.496071,0 -83.18641100000001,38.469428,0 -83.213515,38.454524,0 -83.207514,38.441177,0 -83.23721,38.426472,0 -83.228888,38.344147,0 -83.24723899999999,38.330705,0 -83.356336,38.321869,0 -83.40066400000001,38.389855,0 -83.452848,38.381799,0 -83.461195,38.359716,0 -83.49926600000001,38.349351,0 -83.488086,38.324496,0 -83.514281,38.292054,0 -83.50716,38.269447,0 -83.564335,38.216606,0 -83.63517299999999,38.190245,0 -83.59072999999999,38.171526,0 -83.62164300000001,38.148613,0 -83.60585399999999,38.124104,0 -83.584087,38.146256,0 -83.548751,38.143074,0 -83.55916499999999,38.116109,0 -83.51992,38.115885,0 -83.53442,38.094693,0 -83.51415,38.069804,0 -83.505083,38.088215,0 -83.465817,38.08431,0 -83.464018,38.068121,0 -83.50109399999999,38.049025,0 -83.574989,38.058883,0 -83.58053,38.011702,0 -83.60982,38.007159,0 -83.65929300000001,38.028261,0 -83.774353,37.990127,0 -83.77526899999999,37.939077,0 -83.756367,37.899866,0 -83.629941,37.825165,0 -83.70797399999999,37.716463,0 -83.7496,37.714846,0 -83.822121,37.665578,0 -83.80812299999999,37.636035,0 -83.864418,37.617313,0 -83.90557,37.542856,0 -83.885262,37.517688,0 -83.88395300000001,37.477335,0 -83.84249800000001,37.439521,0 -83.794865,37.350785,0 -83.784975,37.348717,0 -83.791826,37.330319,0 -83.88198,37.306932,0 -83.901574,37.25374,0 -83.940663,37.258641,0 -83.94096,37.202743,0 -83.969571,37.168876,0 -83.925405,37.111768,0 -83.885673,37.118767,0 -83.865342,37.103884,0 -83.867817,37.083121,0 -83.887719,37.075119,0 -83.871315,37.054919,0 -83.922336,37.036413,0 -83.93167800000001,36.99641,0 -83.959138,36.977273,0 -84.032312,36.988628,0 -84.094206,36.954304,0 -84.06517700000001,36.853433,0 -84.039508,36.848694,0 -84.027514,36.818644,0 -83.97794500000001,36.796623,0 -83.986383,36.758743,0 -83.968546,36.760923,0 -83.958534,36.727245,0 -83.877503,36.687259,0 -83.95623399999999,36.645491,0 -83.92625200000001,36.606531,0 -83.930761,36.587694,0 -83.690714,36.582581,0 -83.67512600000001,36.600777,0 -81.934144,36.594213,0 -81.92264400000001,36.616213,0 
									</coordinates>
								</LinearRing>
							</outerBoundaryIs>
						</Polygon>
					</Placemark>
				</Document>
</kml>
