<?xml version='1.0' encoding='UTF-8'?>
<kml xmlns="http://www.opengis.net/kml/2.2">
  <Document><name>Arkansas</name><Placemark id="5C7726A3F9000239">
						<name>Arkansas</name>
						<description>See: 2050-snapshot/domains/borders-geopolitics.md#arkansas</description>
						<styleUrl>#__managed_style_02E4C6288E3F9977A254</styleUrl>
						<Polygon>
							<outerBoundaryIs>
								<LinearRing>
									<coordinates>
										-92.222825,33.00908,0 -91.16609499999998,33.004291,0 -91.12832600000002,33.034282,0 -91.124639,33.064127,0 -91.20016699999999,33.10693,0 -91.20199499999998,33.123125,0 -91.183662,33.141691,0 -91.12807799999999,33.128914,0 -91.085707,33.137189,0 -91.08078700000002,33.182213,0 -91.10026000000001,33.219428,0 -91.070697,33.227302,0 -91.04362399999999,33.274636,0 -91.07853,33.283306,0 -91.10614200000001,33.241799,0 -91.141615,33.299539,0 -91.142219,33.348989,0 -91.06444400000001,33.418462,0 -91.058077,33.446537,0 -91.087034,33.45129,0 -91.099535,33.407209,0 -91.141936,33.38006,0 -91.208113,33.402007,0 -91.199354,33.418321,0 -91.131885,33.430063,0 -91.117786,33.458081,0 -91.16801899999999,33.49833,0 -91.17650699999999,33.444627,0 -91.23518100000001,33.438972,0 -91.18259999999999,33.499185,0 -91.23339200000001,33.562747,0 -91.16485500000002,33.570175,0 -91.12868,33.608475,0 -91.159986,33.642897,0 -91.218855,33.660122,0 -91.23063400000001,33.677147,0 -91.21787500000002,33.697997,0 -91.16036699999999,33.706602,0 -91.091351,33.657764,0 -91.03098700000001,33.679412,0 -91.06052899999999,33.71513,0 -91.11735299999999,33.70526,0 -91.14880700000001,33.73136,0 -91.13405900000001,33.782893,0 -91.01837000000002,33.764131,0 -90.988466,33.78453,0 -91.049083,33.816026,0 -91.070194,33.84534,0 -91.06977700000002,33.872721,0 -91.01019400000001,33.93159,0 -91.08775300000001,33.959313,0 -91.08620200000001,34.006418,0 -91.04871199999999,33.99268,0 -91.01894799999999,34.003225,0 -91.000108,33.966428,0 -90.966173,33.964663,0 -90.96154799999999,33.979945,0 -90.98818399999999,34.019211,0 -90.896253,34.025218,0 -90.871083,34.081177,0 -90.88262800000001,34.096615,0 -90.921294,34.093514,0 -90.947689,34.109574,0 -90.95864400000001,34.135484,0 -90.91001,34.165508,0 -90.84716800000001,34.136884,0 -90.807564,34.161821,0 -90.81657199999999,34.183023,0 -90.91442499999998,34.195726,0 -90.93554799999998,34.237847,0 -90.906334,34.244382,0 -90.89658,34.2258,0 -90.84714900000002,34.20613,0 -90.831773,34.276936,0 -90.76562300000001,34.269513,0 -90.73802499999999,34.289279,0 -90.764393,34.363675,0 -90.67624499999999,34.371111,0 -90.693129,34.32257,0 -90.66934299999998,34.31302,0 -90.657488,34.322231,0 -90.658542,34.375705,0 -90.586232,34.409172,0 -90.57769399999999,34.430975,0 -90.592662,34.490579,0 -90.53962300000001,34.553925,0 -90.591144,34.619204,0 -90.57010200000001,34.693432,0 -90.541511,34.68309,0 -90.55510399999999,34.646236,0 -90.53210799999999,34.627327,0 -90.462816,34.684074,0 -90.474166,34.705277,0 -90.532444,34.696237,0 -90.57194399999999,34.712777,0 -90.539444,34.755277,0 -90.544167,34.791667,0 -90.51407100000002,34.800054,0 -90.492777,34.772499,0 -90.52416600000001,34.731388,0 -90.491666,34.721388,0 -90.44842300000001,34.739117,0 -90.476455,34.793587,0 -90.45537899999999,34.820785,0 -90.481264,34.881066,0 -90.436561,34.882731,0 -90.429366,34.866609,0 -90.449691,34.83992,0 -90.438729,34.825248,0 -90.389393,34.830665,0 -90.338449,34.858517,0 -90.30738399999998,34.846195,0 -90.317741,34.871058,0 -90.257858,34.893385,0 -90.24133399999999,34.919033,0 -90.24593500000002,34.948721,0 -90.30733600000002,34.991927,0 -90.29696799999999,35.038175,0 -90.20731499999999,35.025773,0 -90.18115700000001,35.053943,0 -90.16735799999999,35.123585,0 -90.14180500000001,35.133041,0 -90.08966700000002,35.118053,0 -90.06518199999999,35.139401,0 -90.116743,35.186906,0 -90.07546600000001,35.214047,0 -90.092603,35.246775,0 -90.15209400000001,35.255989,0 -90.16879400000001,35.279088,0 -90.157325,35.301492,0 -90.109966,35.304988,0 -90.07861300000002,35.380618,0 -90.12934199999998,35.41383,0 -90.14619099999999,35.399468,0 -90.13551,35.376668,0 -90.16528200000002,35.373982,0 -90.179265,35.385194,0 -90.16888000000002,35.421878,0 -90.10051999999999,35.478089,0 -90.067798,35.466224,0 -90.07408199999999,35.433983,0 -90.054322,35.389277,0 -90.04156299999998,35.39662,0 -90.056782,35.403863,0 -90.048086,35.411737,0 -90.00267499999998,35.430529,0 -90.047678,35.50261,0 -90.03810900000002,35.549731,0 -89.989363,35.560043,0 -89.95849800000001,35.541703,0 -89.958749,35.523837,0 -89.908934,35.51424,0 -89.910681,35.547451,0 -89.94199500000001,35.556903,0 -89.956592,35.590622,0 -89.85661899999999,35.634444,0 -89.850863,35.650208,0 -89.8622,35.670419,0 -89.898916,35.650904,0 -89.92735,35.659461,0 -89.955665,35.690089,0 -89.958336,35.72656,0 -89.911984,35.758313,0 -89.825451,35.745188,0 -89.79895,35.759356,0 -89.799565,35.788331,0 -89.781662,35.805228,0 -89.72817000000001,35.802697,0 -89.69649699999999,35.820583,0 -89.69741,35.836683,0 -89.773858,35.86766,0 -89.743132,35.911176,0 -89.669079,35.87451,0 -89.643585,35.889742,0 -89.644307,35.920943,0 -89.718497,35.963123,0 -89.733056,36.000809,0 -90.28879999999999,35.996419,0 -90.377864,35.995718,0 -90.319168,36.089976,0 -90.235585,36.139474,0 -90.22042500000002,36.184764,0 -90.12636600000002,36.229367,0 -90.11492200000002,36.265595,0 -90.083731,36.272332,0 -90.06398,36.303038,0 -90.08196100000001,36.322097,0 -90.064514,36.382085,0 -90.080426,36.400763,0 -90.13851200000001,36.413952,0 -90.15248099999998,36.497952,0 -94.61791900000001,36.499414,0 -94.430662,35.392478,0 -94.48587500000001,33.637867,0 -94.44863700000001,33.642766,0 -94.471152,33.601588,0 -94.43003899999999,33.591124,0 -94.412175,33.568691,0 -94.382887,33.583268,0 -94.38009099999999,33.568943,0 -94.401616,33.559378,0 -94.38166699999999,33.544035,0 -94.35594500000001,33.54318,0 -94.34402300000001,33.567824,0 -94.30958200000001,33.551673,0 -94.289129,33.582144,0 -94.29090099999999,33.558872,0 -94.27560099999999,33.557964,0 -94.24277700000002,33.589709,0 -94.250197,33.556765,0 -94.205634,33.567229,0 -94.196395,33.555123,0 -94.194399,33.573678,0 -94.21719800000001,33.580737,0 -94.183913,33.594682,0 -94.14216,33.58139,0 -94.151456,33.568387,0 -94.13514200000002,33.571033,0 -94.12865799999999,33.550952,0 -94.119902,33.566999,0 -94.082641,33.575492,0 -94.056096,33.567252,0 -94.07215600000002,33.553864,0 -94.04331599999999,33.55222,0 -94.04296400000001,33.019219,0 -92.98877699999998,33.017298,0 -92.222825,33.00908,0 
									</coordinates>
								</LinearRing>
							</outerBoundaryIs>
						</Polygon>
					</Placemark>
				</Document>
</kml>
