<?xml version="1.0" encoding="UTF-8"?>
<kml xmlns="http://www.opengis.net/kml/2.2">
<Document>
  <Placemark>
    <name>Ash-Sharqiyah</name>
    <Polygon>
      <outerBoundaryIs>
        <LinearRing>
          <coordinates>55.5147000000,21.5445000000,0 55.4904000000,21.4767000000,0 55.4793000000,21.4382000000,0 55.4059000000,21.2246000000,0 55.3878000000,21.1638000000,0 55.3841000000,21.1591000000,0 55.3468000000,21.0475000000,0 55.3354000000,21.0070000000,0 55.2210000000,20.6644000000,0 55.1908000000,20.5781000000,0 55.1820000000,20.5473000000,0 55.1494000000,20.4531000000,0 55.0000000000,20.0000000000,0 52.0020015844,19.0006671948,0 52.0021999782,19.0218953273,0 52.0021999545,19.0219067431,0 51.9979999545,19.3333067431,0 51.9979969327,19.3333552980,0 51.9979892065,19.3334033294,0 51.9979768491,19.3334503825,0 51.9979599775,19.3334960121,0 51.9979387513,19.3335397860,0 51.9979133715,19.3335812899,0 51.9978840784,19.3336201309,0 51.9978511493,19.3336559412,0 51.9978148959,19.3336883820,0 51.9977756615,19.3337171459,0 51.9977338174,19.3337419609,0 51.9976897599,19.3337625918,0 51.9976439059,19.3337788435,0 51.9975966895,19.3337905621,0 51.9975485578,19.3337976366,0 51.9974999665,19.3338000000,0 47.5246398768,19.3335000161,0 48.1838000000,20.7075000000,0 47.9000000000,21.0340000000,0 47.8795000000,21.0547000000,0 47.8808000000,21.0900000000,0 47.8835000000,21.1109000000,0 47.8823000000,21.1220000000,0 47.8858000000,21.1330000000,0 47.8913000000,21.2256000000,0 47.8963000000,21.2572000000,0 47.8967000000,21.2712000000,0 47.8942000000,21.2806000000,0 47.8940000000,21.2935000000,0 47.8981000000,21.3309000000,0 47.8987000000,21.3606000000,0 47.8958000000,21.3677000000,0 47.8917000000,21.3720000000,0 47.8448000000,21.3822000000,0 47.8366000000,21.3868000000,0 47.8225000000,21.3913000000,0 47.8182000000,21.3963000000,0 47.8175000000,21.4000000000,0 47.8382000000,21.4468000000,0 47.8441000000,21.4635000000,0 47.8475000000,21.4917000000,0 47.8532000000,21.5126000000,0 47.8569000000,21.5392000000,0 47.8590000000,21.5492000000,0 47.8658000000,21.5661000000,0 47.8789000000,21.5886000000,0 47.8944000000,21.6079000000,0 47.9094000000,21.6318000000,0 47.9213000000,21.6641000000,0 47.9277000000,21.6720000000,0 47.9315000000,21.6841000000,0 47.9417000000,21.7028000000,0 47.9481000000,21.7071000000,0 47.9690000000,21.7127000000,0 47.9999000000,21.7146000000,0 48.0052000000,21.7215000000,0 48.0258000000,21.7398000000,0 48.0735000000,21.7790000000,0 48.0956000000,21.7950000000,0 48.1289000000,21.8137000000,0 48.1805000000,21.8337000000,0 48.1866000000,21.8373000000,0 48.2005000000,21.8535000000,0 48.2357000000,21.8754000000,0 48.2420000000,21.8807000000,0 48.2582000000,21.8881000000,0 48.2028000000,21.8868000000,0 48.1906000000,21.8877000000,0 48.1843000000,21.8856000000,0 48.1706000000,21.8849000000,0 48.1459000000,21.8866000000,0 48.1259000000,21.8828000000,0 48.0812000000,21.8792000000,0 48.0711000000,21.8805000000,0 48.0503000000,21.8873000000,0 48.0304000000,21.8961000000,0 48.0220000000,21.8976000000,0 48.0077000000,21.8948000000,0 47.9999000000,21.8965000000,0 47.9841000000,21.8942000000,0 47.9724000000,21.8956000000,0 47.9577000000,21.8885000000,0 47.9436000000,21.8877000000,0 47.9232000000,21.9000000000,0 47.9131000000,21.9100000000,0 47.9055000000,21.9144000000,0 47.8941000000,21.9255000000,0 47.8792000000,21.9364000000,0 47.8666000000,21.9427000000,0 47.8411000000,21.9614000000,0 47.8283000000,21.9688000000,0 47.8147000000,21.9837000000,0 47.8063000000,22.0000000000,0 47.8121000000,22.0168000000,0 47.8188000000,22.0559000000,0 47.8277000000,22.0859000000,0 47.8396000000,22.1084000000,0 47.8540000000,22.1304000000,0 47.8698000000,22.1634000000,0 47.8774000000,22.2131000000,0 47.8821000000,22.2280000000,0 47.9022000000,22.2595000000,0 47.9110000000,22.2826000000,0 47.9279000000,22.3032000000,0 47.9447000000,22.3310000000,0 47.9501000000,22.3433000000,0 47.9663000000,22.3582000000,0 47.9732000000,22.3675000000,0 47.9817000000,22.3833000000,0 47.9886000000,22.4016000000,0 47.9894000000,22.4224000000,0 47.9925000000,22.4349000000,0 48.0061000000,22.4518000000,0 48.0117000000,22.4614000000,0 48.0217000000,22.4862000000,0 48.0227000000,22.4977000000,0 48.0212000000,22.5074000000,0 48.0141000000,22.5264000000,0 48.0329000000,22.5737000000,0 48.0306000000,22.6083000000,0 48.0376000000,22.6301000000,0 48.0411000000,22.6491000000,0 48.0559000000,22.6906000000,0 48.0574000000,22.7073000000,0 48.0632000000,22.7286000000,0 48.0639000000,22.7352000000,0 48.0612000000,22.7572000000,0 48.0707000000,22.7990000000,0 48.0714000000,22.8259000000,0 48.0767000000,22.8413000000,0 48.0799000000,22.8637000000,0 48.0902000000,22.8961000000,0 48.0899000000,22.9036000000,0 48.0837000000,22.9150000000,0 48.0887000000,22.9350000000,0 48.0890000000,22.9469000000,0 48.0854000000,22.9594000000,0 48.0767000000,22.9778000000,0 48.0814000000,22.9966000000,0 48.0902000000,23.0572000000,0 48.0819000000,23.1051000000,0 48.0837000000,23.1145000000,0 48.0893000000,23.1266000000,0 48.0917000000,23.1633000000,0 48.0955000000,23.1777000000,0 48.0955000000,23.1897000000,0 48.1011000000,23.2059000000,0 48.1084000000,23.2397000000,0 48.1099000000,23.2770000000,0 48.1066000000,23.3326000000,0 48.1034000000,23.3561000000,0 48.1025000000,23.3864000000,0 48.0999000000,23.3958000000,0 48.0934000000,23.4090000000,0 48.0919000000,23.4237000000,0 48.0961000000,23.4525000000,0 48.1002000000,23.4640000000,0 48.1040000000,23.4842000000,0 48.1052000000,23.4933000000,0 48.1043000000,23.5092000000,0 48.1143000000,23.5345000000,0 48.1237000000,23.5715000000,0 48.1340000000,23.6397000000,0 48.1366000000,23.6720000000,0 48.1399000000,23.6811000000,0 48.1378000000,23.6891000000,0 48.1381000000,23.7011000000,0 48.1319000000,23.7338000000,0 48.1337000000,23.7517000000,0 48.1316000000,23.7567000000,0 48.1207000000,23.7661000000,0 48.1190000000,23.7755000000,0 48.1219000000,23.8025000000,0 48.1266000000,23.8110000000,0 48.1363000000,23.8202000000,0 48.1378000000,23.8243000000,0 48.1357000000,23.8366000000,0 48.1313000000,23.8469000000,0 48.1343000000,23.8622000000,0 48.1346000000,23.8781000000,0 48.1325000000,23.8860000000,0 48.1252000000,23.8957000000,0 48.1205000000,23.9054000000,0 48.1190000000,23.9204000000,0 48.1137000000,23.9357000000,0 48.1152000000,23.9536000000,0 48.1125000000,23.9698000000,0 48.1137000000,23.9780000000,0 48.1178000000,23.9880000000,0 48.1237000000,23.9965000000,0 48.1336000000,24.0037000000,0 48.1360000000,24.0073000000,0 48.1400000000,24.0313000000,0 48.1528000000,24.0580000000,0 48.1541000000,24.0655000000,0 48.1526000000,24.0849000000,0 48.1446000000,24.1142000000,0 48.1442000000,24.1358000000,0 48.1420000000,24.1424000000,0 48.1341000000,24.1605000000,0 48.1266000000,24.1706000000,0 48.1169000000,24.1792000000,0 48.1047000000,24.2019000000,0 48.1074000000,24.2196000000,0 48.1061000000,24.2271000000,0 48.0979000000,24.2467000000,0 48.0966000000,24.2626000000,0 48.1047000000,24.2742000000,0 48.1065000000,24.2815000000,0 48.1019000000,24.2928000000,0 48.0970000000,24.3243000000,0 48.0909000000,24.3369000000,0 48.0743000000,24.3519000000,0 48.0646000000,24.3653000000,0 48.0503000000,24.3891000000,0 48.0463000000,24.4010000000,0 48.0377000000,24.4092000000,0 48.0254000000,24.4251000000,0 48.0053000000,24.4623000000,0 48.0052000000,24.4748000000,0 47.9998000000,24.4866000000,0 47.9881000000,24.5341000000,0 47.9783000000,24.5613000000,0 47.9751000000,24.5796000000,0 47.9719000000,24.5840000000,0 47.9658000000,24.5826000000,0 47.9489000000,24.5728000000,0 47.9296000000,24.5581000000,0 47.9022000000,24.5466000000,0 47.8799000000,24.5392000000,0 47.8366000000,24.5370000000,0 47.8077000000,24.5299000000,0 47.7832000000,24.5265000000,0 47.7575000000,24.5194000000,0 47.7399000000,24.5096000000,0 47.7301000000,24.5094000000,0 47.7259000000,24.5128000000,0 47.7325000000,24.5218000000,0 47.7330000000,24.5319000000,0 47.7267000000,24.5502000000,0 47.7247000000,24.5693000000,0 47.7210000000,24.5786000000,0 47.7210000000,24.5826000000,0 47.7220000000,24.5857000000,0 47.7335000000,24.5950000000,0 47.7357000000,24.5992000000,0 47.7394000000,24.6110000000,0 47.7426000000,24.6303000000,0 47.7428000000,24.6540000000,0 47.7377000000,24.6687000000,0 47.7386000000,24.7081000000,0 47.7357000000,24.7333000000,0 47.7330000000,24.7404000000,0 47.7293000000,24.7644000000,0 47.7345000000,24.7757000000,0 47.7355000000,24.7843000000,0 47.7391000000,24.7918000000,0 47.7396000000,24.7989000000,0 47.7372000000,24.8092000000,0 47.7413000000,24.8281000000,0 47.7428000000,24.8494000000,0 47.7264000000,24.8787000000,0 47.7073000000,24.9059000000,0 47.7012000000,24.9257000000,0 47.7014000000,24.9350000000,0 47.6970000000,24.9421000000,0 47.6760000000,24.9671000000,0 47.6698000000,24.9715000000,0 47.6434000000,24.9786000000,0 47.6380000000,24.9830000000,0 47.6160000000,25.0097000000,0 47.6091000000,25.0149000000,0 47.6065000000,25.0200000000,0 47.6068000000,25.0237000000,0 47.6094000000,25.0269000000,0 47.6195000000,25.0358000000,0 47.6311000000,25.0580000000,0 47.6348000000,25.0717000000,0 47.6363000000,25.0862000000,0 47.6406000000,25.0944000000,0 47.6395000000,25.1006000000,0 47.6274000000,25.1161000000,0 47.6279000000,25.1202000000,0 47.6333000000,25.1238000000,0 47.6300000000,25.1354000000,0 47.6214000000,25.1483000000,0 47.6227000000,25.1534000000,0 47.6374000000,25.1620000000,0 47.6455000000,25.1698000000,0 47.6593000000,25.1792000000,0 47.6700000000,25.1840000000,0 47.7796000000,25.2682000000,0 47.7745000000,25.2755000000,0 47.7607000000,25.2880000000,0 47.7577000000,25.2936000000,0 47.7543000000,25.2923000000,0 47.7543000000,25.2966000000,0 47.7504000000,25.3017000000,0 47.7457000000,25.3017000000,0 47.7405000000,25.3065000000,0 47.7414000000,25.3198000000,0 47.7289000000,25.3250000000,0 47.7259000000,25.3293000000,0 47.7259000000,25.3477000000,0 47.7328000000,25.3525000000,0 47.7315000000,25.3568000000,0 47.7280000000,25.3602000000,0 47.7263000000,25.3718000000,0 47.7186000000,25.3838000000,0 47.7229000000,25.3856000000,0 47.7298000000,25.3843000000,0 47.7341000000,25.3864000000,0 47.7388000000,25.3959000000,0 47.7384000000,25.4049000000,0 47.7404000000,25.4092000000,0 47.7207000000,25.4382000000,0 47.7022000000,25.4744000000,0 47.6718000000,25.5182000000,0 47.6615000000,25.5307000000,0 47.6423000000,25.5647000000,0 47.6440000000,25.5766000000,0 47.6550000000,25.6085000000,0 47.6636000000,25.6602000000,0 47.6738000000,25.6974000000,0 47.6772000000,25.7022000000,0 47.6852000000,25.7080000000,0 47.7080000000,25.7162000000,0 47.7154000000,25.7209000000,0 47.7188000000,25.7237000000,0 47.7207000000,25.7289000000,0 47.7156000000,25.7362000000,0 47.6953000000,25.7483000000,0 47.6811000000,25.7593000000,0 47.6793000000,25.7632000000,0 47.6794000000,25.7685000000,0 47.6820000000,25.7733000000,0 47.6996000000,25.7918000000,0 47.7030000000,25.8090000000,0 47.7013000000,25.8228000000,0 47.6873000000,25.8347000000,0 47.6649000000,25.8480000000,0 47.6434000000,25.8636000000,0 47.6270000000,25.8788000000,0 47.6227000000,25.8879000000,0 47.6195000000,25.9047000000,0 47.6197000000,25.9172000000,0 47.6268000000,25.9345000000,0 47.6277000000,25.9495000000,0 47.6259000000,25.9696000000,0 47.6220000000,25.9868000000,0 47.6080000000,26.0117000000,0 47.5950000000,26.0272000000,0 47.5720000000,26.0661000000,0 47.5697000000,26.0755000000,0 47.5700000000,26.0797000000,0 47.5794000000,26.0891000000,0 47.5960000000,26.0924000000,0 47.6044000000,26.0982000000,0 47.6102000000,26.1209000000,0 47.6099000000,26.1400000000,0 47.6002000000,26.1640000000,0 47.5982000000,26.1803000000,0 47.5940000000,26.1916000000,0 47.5707000000,26.2341000000,0 47.5584000000,26.2652000000,0 47.5541000000,26.2921000000,0 47.5418000000,26.3106000000,0 47.5315000000,26.3313000000,0 47.5289000000,26.3527000000,0 47.5227000000,26.3715000000,0 47.5123000000,26.3861000000,0 47.5088000000,26.3955000000,0 47.4994000000,26.4059000000,0 47.4958000000,26.4134000000,0 47.4870000000,26.4205000000,0 47.4838000000,26.4205000000,0 47.4679000000,26.4085000000,0 47.4552000000,26.4017000000,0 47.4468000000,26.4004000000,0 47.4371000000,26.4027000000,0 47.4332000000,26.4020000000,0 47.4160000000,26.3923000000,0 47.4027000000,26.3904000000,0 47.3781000000,26.3933000000,0 47.3713000000,26.3952000000,0 47.3444000000,26.4085000000,0 47.3340000000,26.4082000000,0 47.3304000000,26.4069000000,0 47.3220000000,26.3968000000,0 47.3009000000,26.3822000000,0 47.2970000000,26.3803000000,0 47.2893000000,26.3819000000,0 47.2552000000,26.4156000000,0 47.2419000000,26.4367000000,0 47.2364000000,26.4422000000,0 47.2234000000,26.4510000000,0 47.2069000000,26.4584000000,0 47.1955000000,26.4734000000,0 47.1868000000,26.4815000000,0 47.1566000000,26.5058000000,0 47.1459000000,26.5090000000,0 47.1336000000,26.5233000000,0 47.1258000000,26.5372000000,0 47.1100000000,26.5816000000,0 47.1025000000,26.5833000000,0 47.0918000000,26.5778000000,0 47.0655000000,26.5704000000,0 47.0511000000,26.5796000000,0 47.0408000000,26.5940000000,0 47.0252000000,26.5928000000,0 46.9978000000,26.5833000000,0 46.9705000000,26.6024000000,0 46.9446000000,26.6241000000,0 46.9371000000,26.6316000000,0 46.9112000000,26.6669000000,0 46.8937000000,26.6809000000,0 46.8911000000,26.6818000000,0 46.8888000000,26.6805000000,0 46.8811000000,26.6689000000,0 46.8538000000,26.6403000000,0 46.8434000000,26.6381000000,0 46.8178000000,26.6478000000,0 46.8000000000,26.6523000000,0 46.7656000000,26.6501000000,0 46.7481000000,26.6468000000,0 46.7345000000,26.6475000000,0 46.7180000000,26.6514000000,0 46.7076000000,26.6565000000,0 46.6525000000,26.6766000000,0 46.6489000000,26.6753000000,0 46.6431000000,26.6679000000,0 46.6366000000,26.6478000000,0 46.6301000000,26.6475000000,0 46.5834000000,26.6643000000,0 46.5526000000,26.6802000000,0 46.5066000000,26.7000000000,0 46.4921000000,26.7081000000,0 46.4881000000,26.7125000000,0 46.4854000000,26.7132000000,0 46.4794000000,26.7112000000,0 46.4754000000,26.7122000000,0 46.4284000000,26.7356000000,0 46.4049000000,26.7450000000,0 46.3767000000,26.7595000000,0 46.3596000000,26.7712000000,0 46.3358000000,26.7826000000,0 46.2871000000,26.8142000000,0 46.2841000000,26.8138000000,0 46.2824000000,26.8118000000,0 46.2767000000,26.7950000000,0 46.2730000000,26.7890000000,0 46.2653000000,26.7830000000,0 46.2626000000,26.7850000000,0 46.2516000000,26.8038000000,0 46.2469000000,26.8065000000,0 46.2298000000,26.8105000000,0 46.2193000000,26.8320000000,0 46.2163000000,26.8353000000,0 46.2039000000,26.8407000000,0 46.2012000000,26.8440000000,0 46.1989000000,26.8484000000,0 46.1952000000,26.8769000000,0 46.1942000000,26.8799000000,0 46.1912000000,26.8816000000,0 46.1798000000,26.8783000000,0 46.1489000000,26.8605000000,0 46.1304000000,26.8457000000,0 46.1184000000,26.8323000000,0 46.0972000000,26.8175000000,0 46.0751000000,26.8122000000,0 46.0573000000,26.8038000000,0 46.0482000000,26.8021000000,0 46.0445000000,26.8031000000,0 46.0358000000,26.8108000000,0 46.0365000000,26.8262000000,0 46.0254000000,26.8400000000,0 46.0049000000,26.8524000000,0 45.9945000000,26.8638000000,0 45.9660000000,26.8840000000,0 45.9512000000,26.8913000000,0 45.9231000000,26.9105000000,0 45.8905000000,26.9269000000,0 45.8801000000,26.9377000000,0 45.8462000000,26.9595000000,0 45.8180000000,26.9826000000,0 45.7905000000,26.9977000000,0 45.7838000000,27.0000000000,0 45.7502000000,27.0280000000,0 45.7418000000,27.0411000000,0 45.7373000000,27.0537000000,0 45.7350000000,27.0558000000,0 45.6995000000,27.0731000000,0 45.6687000000,27.0777000000,0 45.6437000000,27.0894000000,0 45.6250000000,27.1009000000,0 45.5785000000,27.1219000000,0 45.5624000000,27.1319000000,0 45.5469000000,27.1378000000,0 45.5441000000,27.1403000000,0 45.5458000000,27.1467000000,0 45.5684000000,27.1768000000,0 45.5817000000,27.1985000000,0 45.5806000000,27.2048000000,0 45.5698000000,27.2191000000,0 45.5547000000,27.2322000000,0 45.5411000000,27.2378000000,0 45.5194000000,27.2385000000,0 45.5093000000,27.2359000000,0 45.5000000000,27.2286000000,0 45.4827000000,27.2214000000,0 45.4551000000,27.2181000000,0 45.4360000000,27.2179000000,0 45.4217000000,27.2207000000,0 45.4061000000,27.2272000000,0 45.3449000000,27.2277000000,0 45.2802000000,27.2452000000,0 45.2524000000,27.2445000000,0 45.2267000000,27.2679000000,0 45.2040000000,27.2854000000,0 45.1923000000,27.2976000000,0 45.1802000000,27.3053000000,0 45.1725000000,27.3074000000,0 45.1671000000,27.3111000000,0 45.1531000000,27.3350000000,0 45.1470000000,27.3419000000,0 45.1433000000,27.3599000000,0 45.1374000000,27.3747000000,0 45.1260000000,27.3945000000,0 45.1251000000,27.4018000000,0 45.1276000000,27.4125000000,0 45.1187000000,27.4328000000,0 45.1206000000,27.4361000000,0 45.1269000000,27.4401000000,0 45.1269000000,27.4580000000,0 45.1295000000,27.4637000000,0 45.1290000000,27.4662000000,0 45.1176000000,27.4781000000,0 45.1019000000,27.4901000000,0 45.0942000000,27.4999000000,0 45.0949000000,27.5468000000,0 45.1008000000,27.5657000000,0 45.1073000000,27.5763000000,0 45.1066000000,27.5917000000,0 45.0835000000,27.6358000000,0 45.0709000000,27.6667000000,0 45.0377000000,27.6856000000,0 45.0256000000,27.7021000000,0 45.0210000000,27.7019000000,0 45.0118000000,27.6966000000,0 44.9922000000,27.6990000000,0 44.9859000000,27.6956000000,0 44.9787000000,27.6846000000,0 44.9600000000,27.6625000000,0 44.9485000000,27.6515000000,0 44.9326000000,27.6409000000,0 44.9192000000,27.6390000000,0 44.8997000000,27.6414000000,0 44.8727000000,27.6260000000,0 44.7894000000,27.6709000000,0 44.7087000000,27.7258000000,0 44.6698000000,27.8342000000,0 44.6504000000,27.8521000000,0 44.6502000000,28.0090000000,0 44.6460000000,28.0121000000,0 44.7018000000,28.0218000000,0 44.7518000000,27.9665000000,0 44.7786000000,27.9308000000,0 44.8053000000,27.9451000000,0 44.8053000000,27.9576000000,0 44.8303000000,27.9808000000,0 44.8410000000,28.0040000000,0 45.0641000000,28.6803000000,0 45.0606000000,28.6842000000,0 45.0596000000,28.6989000000,0 45.0607000000,28.7197000000,0 45.0677000000,28.7455000000,0 45.0492000000,28.7770000000,0 45.0358000000,28.8138000000,0 45.0503000000,28.8406000000,0 45.0537000000,28.8563000000,0 45.0537000000,28.8685000000,0 45.0403000000,28.8898000000,0 45.0347000000,28.9121000000,0 45.0291000000,28.9266000000,0 45.0280000000,28.9512000000,0 45.0414000000,28.9880000000,0 45.0314000000,29.0148000000,0 45.0381000000,29.0372000000,0 45.0481000000,29.0617000000,0 45.0660000000,29.0684000000,0 45.0827000000,29.0807000000,0 45.0872000000,29.0908000000,0 45.0973000000,29.0986000000,0 45.1107000000,29.1053000000,0 45.1352000000,29.1332000000,0 45.1587000000,29.1455000000,0 45.1720000000,29.1593000000,0 45.3743000000,29.1420000000,0 45.5185000000,29.1348000000,0 45.6926000000,29.1223000000,0 45.8195000000,29.1081000000,0 45.9867000000,29.0984000000,0 46.2203000000,29.0777000000,0 46.2727000000,29.0703000000,0 46.2796000000,29.0714000000,0 46.4245000000,29.0586000000,0 46.4779000000,29.0712000000,0 46.4989000000,29.0816000000,0 46.5135000000,29.0860000000,0 46.5229000000,29.0914000000,0 46.5393000000,29.0977000000,0 46.5490000000,29.1001000000,0 46.5631000000,29.1000000000,0 46.7827000000,29.0761000000,0 46.8411000000,29.0682000000,0 46.9330000000,29.0600000000,0 46.9482000000,29.0563000000,0 46.9943000000,29.0528000000,0 47.1564000000,29.0350000000,0 47.2038000000,29.0273000000,0 47.2675000000,29.0218000000,0 47.4652000000,28.9999000000,0 47.4960000000,28.9667000000,0 47.5095000000,28.9344000000,0 47.5395000000,28.8997000000,0 47.5547000000,28.8718000000,0 47.5847000000,28.8356000000,0 47.5968000000,28.7752000000,0 47.5978000000,28.7615000000,0 47.5979000000,28.7567000000,0 47.5909000000,28.7274000000,0 47.5907000000,28.7078000000,0 47.5935000000,28.6909000000,0 47.6054000000,28.6549000000,0 47.6361000000,28.6290000000,0 47.6540000000,28.5957000000,0 47.7090000000,28.5431000000,0 47.7045000000,28.5244000000,0 48.4304000000,28.5343000000,0 48.4457000000,28.5267000000,0 48.4541000000,28.5159000000,0 48.4629000000,28.5083000000,0 48.4657000000,28.5081000000,0 48.4654000000,28.5069000000,0 48.4678000000,28.5053000000,0 48.4894000000,28.4965000000,0 48.5010000000,28.4943000000,0 48.4961000000,28.4793000000,0 48.4972000000,28.4738000000,0 48.5039000000,28.4624000000,0 48.4999000000,28.4489000000,0 48.5001000000,28.4387000000,0 48.5067000000,28.4289000000,0 48.5135000000,28.4232000000,0 48.5222000000,28.4192000000,0 48.5264000000,28.4206000000,0 48.5295000000,28.4187000000,0 48.5257000000,28.4187000000,0 48.5247000000,28.4152000000,0 48.5118000000,28.4095000000,0 48.5119000000,28.4047000000,0 48.5084000000,28.3985000000,0 48.5090000000,28.3922000000,0 48.5063000000,28.3899000000,0 48.4891000000,28.3913000000,0 48.4841000000,28.3859000000,0 48.4804000000,28.3891000000,0 48.4766000000,28.3869000000,0 48.4866000000,28.3939000000,0 48.4866000000,28.3977000000,0 48.4834000000,28.3986000000,0 48.4762000000,28.3955000000,0 48.4701000000,28.3894000000,0 48.4678000000,28.3843000000,0 48.4697000000,28.3805000000,0 48.4743000000,28.3798000000,0 48.4749000000,28.3765000000,0 48.4771000000,28.3783000000,0 48.4769000000,28.3755000000,0 48.4772000000,28.3754000000,0 48.4799000000,28.3792000000,0 48.4818000000,28.3773000000,0 48.4807000000,28.3790000000,0 48.4820000000,28.3782000000,0 48.4810000000,28.3795000000,0 48.4825000000,28.3807000000,0 48.4829000000,28.3794000000,0 48.4834000000,28.3794000000,0 48.4826000000,28.3814000000,0 48.4912000000,28.3848000000,0 48.4970000000,28.3864000000,0 48.4977000000,28.3851000000,0 48.5027000000,28.3853000000,0 48.4998000000,28.3832000000,0 48.5045000000,28.3852000000,0 48.5084000000,28.3877000000,0 48.5127000000,28.3941000000,0 48.5139000000,28.4007000000,0 48.5180000000,28.4085000000,0 48.5171000000,28.4101000000,0 48.5184000000,28.4089000000,0 48.5182000000,28.4111000000,0 48.5197000000,28.4103000000,0 48.5297000000,28.4169000000,0 48.5387000000,28.4151000000,0 48.5433000000,28.4077000000,0 48.5431000000,28.4017000000,0 48.5306000000,28.3890000000,0 48.5194000000,28.3651000000,0 48.5132000000,28.3431000000,0 48.5142000000,28.3327000000,0 48.5185000000,28.3215000000,0 48.5287000000,28.3050000000,0 48.5331000000,28.2921000000,0 48.5409000000,28.2814000000,0 48.5743000000,28.2578000000,0 48.5850000000,28.2525000000,0 48.5888000000,28.2452000000,0 48.6012000000,28.2341000000,0 48.6075000000,28.2246000000,0 48.6119000000,28.2215000000,0 48.6118000000,28.2176000000,0 48.6152000000,28.2123000000,0 48.6269000000,28.2066000000,0 48.6284000000,28.2051000000,0 48.6280000000,28.2022000000,0 48.6354000000,28.1951000000,0 48.6340000000,28.1890000000,0 48.6312000000,28.1876000000,0 48.6341000000,28.1935000000,0 48.6320000000,28.1951000000,0 48.6332000000,28.1931000000,0 48.6323000000,28.1916000000,0 48.6301000000,28.1977000000,0 48.6295000000,28.1947000000,0 48.6313000000,28.1888000000,0 48.6290000000,28.1903000000,0 48.6285000000,28.1968000000,0 48.6241000000,28.1949000000,0 48.6195000000,28.1903000000,0 48.6147000000,28.1820000000,0 48.6101000000,28.1630000000,0 48.6106000000,28.1412000000,0 48.6085000000,28.1232000000,0 48.6106000000,28.1166000000,0 48.6157000000,28.1164000000,0 48.6096000000,28.1162000000,0 48.6099000000,28.1131000000,0 48.6122000000,28.1133000000,0 48.6106000000,28.1115000000,0 48.6142000000,28.1082000000,0 48.6274000000,28.1116000000,0 48.6314000000,28.1073000000,0 48.6351000000,28.1062000000,0 48.6268000000,28.1071000000,0 48.6247000000,28.1093000000,0 48.6160000000,28.1065000000,0 48.6158000000,28.1027000000,0 48.6225000000,28.0853000000,0 48.6387000000,28.0652000000,0 48.6576000000,28.0531000000,0 48.6642000000,28.0456000000,0 48.6630000000,28.0369000000,0 48.6653000000,28.0314000000,0 48.6800000000,28.0275000000,0 48.6809000000,28.0266000000,0 48.6789000000,28.0251000000,0 48.6815000000,28.0237000000,0 48.6838000000,28.0252000000,0 48.6815000000,28.0289000000,0 48.6830000000,28.0290000000,0 48.6865000000,28.0263000000,0 48.6859000000,28.0239000000,0 48.6875000000,28.0213000000,0 48.6946000000,28.0158000000,0 48.7448000000,28.0074000000,0 48.7497000000,28.0079000000,0 48.7522000000,28.0141000000,0 48.7506000000,28.0073000000,0 48.7524000000,28.0063000000,0 48.7711000000,28.0019000000,0 48.7902000000,28.0012000000,0 48.7933000000,27.9991000000,0 48.7930000000,27.9916000000,0 48.7909000000,27.9896000000,0 48.7705000000,27.9764000000,0 48.7681338009,27.9757332809,0 48.7746000000,27.9821000000,0 48.7793000000,27.9827000000,0 48.7800000000,27.9864000000,0 48.7859000000,27.9878000000,0 48.7889000000,27.9928000000,0 48.7896000000,27.9973000000,0 48.7881000000,27.9993000000,0 48.7837000000,27.9998000000,0 48.7806000000,27.9978000000,0 48.7781000000,27.9930000000,0 48.7779000000,27.9857000000,0 48.7758000000,27.9841000000,0 48.7695000000,27.9863000000,0 48.7606000000,27.9860000000,0 48.7484000000,27.9806000000,0 48.7431000000,27.9724000000,0 48.7425000000,27.9686000000,0 48.7479000000,27.9524000000,0 48.7516000000,27.9488000000,0 48.7635000000,27.9432000000,0 48.7639000000,27.9388000000,0 48.7726000000,27.9318000000,0 48.7763000000,27.9223000000,0 48.7864000000,27.9154000000,0 48.7942000000,27.9040000000,0 48.8057000000,27.9004000000,0 48.8232000000,27.9014000000,0 48.8233000000,27.8990000000,0 48.8219000000,27.8993000000,0 48.8194000000,27.8952000000,0 48.8177000000,27.8864000000,0 48.8234000000,27.8698000000,0 48.8258000000,27.8666000000,0 48.8308000000,27.8636000000,0 48.8433000000,27.8607000000,0 48.8468000000,27.8573000000,0 48.8539000000,27.8546000000,0 48.8727000000,27.8380000000,0 48.8838000000,27.8339000000,0 48.8817000000,27.8281000000,0 48.8827000000,27.8227000000,0 48.8880000000,27.8195000000,0 48.8861000000,27.8137000000,0 48.8925000000,27.8102000000,0 48.8855000000,27.8130000000,0 48.8834000000,27.8109000000,0 48.8762000000,27.7958000000,0 48.8736000000,27.7867000000,0 48.8736000000,27.7803000000,0 48.8795000000,27.7718000000,0 48.8857000000,27.7718000000,0 48.8861000000,27.7691000000,0 48.8895000000,27.7689000000,0 48.8902000000,27.7665000000,0 48.8867000000,27.7597000000,0 48.8779000000,27.7502000000,0 48.8767000000,27.7457000000,0 48.8748000000,27.7458000000,0 48.8457000000,27.7234000000,0 48.8431000000,27.7225000000,0 48.8402000000,27.7244000000,0 48.8409000000,27.7295000000,0 48.8450000000,27.7307000000,0 48.8414000000,27.7303000000,0 48.8528000000,27.7338000000,0 48.8580000000,27.7381000000,0 48.8580000000,27.7418000000,0 48.8533000000,27.7455000000,0 48.8573000000,27.7518000000,0 48.8571000000,27.7564000000,0 48.8584000000,27.7548000000,0 48.8609000000,27.7587000000,0 48.8613000000,27.7654000000,0 48.8564000000,27.7704000000,0 48.8485000000,27.7637000000,0 48.8490000000,27.7620000000,0 48.8548000000,27.7625000000,0 48.8544000000,27.7615000000,0 48.8455000000,27.7603000000,0 48.8419000000,27.7642000000,0 48.8649000000,27.7778000000,0 48.8663000000,27.7810000000,0 48.8648000000,27.7832000000,0 48.8701000000,27.7917000000,0 48.8688000000,27.7947000000,0 48.8635000000,27.7970000000,0 48.8597000000,27.8055000000,0 48.8508000000,27.8166000000,0 48.8454000000,27.8156000000,0 48.8400000000,27.8123000000,0 48.8328000000,27.7984000000,0 48.8334000000,27.7943000000,0 48.8365000000,27.7920000000,0 48.8364000000,27.7904000000,0 48.8346000000,27.7823000000,0 48.8294000000,27.7745000000,0 48.8297000000,27.7677000000,0 48.8378000000,27.7651000000,0 48.8196000000,27.7501000000,0 48.8064000000,27.7511000000,0 48.8020000000,27.7564000000,0 48.8042000000,27.7585000000,0 48.8136000000,27.7577000000,0 48.8176000000,27.7592000000,0 48.8186000000,27.7663000000,0 48.8147000000,27.7713000000,0 48.8220000000,27.7815000000,0 48.8121212121,27.7768569697,0 48.8133000000,27.7778000000,0 48.8177000000,27.7803000000,0 48.8217000000,27.7817000000,0 48.8299000000,27.7900000000,0 48.8265000000,27.8060000000,0 48.8306000000,27.8152000000,0 48.8298000000,27.8140000000,0 48.8286000000,27.8240000000,0 48.8247000000,27.8262000000,0 48.8300000000,27.8283000000,0 48.8298000000,27.8305000000,0 48.8278000000,27.8312000000,0 48.8124000000,27.8203000000,0 48.8087000000,27.8156000000,0 48.8059000000,27.8038000000,0 48.8084000000,27.7999000000,0 48.8069000000,27.7887000000,0 48.8090000000,27.7725000000,0 48.8042000000,27.7621000000,0 48.7993000000,27.7582000000,0 48.7987000000,27.7421000000,0 48.7956000000,27.7316000000,0 48.7911000000,27.7214000000,0 48.7875000000,27.7198000000,0 48.7837000000,27.7115000000,0 48.7839000000,27.7090000000,0 48.7871000000,27.7054000000,0 48.7909000000,27.7047000000,0 48.7950000000,27.7055000000,0 48.7973000000,27.7091000000,0 48.8030000000,27.7114000000,0 48.8047000000,27.7155000000,0 48.8042000000,27.7206000000,0 48.8106000000,27.7263000000,0 48.8084000000,27.7310000000,0 48.8057000000,27.7297000000,0 48.8071000000,27.7281000000,0 48.8070000000,27.7275000000,0 48.8053000000,27.7300000000,0 48.8042000000,27.7331000000,0 48.8077000000,27.7394000000,0 48.8125000000,27.7427000000,0 48.8090000000,27.7444000000,0 48.8080000000,27.7427000000,0 48.8076000000,27.7442000000,0 48.8109000000,27.7448000000,0 48.8156000000,27.7434000000,0 48.8166000000,27.7424000000,0 48.8176000000,27.7403000000,0 48.8161000000,27.7428000000,0 48.8121000000,27.7437000000,0 48.8257000000,27.7328000000,0 48.8246000000,27.7238000000,0 48.8260000000,27.7193000000,0 48.8203000000,27.7127000000,0 48.8156000000,27.6986000000,0 48.8171000000,27.6949000000,0 48.8219000000,27.6911000000,0 48.8218000000,27.6887000000,0 48.8249000000,27.6872000000,0 48.8258000000,27.6818000000,0 48.8319000000,27.6813000000,0 48.8340000000,27.6867000000,0 48.8431000000,27.6930000000,0 48.8457000000,27.7002000000,0 48.8427000000,27.7043000000,0 48.8441000000,27.7072000000,0 48.8474000000,27.6996000000,0 48.8533000000,27.6960000000,0 48.8560000000,27.6901000000,0 48.8567000000,27.6839000000,0 48.8533000000,27.6800000000,0 48.8522000000,27.6749000000,0 48.8543000000,27.6653000000,0 48.8541000000,27.6598000000,0 48.8541000000,27.6650000000,0 48.8522000000,27.6652000000,0 48.8518000000,27.6678000000,0 48.8494000000,27.6630000000,0 48.8463000000,27.6628000000,0 48.8466000000,27.6586000000,0 48.8537000000,27.6562000000,0 48.8619000000,27.6574000000,0 48.8609000000,27.6596000000,0 48.8579000000,27.6576000000,0 48.8574000000,27.6590000000,0 48.8563000000,27.6571000000,0 48.8560000000,27.6571000000,0 48.8586000000,27.6608000000,0 48.8736000000,27.6643000000,0 48.8856000000,27.6717000000,0 48.8780000000,27.6666000000,0 48.8801000000,27.6534000000,0 48.8845000000,27.6473000000,0 48.8820000000,27.6475000000,0 48.8772000000,27.6399000000,0 48.8728000000,27.6372000000,0 48.8746000000,27.6387000000,0 48.8730000000,27.6397000000,0 48.8754000000,27.6435000000,0 48.8730000000,27.6468000000,0 48.8723000000,27.6512000000,0 48.8679000000,27.6530000000,0 48.8534000000,27.6496000000,0 48.8487000000,27.6400000000,0 48.8492000000,27.6383000000,0 48.8502000000,27.6413000000,0 48.8498000000,27.6370000000,0 48.8548000000,27.6323000000,0 48.8622000000,27.6319000000,0 48.8611000000,27.6331000000,0 48.8643000000,27.6319000000,0 48.8656000000,27.6270000000,0 48.8701000000,27.6261000000,0 48.8732000000,27.6229000000,0 48.8749000000,27.6196000000,0 48.8735000000,27.6156000000,0 48.8738000000,27.6078000000,0 48.8712000000,27.6149000000,0 48.8695000000,27.6155000000,0 48.8638000000,27.6132000000,0 48.8646000000,27.6141000000,0 48.8616000000,27.6190000000,0 48.8637000000,27.6237000000,0 48.8625000000,27.6264000000,0 48.8592000000,27.6270000000,0 48.8560000000,27.6255000000,0 48.8489000000,27.6277000000,0 48.8432000000,27.6225000000,0 48.8404000000,27.6165000000,0 48.8428000000,27.6099000000,0 48.8483000000,27.6068000000,0 48.8483000000,27.6035000000,0 48.8616000000,27.6010000000,0 48.8671000000,27.5960000000,0 48.8749000000,27.5961000000,0 48.8834000000,27.6007000000,0 48.8866000000,27.6099000000,0 48.8908000000,27.6128000000,0 48.8924000000,27.6195000000,0 48.8955000000,27.6220000000,0 48.8969000000,27.6300000000,0 48.8989000000,27.6305000000,0 48.9154000000,27.6249000000,0 48.9142000000,27.6229000000,0 48.9107000000,27.6223000000,0 48.9049000000,27.6142000000,0 48.8983000000,27.5970000000,0 48.8993000000,27.5944000000,0 48.8963000000,27.5878000000,0 48.8981000000,27.5839000000,0 48.8969000000,27.5799000000,0 48.8992000000,27.5703000000,0 48.8969000000,27.5734000000,0 48.8945000000,27.5692000000,0 48.8980000000,27.5624000000,0 48.8996000000,27.5620000000,0 48.9010000000,27.5647000000,0 48.8974000000,27.5656000000,0 48.9089000000,27.5663000000,0 48.9211000000,27.5717000000,0 48.9261000000,27.5766000000,0 48.9263000000,27.5788000000,0 48.9231000000,27.5834000000,0 48.9272000000,27.5893000000,0 48.9242000000,27.5937000000,0 48.9199000000,27.5954000000,0 48.9158000000,27.5939000000,0 48.9094000000,27.5859000000,0 48.9091000000,27.5820000000,0 48.9131000000,27.5781000000,0 48.9107000000,27.5774000000,0 48.9089000000,27.5811000000,0 48.9035000000,27.5778000000,0 48.9110000000,27.5896000000,0 48.9094000000,27.5910000000,0 48.9136000000,27.5919000000,0 48.9230000000,27.6028000000,0 48.9374000000,27.6061000000,0 48.9479000000,27.6134000000,0 48.9589000000,27.6182000000,0 48.9632000000,27.6225000000,0 48.9680000000,27.6226000000,0 48.9939000000,27.6135000000,0 48.9971000000,27.6109000000,0 48.9952000000,27.6105000000,0 48.9956000000,27.6080000000,0 49.0043000000,27.5991000000,0 49.0098000000,27.6010000000,0 49.0072000000,27.5986000000,0 49.0090000000,27.5940000000,0 49.0278000000,27.5725000000,0 49.0322000000,27.5698000000,0 49.0374000000,27.5691000000,0 49.0452000000,27.5666000000,0 49.0430000000,27.5671000000,0 49.0444000000,27.5655000000,0 49.0388000000,27.5642000000,0 49.0371000000,27.5665000000,0 49.0367000000,27.5635000000,0 49.0391000000,27.5610000000,0 49.0523000000,27.5588000000,0 49.0613000000,27.5634000000,0 49.0455000000,27.5668000000,0 49.0450000000,27.5678000000,0 49.0585000000,27.5650000000,0 49.0768000000,27.5584000000,0 49.0784000000,27.5558000000,0 49.0895000000,27.5493000000,0 49.0905000000,27.5466000000,0 49.0964000000,27.5428000000,0 49.1272000000,27.5378000000,0 49.1440000000,27.5375000000,0 49.1445000000,27.5388000000,0 49.1612000000,27.5403000000,0 49.1611000000,27.5527000000,0 49.1613000000,27.5437000000,0 49.1829000000,27.5444000000,0 49.1834000000,27.5506000000,0 49.1813000000,27.5506000000,0 49.1778000000,27.5551000000,0 49.1644000000,27.5549000000,0 49.1777000000,27.5552000000,0 49.1774000000,27.5720000000,0 49.2016000000,27.5723000000,0 49.2142000000,27.5813000000,0 49.2019000000,27.5721000000,0 49.2002000000,27.5721000000,0 49.2002000000,27.5671000000,0 49.1891000000,27.5669000000,0 49.1892000000,27.5610000000,0 49.1864000000,27.5600000000,0 49.1866000000,27.5453000000,0 49.1925000000,27.5452000000,0 49.1924000000,27.5486000000,0 49.1947000000,27.5480000000,0 49.1959000000,27.5498000000,0 49.1961000000,27.5486000000,0 49.1989000000,27.5487000000,0 49.1976000000,27.5584000000,0 49.2083000000,27.5585000000,0 49.2074000000,27.5481000000,0 49.2155000000,27.5487000000,0 49.2136000000,27.5666000000,0 49.2171000000,27.5704000000,0 49.2208000000,27.5705000000,0 49.2228000000,27.5573000000,0 49.2213000000,27.5557000000,0 49.2219000000,27.5503000000,0 49.2250000000,27.5480000000,0 49.2256000000,27.5455000000,0 49.2246000000,27.5436000000,0 49.2201000000,27.5436000000,0 49.2194000000,27.5417000000,0 49.2234000000,27.5338000000,0 49.2553000000,27.5249000000,0 49.2577000000,27.5283000000,0 49.2560000000,27.5241000000,0 49.2601000000,27.5184000000,0 49.2649000000,27.5158000000,0 49.2647000000,27.5128000000,0 49.2664000000,27.5133000000,0 49.2650000000,27.5114000000,0 49.2668000000,27.5034000000,0 49.2765000000,27.4863000000,0 49.2870000000,27.4800000000,0 49.3009000000,27.4769000000,0 49.3046000000,27.4743000000,0 49.3069000000,27.4698000000,0 49.3058000000,27.4653000000,0 49.3075000000,27.4547000000,0 49.3151000000,27.4456000000,0 49.3119000000,27.4422000000,0 49.3128000000,27.4337000000,0 49.3122000000,27.4255000000,0 49.3110000000,27.4252000000,0 49.3121000000,27.4328000000,0 49.3101000000,27.4339000000,0 49.3120000000,27.4349000000,0 49.3116000000,27.4370000000,0 49.3078000000,27.4334000000,0 49.3107000000,27.4328000000,0 49.3050000000,27.4308000000,0 49.3026000000,27.4321000000,0 49.2963000000,27.4274000000,0 49.2986000000,27.4355000000,0 49.3039000000,27.4439000000,0 49.3013000000,27.4546000000,0 49.2996000000,27.4556000000,0 49.3009000000,27.4556000000,0 49.2996000000,27.4558000000,0 49.3008000000,27.4560000000,0 49.3006000000,27.4590000000,0 49.2947000000,27.4606000000,0 49.2899000000,27.4590000000,0 49.2841000000,27.4395000000,0 49.2718000000,27.4318000000,0 49.2631000000,27.4365000000,0 49.2574000000,27.4369000000,0 49.2547000000,27.4403000000,0 49.2589000000,27.4373000000,0 49.2629000000,27.4372000000,0 49.2584000000,27.4465000000,0 49.2561000000,27.4482000000,0 49.2561000000,27.4454000000,0 49.2490000000,27.4385000000,0 49.2464000000,27.4327000000,0 49.2377000000,27.4286000000,0 49.2353000000,27.4327000000,0 49.2359000000,27.4367000000,0 49.2295000000,27.4409000000,0 49.2288000000,27.4428000000,0 49.2217000000,27.4472000000,0 49.2155000000,27.4470000000,0 49.2101000000,27.4432000000,0 49.2033000000,27.4303000000,0 49.1960000000,27.4235000000,0 49.1936000000,27.4256000000,0 49.1952000000,27.4283000000,0 49.1901000000,27.4456000000,0 49.1868000000,27.4475000000,0 49.1817000000,27.4476000000,0 49.1702000000,27.4388000000,0 49.1638000000,27.4230000000,0 49.1622000000,27.4266000000,0 49.1560000000,27.4323000000,0 49.1450000000,27.4347000000,0 49.1465000000,27.4373000000,0 49.1427000000,27.4398000000,0 49.1358000000,27.4270000000,0 49.1337000000,27.4188000000,0 49.1277000000,27.4189000000,0 49.1253000000,27.4158000000,0 49.1230000000,27.4062000000,0 49.1254000000,27.4028000000,0 49.1293000000,27.4010000000,0 49.1477000000,27.4080000000,0 49.1604000000,27.4100000000,0 49.1675000000,27.4004000000,0 49.1785000000,27.3950000000,0 49.1863000000,27.3934000000,0 49.1823000000,27.3939000000,0 49.1816000000,27.3917000000,0 49.1779000000,27.3949000000,0 49.1756000000,27.3949000000,0 49.1786000000,27.3911000000,0 49.1854000000,27.3898000000,0 49.1857000000,27.3862000000,0 49.1876000000,27.3855000000,0 49.1986000000,27.3886000000,0 49.2013000000,27.3915000000,0 49.2003000000,27.3931000000,0 49.2031000000,27.3946000000,0 49.2031000000,27.3863000000,0 49.2048000000,27.3826000000,0 49.2011000000,27.3764000000,0 49.2064000000,27.3739000000,0 49.2125000000,27.3740000000,0 49.2268000000,27.3779000000,0 49.2352000000,27.3854000000,0 49.2362000000,27.3957000000,0 49.2324000000,27.4058000000,0 49.2333000000,27.4089000000,0 49.2365000000,27.4069000000,0 49.2444000000,27.4109000000,0 49.2485000000,27.4098000000,0 49.2506000000,27.4080000000,0 49.2482000000,27.4036000000,0 49.2500000000,27.4000000000,0 49.2578000000,27.3944000000,0 49.2715000000,27.3885000000,0 49.2721000000,27.3867000000,0 49.2680000000,27.3786000000,0 49.2602000000,27.3766000000,0 49.2523000000,27.3654000000,0 49.2500000000,27.3639000000,0 49.2510000000,27.3673000000,0 49.2469000000,27.3692000000,0 49.2424000000,27.3684000000,0 49.2478000000,27.3723000000,0 49.2439000000,27.3753000000,0 49.2327000000,27.3693000000,0 49.2309000000,27.3605000000,0 49.2342000000,27.3545000000,0 49.2394000000,27.3544000000,0 49.2405000000,27.3444000000,0 49.2390000000,27.3395000000,0 49.2369000000,27.3370000000,0 49.2379000000,27.3389000000,0 49.2363000000,27.3393000000,0 49.2367000000,27.3415000000,0 49.2333000000,27.3407000000,0 49.2227000000,27.3332000000,0 49.2208000000,27.3283000000,0 49.2174000000,27.3285000000,0 49.2144000000,27.3211000000,0 49.2175000000,27.3112000000,0 49.2200000000,27.3085000000,0 49.2225000000,27.3081000000,0 49.2405000000,27.3135000000,0 49.2528000000,27.3246000000,0 49.2525000000,27.3277000000,0 49.2598000000,27.3319000000,0 49.2669000000,27.3323000000,0 49.2719000000,27.3347000000,0 49.2739000000,27.3380000000,0 49.2717000000,27.3400000000,0 49.2765000000,27.3387000000,0 49.2849000000,27.3416000000,0 49.2893000000,27.3525000000,0 49.2856000000,27.3417000000,0 49.2926000000,27.3371000000,0 49.3022000000,27.3377000000,0 49.3061000000,27.3362000000,0 49.3088000000,27.3348000000,0 49.3118000000,27.3286000000,0 49.3199000000,27.3250000000,0 49.3225000000,27.3176000000,0 49.3182000000,27.3182000000,0 49.3205000000,27.3191000000,0 49.3194000000,27.3203000000,0 49.3141000000,27.3199000000,0 49.3119000000,27.3155000000,0 49.3147000000,27.3124000000,0 49.3131000000,27.3100000000,0 49.3136000000,27.3064000000,0 49.3172000000,27.3032000000,0 49.3137000000,27.2787000000,0 49.3157000000,27.2738000000,0 49.3255000000,27.2627000000,0 49.3276000000,27.2488000000,0 49.3213000000,27.2469000000,0 49.3195000000,27.2436000000,0 49.3185000000,27.2226000000,0 49.3209000000,27.2198000000,0 49.3172000000,27.2192000000,0 49.3148000000,27.2149000000,0 49.3177000000,27.2078000000,0 49.3251000000,27.2044000000,0 49.3285000000,27.1979000000,0 49.3205000000,27.1931000000,0 49.3186000000,27.1812000000,0 49.3217000000,27.1774000000,0 49.3280000000,27.1748000000,0 49.3441000000,27.1595000000,0 49.3464000000,27.1557000000,0 49.3473000000,27.1429000000,0 49.3507000000,27.1401000000,0 49.3545000000,27.1447000000,0 49.3553000000,27.1546000000,0 49.3580000000,27.1624000000,0 49.3636000000,27.1646000000,0 49.3663000000,27.1676000000,0 49.3660000000,27.1770000000,0 49.3634000000,27.1846000000,0 49.3624000000,27.1829000000,0 49.3614000000,27.1838000000,0 49.3618000000,27.1888000000,0 49.3640000000,27.1914000000,0 49.3710000000,27.1948000000,0 49.3774000000,27.1925000000,0 49.3865000000,27.1955000000,0 49.3908000000,27.1934000000,0 49.3949000000,27.1982000000,0 49.3932000000,27.1991000000,0 49.3936000000,27.1997000000,0 49.3952000000,27.1985000000,0 49.3965000000,27.1999000000,0 49.3979000000,27.2009000000,0 49.3912000000,27.1932000000,0 49.3938000000,27.1896000000,0 49.3989000000,27.1868000000,0 49.3983000000,27.1779000000,0 49.4029000000,27.1807000000,0 49.4095000000,27.1920000000,0 49.4065000000,27.1955000000,0 49.4122000000,27.1945000000,0 49.4143000000,27.1912000000,0 49.4142000000,27.1883000000,0 49.4125000000,27.1837000000,0 49.4086000000,27.1835000000,0 49.4083000000,27.1740000000,0 49.4074000000,27.1710000000,0 49.4076000000,27.1748000000,0 49.4053000000,27.1689000000,0 49.4036000000,27.1694000000,0 49.4021000000,27.1675000000,0 49.4010000000,27.1625000000,0 49.3985000000,27.1646000000,0 49.3975000000,27.1639000000,0 49.4011000000,27.1576000000,0 49.4015000000,27.1596000000,0 49.4013000000,27.1562000000,0 49.4040000000,27.1560000000,0 49.4012000000,27.1559000000,0 49.4006000000,27.1545000000,0 49.4002000000,27.1440000000,0 49.3950000000,27.1447000000,0 49.3898000000,27.1538000000,0 49.3810000000,27.1498000000,0 49.3817000000,27.1531000000,0 49.3874000000,27.1567000000,0 49.3770000000,27.1569000000,0 49.3718000000,27.1548000000,0 49.3666000000,27.1497000000,0 49.3610000000,27.1349000000,0 49.3630000000,27.1270000000,0 49.3813000000,27.1129000000,0 49.3983000000,27.1120000000,0 49.4065000000,27.1063000000,0 49.4133000000,27.0979000000,0 49.4179000000,27.0950000000,0 49.4248000000,27.0945000000,0 49.4255000000,27.0963000000,0 49.4202000000,27.0992000000,0 49.4188000000,27.1222000000,0 49.4147000000,27.1240000000,0 49.4196000000,27.1316000000,0 49.4219000000,27.1271000000,0 49.4278000000,27.1299000000,0 49.4275000000,27.1385000000,0 49.4330000000,27.1447000000,0 49.4431000000,27.1453000000,0 49.4471000000,27.1381000000,0 49.4432000000,27.1211000000,0 49.4415000000,27.1238000000,0 49.4401000000,27.1224000000,0 49.4368000000,27.1229000000,0 49.4343000000,27.1192000000,0 49.4390000000,27.0990000000,0 49.4375000000,27.0944000000,0 49.4341000000,27.0922000000,0 49.4588000000,27.1053000000,0 49.4543000000,27.1056000000,0 49.4529000000,27.1128000000,0 49.4538000000,27.1191000000,0 49.4737000000,27.1307000000,0 49.4797000000,27.1315000000,0 49.4916000000,27.1289000000,0 49.4968000000,27.1262000000,0 49.4970000000,27.1241000000,0 49.5023000000,27.1207000000,0 49.5067000000,27.1201000000,0 49.5140000000,27.1129000000,0 49.5224000000,27.1187000000,0 49.5199000000,27.1230000000,0 49.5150000000,27.1263000000,0 49.5154000000,27.1285000000,0 49.5139000000,27.1268000000,0 49.5029000000,27.1365000000,0 49.4995000000,27.1443000000,0 49.5009000000,27.1451000000,0 49.5003000000,27.1477000000,0 49.4985000000,27.1481000000,0 49.4953000000,27.1536000000,0 49.4966000000,27.1597000000,0 49.4955000000,27.1623000000,0 49.5014000000,27.1683000000,0 49.5090000000,27.1723000000,0 49.5083000000,27.1736000000,0 49.5168000000,27.1832000000,0 49.5267000000,27.1885000000,0 49.5336000000,27.1957000000,0 49.5257000000,27.2024000000,0 49.5179000000,27.2041000000,0 49.5149000000,27.2065000000,0 49.5098000000,27.2145000000,0 49.5101000000,27.2183000000,0 49.5058000000,27.2201000000,0 49.5001000000,27.2281000000,0 49.4978000000,27.2289000000,0 49.4951000000,27.2259000000,0 49.4973000000,27.2205000000,0 49.4941000000,27.2242000000,0 49.4926000000,27.2246000000,0 49.4941000000,27.2225000000,0 49.4918000000,27.2238000000,0 49.4901000000,27.2282000000,0 49.4842000000,27.2317000000,0 49.4815000000,27.2371000000,0 49.4720000000,27.2379000000,0 49.4640000000,27.2346000000,0 49.4758000000,27.2553000000,0 49.4821000000,27.2602000000,0 49.4839000000,27.2654000000,0 49.4812000000,27.2759000000,0 49.4784000000,27.2775000000,0 49.4765000000,27.2815000000,0 49.4884000000,27.2897000000,0 49.4855000000,27.2981000000,0 49.4818000000,27.2911000000,0 49.4674000000,27.2817000000,0 49.4662000000,27.2778000000,0 49.4630000000,27.2760000000,0 49.4619000000,27.2731000000,0 49.4642000000,27.2665000000,0 49.4717000000,27.2622000000,0 49.4727000000,27.2604000000,0 49.4720000000,27.2593000000,0 49.4714000000,27.2618000000,0 49.4668000000,27.2631000000,0 49.4615000000,27.2700000000,0 49.4589000000,27.2690000000,0 49.4593000000,27.2664000000,0 49.4607000000,27.2664000000,0 49.4642000000,27.2618000000,0 49.4610000000,27.2654000000,0 49.4603000000,27.2636000000,0 49.4571000000,27.2695000000,0 49.4572000000,27.2772000000,0 49.4543000000,27.2820000000,0 49.4581000000,27.2983000000,0 49.4676000000,27.3169000000,0 49.4687000000,27.3223000000,0 49.4760000000,27.3296000000,0 49.4790000000,27.3363000000,0 49.4864000000,27.3446000000,0 49.4936000000,27.3479000000,0 49.5013000000,27.3480000000,0 49.5283000000,27.3556000000,0 49.5335000000,27.3552000000,0 49.5364000000,27.3524000000,0 49.5482000000,27.3543000000,0 49.5529000000,27.3492000000,0 49.5598000000,27.3479000000,0 49.5694000000,27.3435000000,0 49.5722000000,27.3360000000,0 49.5808000000,27.3290000000,0 49.5973000000,27.3243000000,0 49.6362000000,27.3197000000,0 49.6562000000,27.3147000000,0 49.6663000000,27.3138000000,0 49.6825000000,27.3083000000,0 49.6943000000,27.3021000000,0 49.7021000000,27.3008000000,0 49.6961000000,27.2987000000,0 49.6985000000,27.2938000000,0 49.6950000000,27.2996000000,0 49.6748000000,27.2969000000,0 49.6745000000,27.2987000000,0 49.6661000000,27.2999000000,0 49.6509000000,27.2990000000,0 49.6512000000,27.3005000000,0 49.6451000000,27.3002000000,0 49.6443000000,27.3038000000,0 49.6419000000,27.3053000000,0 49.6468000000,27.3059000000,0 49.6478000000,27.3080000000,0 49.6421000000,27.3131000000,0 49.6423000000,27.3152000000,0 49.6372000000,27.3149000000,0 49.6349000000,27.3127000000,0 49.6343000000,27.3147000000,0 49.6320000000,27.3148000000,0 49.5904000000,27.3024000000,0 49.5750000000,27.2914000000,0 49.5653000000,27.2812000000,0 49.5752000000,27.2931000000,0 49.5753000000,27.2952000000,0 49.5689000000,27.2944000000,0 49.5714000000,27.2985000000,0 49.5670000000,27.3024000000,0 49.5674000000,27.2989000000,0 49.5648000000,27.2984000000,0 49.5645000000,27.2961000000,0 49.5622000000,27.2988000000,0 49.5601000000,27.2973000000,0 49.5592000000,27.2942000000,0 49.5620000000,27.2924000000,0 49.5619000000,27.2899000000,0 49.5574000000,27.2928000000,0 49.5581000000,27.2893000000,0 49.5563000000,27.2890000000,0 49.5557000000,27.2872000000,0 49.5564000000,27.2919000000,0 49.5540000000,27.2980000000,0 49.5524000000,27.3008000000,0 49.5470000000,27.3028000000,0 49.5471000000,27.3041000000,0 49.5543000000,27.3055000000,0 49.5543000000,27.3045000000,0 49.5672000000,27.3095000000,0 49.5619000000,27.3216000000,0 49.5578000000,27.3235000000,0 49.5564000000,27.3260000000,0 49.5491000000,27.3286000000,0 49.5463000000,27.3259000000,0 49.5413000000,27.3312000000,0 49.5329000000,27.3352000000,0 49.5277000000,27.3354000000,0 49.5246000000,27.3354000000,0 49.5194000000,27.3323000000,0 49.5148000000,27.3323000000,0 49.5097000000,27.3279000000,0 49.5028000000,27.3253000000,0 49.4997000000,27.3222000000,0 49.4969000000,27.3114000000,0 49.4877000000,27.3040000000,0 49.4857000000,27.2986000000,0 49.4886000000,27.2899000000,0 49.5035000000,27.2960000000,0 49.4986000000,27.2936000000,0 49.4955000000,27.2892000000,0 49.4956000000,27.2755000000,0 49.4983000000,27.2712000000,0 49.5030000000,27.2692000000,0 49.5052000000,27.2633000000,0 49.5090000000,27.2466000000,0 49.5094000000,27.2425000000,0 49.5081000000,27.2427000000,0 49.5110000000,27.2281000000,0 49.5145000000,27.2336000000,0 49.5143000000,27.2423000000,0 49.5243000000,27.2432000000,0 49.5282000000,27.2361000000,0 49.5325000000,27.2346000000,0 49.5400000000,27.2364000000,0 49.5430000000,27.2331000000,0 49.5441000000,27.2213000000,0 49.5490000000,27.2072000000,0 49.5490000000,27.1961000000,0 49.5383000000,27.1916000000,0 49.5338000000,27.1953000000,0 49.5272000000,27.1886000000,0 49.5309000000,27.1834000000,0 49.5389000000,27.1816000000,0 49.5451000000,27.1773000000,0 49.5549000000,27.1635000000,0 49.5666000000,27.1699000000,0 49.5685000000,27.1725000000,0 49.5679000000,27.1744000000,0 49.5720000000,27.1762000000,0 49.5759000000,27.1817000000,0 49.5787000000,27.1828000000,0 49.5823000000,27.1814000000,0 49.5898000000,27.2115000000,0 49.5873000000,27.2120000000,0 49.5878000000,27.2140000000,0 49.5903000000,27.2136000000,0 49.5996000000,27.2505000000,0 49.6001000000,27.2513000000,0 49.6055000000,27.2551000000,0 49.6033000000,27.2577000000,0 49.6051000000,27.2589000000,0 49.6074000000,27.2564000000,0 49.6094000000,27.2580000000,0 49.6249000000,27.2831000000,0 49.6268000000,27.2843000000,0 49.6096000000,27.2578000000,0 49.6105000000,27.2568000000,0 49.6083000000,27.2568000000,0 49.5996000000,27.2500000000,0 49.5893000000,27.2085000000,0 49.6127000000,27.1920000000,0 49.6126000000,27.1599000000,0 49.6144000000,27.1584000000,0 49.6145000000,27.1547000000,0 49.6122000000,27.1547000000,0 49.6124000000,27.1791000000,0 49.6084000000,27.1791000000,0 49.6084000000,27.1811000000,0 49.6124000000,27.1812000000,0 49.6124000000,27.1853000000,0 49.6112000000,27.1853000000,0 49.6124000000,27.1916000000,0 49.5892000000,27.2075000000,0 49.5837000000,27.1863000000,0 49.5866000000,27.1846000000,0 49.5860000000,27.1827000000,0 49.5829000000,27.1830000000,0 49.5824000000,27.1810000000,0 49.5858000000,27.1791000000,0 49.5854000000,27.1682000000,0 49.5816000000,27.1643000000,0 49.5820000000,27.1630000000,0 49.5815000000,27.1634000000,0 49.5817000000,27.1656000000,0 49.5810000000,27.1663000000,0 49.5781000000,27.1662000000,0 49.5781000000,27.1640000000,0 49.5805000000,27.1635000000,0 49.5810000000,27.1627000000,0 49.5772000000,27.1592000000,0 49.5722000000,27.1577000000,0 49.5677000000,27.1460000000,0 49.5675000000,27.1418000000,0 49.5716000000,27.1351000000,0 49.5691000000,27.1352000000,0 49.5713000000,27.1343000000,0 49.5696000000,27.1280000000,0 49.5717000000,27.1205000000,0 49.5757000000,27.1103000000,0 49.5782000000,27.1085000000,0 49.5766000000,27.1081000000,0 49.5777000000,27.1042000000,0 49.5797000000,27.1018000000,0 49.5820000000,27.1028000000,0 49.5822000000,27.0998000000,0 49.5835000000,27.1005000000,0 49.5813000000,27.0983000000,0 49.5837000000,27.0921000000,0 49.5933000000,27.0806000000,0 49.6017000000,27.0743000000,0 49.6044000000,27.0774000000,0 49.6056000000,27.0819000000,0 49.6091000000,27.0849000000,0 49.6124000000,27.1028000000,0 49.6074000000,27.0749000000,0 49.6097000000,27.0731000000,0 49.6118000000,27.0748000000,0 49.6233000000,27.1136000000,0 49.6243000000,27.1155000000,0 49.6252000000,27.1166000000,0 49.6264000000,27.1173000000,0 49.6277000000,27.1176000000,0 49.6234000000,27.1136000000,0 49.6120000000,27.0748000000,0 49.6097000000,27.0729000000,0 49.6121000000,27.0706000000,0 49.6141000000,27.0722000000,0 49.6179000000,27.0852000000,0 49.6198000000,27.0888000000,0 49.6143000000,27.0722000000,0 49.6122000000,27.0705000000,0 49.6129000000,27.0694000000,0 49.6141000000,27.0682000000,0 49.6347000000,27.0710000000,0 49.6191000000,27.0687000000,0 49.6200000000,27.0672000000,0 49.6168000000,27.0684000000,0 49.6150000000,27.0625000000,0 49.6170000000,27.0614000000,0 49.6845000000,27.0893000000,0 49.6865000000,27.0986000000,0 49.7021000000,27.0986000000,0 49.7034000000,27.0708000000,0 49.7022000000,27.0738000000,0 49.7023000000,27.0861000000,0 49.6955000000,27.0863000000,0 49.6950000000,27.0741000000,0 49.6911000000,27.0742000000,0 49.6911000000,27.0803000000,0 49.6864000000,27.0804000000,0 49.6863000000,27.0746000000,0 49.6821000000,27.0745000000,0 49.6813000000,27.0837000000,0 49.6826000000,27.0851000000,0 49.6782000000,27.0834000000,0 49.6779000000,27.0740000000,0 49.6719000000,27.0740000000,0 49.6717000000,27.0807000000,0 49.6671000000,27.0786000000,0 49.6670000000,27.0741000000,0 49.6609000000,27.0762000000,0 49.6284000000,27.0629000000,0 49.6187000000,27.0557000000,0 49.6157000000,27.0552000000,0 49.6193000000,27.0543000000,0 49.6214000000,27.0553000000,0 49.6299000000,27.0572000000,0 49.6256000000,27.0560000000,0 49.6260000000,27.0536000000,0 49.6327000000,27.0496000000,0 49.6368000000,27.0423000000,0 49.6374000000,27.0343000000,0 49.6463000000,27.0234000000,0 49.6501000000,27.0235000000,0 49.6627000000,27.0356000000,0 49.6631000000,27.0340000000,0 49.6575000000,27.0299000000,0 49.6642000000,27.0234000000,0 49.6630000000,27.0268000000,0 49.6676000000,27.0311000000,0 49.6766000000,27.0230000000,0 49.6887000000,27.0331000000,0 49.6929000000,27.0292000000,0 49.6807000000,27.0184000000,0 49.6837000000,27.0136000000,0 49.6978000000,27.0247000000,0 49.7002000000,27.0309000000,0 49.6980000000,27.0246000000,0 49.6815000000,27.0106000000,0 49.6822000000,27.0129000000,0 49.6807000000,27.0161000000,0 49.6797000000,27.0142000000,0 49.6776000000,27.0150000000,0 49.6768000000,27.0127000000,0 49.6805000000,27.0112000000,0 49.6714000000,27.0121000000,0 49.6706000000,27.0143000000,0 49.6682000000,27.0135000000,0 49.6671000000,27.0104000000,0 49.6696000000,27.0049000000,0 49.6740000000,27.0042000000,0 49.6714000000,27.0032000000,0 49.6728000000,27.0005000000,0 49.6683000000,26.9994000000,0 49.6682000000,26.9981000000,0 49.6736000000,26.9981000000,0 49.6740000000,26.9953000000,0 49.6733000000,26.9973000000,0 49.6685000000,26.9969000000,0 49.6659000000,26.9922000000,0 49.6677000000,26.9851000000,0 49.6722000000,26.9803000000,0 49.6769000000,26.9767000000,0 49.6909000000,26.9827000000,0 49.6955000000,26.9831000000,0 49.6983000000,26.9827000000,0 49.7004000000,26.9821000000,0 49.6974000000,26.9827000000,0 49.6990000000,26.9789000000,0 49.6972000000,26.9828000000,0 49.6905000000,26.9824000000,0 49.6886000000,26.9798000000,0 49.6913000000,26.9781000000,0 49.6920000000,26.9791000000,0 49.6937000000,26.9781000000,0 49.6924000000,26.9786000000,0 49.6928000000,26.9769000000,0 49.6911000000,26.9769000000,0 49.6924000000,26.9761000000,0 49.6909000000,26.9766000000,0 49.6922000000,26.9758000000,0 49.6907000000,26.9764000000,0 49.6912000000,26.9747000000,0 49.6894000000,26.9746000000,0 49.6908000000,26.9735000000,0 49.6882000000,26.9751000000,0 49.6862000000,26.9727000000,0 49.6914000000,26.9645000000,0 49.6971000000,26.9600000000,0 49.7055000000,26.9645000000,0 49.7051000000,26.9681000000,0 49.7057000000,26.9643000000,0 49.6979000000,26.9593000000,0 49.7001000000,26.9549000000,0 49.7122000000,26.9467000000,0 49.7324000000,26.9411000000,0 49.7373000000,26.9347000000,0 49.7362000000,26.9337000000,0 49.7333000000,26.9386000000,0 49.7316000000,26.9385000000,0 49.7345000000,26.9329000000,0 49.7474000000,26.9252000000,0 49.7665000000,26.9108000000,0 49.7691000000,26.9099000000,0 49.7723000000,26.9162000000,0 49.7758000000,26.9187000000,0 49.7784000000,26.9193000000,0 49.7719000000,26.9153000000,0 49.7683000000,26.9070000000,0 49.7822000000,26.8985000000,0 49.7898000000,26.8985000000,0 49.7923000000,26.8959000000,0 49.8044000000,26.8926000000,0 49.8130000000,26.8857000000,0 49.8265000000,26.8825000000,0 49.8342000000,26.8781000000,0 49.8464000000,26.8769000000,0 49.8608000000,26.9009000000,0 49.8635000000,26.8997000000,0 49.8630000000,26.8981000000,0 49.8633000000,26.8996000000,0 49.8608000000,26.9007000000,0 49.8600000000,26.8995000000,0 49.8620000000,26.8986000000,0 49.8594000000,26.8981000000,0 49.8613000000,26.8972000000,0 49.8591000000,26.8975000000,0 49.8602000000,26.8955000000,0 49.8582000000,26.8961000000,0 49.8592000000,26.8940000000,0 49.8575000000,26.8948000000,0 49.8461000000,26.8759000000,0 49.8526000000,26.8703000000,0 49.8643000000,26.8661000000,0 49.8646000000,26.8632000000,0 49.8688000000,26.8621000000,0 49.8693000000,26.8604000000,0 49.8851000000,26.8570000000,0 49.8980000000,26.8576000000,0 49.8980000000,26.8561000000,0 49.9062000000,26.8581000000,0 49.9057000000,26.8601000000,0 49.9071000000,26.8629000000,0 49.9064000000,26.8564000000,0 49.9100000000,26.8551000000,0 49.9544000000,26.8528000000,0 49.9578000000,26.8448000000,0 49.9613000000,26.8409000000,0 49.9975000000,26.8208000000,0 50.0099000000,26.8002000000,0 50.0100642857,26.8000000000,0 50.1329431343,26.8000000000,0 50.1347768172,26.7979733538,0 50.1406202754,26.7898085162,0 50.1476696600,26.7864340145,0 50.1553582594,26.7817571179,0 50.1625413516,26.7763357611,0 50.1691471164,26.7702241497,0 50.1751095060,26.7634833905,0 50.1803689053,26.7561808813,0 50.1804561454,26.7560299630,0 50.1836070076,26.7533825903,0 50.1897798199,26.7470653993,0 50.1953037019,26.7401735753,0 50.2071490099,26.7238099540,0 50.2143697393,26.7182076639,0 50.2203636539,26.7131227797,0 50.2258910404,26.7075343042,0 50.2309097385,26.7014848638,0 50.2353814678,26.6950206007,0 50.2392814678,26.6888206007,0 50.2454783529,26.6771464753,0 50.2476783529,26.6721464753,0 50.2507808869,26.6640605747,0 50.2530918521,26.6557139020,0 50.2545898483,26.6471837488,0 50.2552610040,26.6385491060,0 50.2550991040,26.6298899320,0 50.2541056477,26.6212864124,0 50.2528056477,26.6133864124,0 50.2509548825,26.6047868915,0 50.2482734611,26.5964091191,0 50.2447869983,26.5883331258,0 50.2405287993,26.5806360593,0 50.2355395415,26.5733914476,0 50.2298668860,26.5666684965,0 50.2235650221,26.5605314285,0 50.2166941498,26.5550388694,0 50.2148941498,26.5537388694,0 50.2072605041,26.5487926771,0 50.1991665884,26.5446422682,0 50.1906950778,26.5413300372,0 50.1819325045,26.5388898168,0 50.1799909053,26.5385555469,0 50.1799921967,26.5375962551,0 50.1790955384,26.5285912662,0 50.1772991042,26.5197218442,0 50.1746210567,26.5110776622,0 50.1731210567,26.5069776622,0 50.1695815733,26.4986318858,0 50.1653792851,26.4909739113,0 50.1660630175,26.4876228306,0 50.1669721670,26.4787951647,0 50.1670075122,26.4699208766,0 50.1661687096,26.4610862487,0 50.1658052781,26.4592296324,0 50.1667503048,26.4594031658,0 50.1754343379,26.4601407330,0 50.1841489943,26.4600348956,0 50.1928125537,26.4590866460,0 50.2007094281,26.4574373613,0 50.2067660612,26.4598222224,0 50.2150356439,26.4621955729,0 50.2234940601,26.4637684643,0 50.2320640156,26.4645265234,0 50.2406671971,26.4644628230,0 50.2492249879,26.4635779450,0 50.2576591856,26.4618799758,0 50.2658927176,26.4593844314,0 50.2738503449,26.4561141165,0 50.2814593496,26.4520989156,0 50.2886501998,26.4473755202,0 50.2953571846,26.4419870932,0 50.3015190147,26.4359828746,0 50.3070793827,26.4294177319,0 50.3119874771,26.4223516580,0 50.3161984472,26.4148492236,0 50.3193984472,26.4084492236,0 50.3230934164,26.4000035947,0 50.3259050673,26.3912242972,0 50.3278039014,26.3822034395,0 50.3287699970,26.3730356642,0 50.3287932182,26.3638171553,0 50.3278733214,26.3546446292,0 50.3260199578,26.3456143197,0 50.3236250181,26.3380044140,0 50.3236247321,26.3379859542,0 50.3235247321,26.3363859542,0 50.3226044150,26.3279998216,0 50.3219337656,26.3247429281,0 50.3219522608,26.3246504522,0 50.3232819005,26.3156650507,0 50.3236990724,26.3065913883,0 50.3231995273,26.2975218880,0 50.3217883535,26.2885489303,0 50.3194799250,26.2797639124,0 50.3188938807,26.2781971113,0 50.3282849820,26.2776446936,0 50.3373889022,26.2766423294,0 50.3463438066,26.2747198867,0 50.3550569552,26.2718972748,0 50.3634381122,26.2682037255,0 50.3714004796,26.2636774906,0 50.3788615967,26.2583654449,0 50.3857441939,26.2523226017,0 50.3919769929,26.2456115426,0 50.3974954448,26.2383017693,0 50.4022423990,26.2304689841,0 50.4036423990,26.2278689841,0 50.4072401386,26.2203782807,0 50.4101316469,26.2125876745,0 50.4122922732,26.2045635820,0 50.4137035976,26.1963744105,0 50.4143535883,26.1880899745,0 50.4142367039,26.1797809009,0 50.4133539409,26.1715180263,0 50.4117128250,26.1633717937,0 50.4111128250,26.1609717937,0 50.4086144248,26.1526916399,0 50.4053327691,26.1446895348,0 50.4012981638,26.1370393772,0 50.3996834163,26.1345825433,0 50.3987415897,26.1329160618,0 50.3938005973,26.1258502503,0 50.3882061496,26.1192896670,0 50.3820095905,26.1132945228,0 50.3752677901,26.1079198391,0 50.3680426222,26.1032149429,0 50.3604003971,26.0992230144,0 50.3524112525,26.0959806899,0 50.3441485102,26.0935177266,0 50.3356880029,26.0918567286,0 50.3271073782,26.0910129401,0 50.3184853864,26.0909941050,0 50.3099011571,26.0918003963,0 50.3014334735,26.0934244139,0 50.2931600493,26.0958512534,0 50.2905600493,26.0967512534,0 50.2820387840,26.1001976343,0 50.2739134848,26.1044951935,0 50.2705277078,26.1067557104,0 50.2690189960,26.1047995525,0 50.2660108746,26.1005498422,0 50.2602060205,26.0938567892,0 50.2537712236,26.0877669058,0 50.2530712236,26.0871669058,0 50.2517650770,26.0861530899,0 50.2508045142,26.0787126613,0 50.2488863373,26.0703033283,0 50.2461758644,26.0621279808,0 50.2462317211,26.0607497423,0 50.2463711230,26.0599208465,0 50.2469789709,26.0512454542,0 50.2467466607,26.0425518966,0 50.2466635181,26.0418814616,0 50.2466137041,26.0383122067,0 50.2455754531,26.0293040911,0 50.2447754531,26.0245040911,0 50.2427665760,26.0153926519,0 50.2398251840,26.0065381545,0 50.2368705435,26.0000000000,0 50.0618600000,26.0000000000,0 50.0617000000,25.9998000000,0 50.0615000000,25.9942000000,0 50.0636000000,25.9905000000,0 50.0673000000,25.9882000000,0 50.0805000000,25.9853000000,0 50.1028000000,25.9869000000,0 50.1182000000,25.9682000000,0 50.1194000000,25.9646000000,0 50.1146000000,25.9519000000,0 50.1147000000,25.9464000000,0 50.1233000000,25.9364000000,0 50.1331000000,25.9309000000,0 50.1295000000,25.9282000000,0 50.1279000000,25.9305000000,0 50.1253000000,25.9309000000,0 50.1142000000,25.9276000000,0 50.1058000000,25.9173000000,0 50.1028000000,25.9034000000,0 50.1035000000,25.9014000000,0 50.1054000000,25.9017000000,0 50.1065000000,25.9014000000,0 50.1032000000,25.9011000000,0 50.1031000000,25.8994000000,0 50.1055000000,25.8934000000,0 50.1100000000,25.8937000000,0 50.1062000000,25.8913000000,0 50.1089000000,25.8875000000,0 50.1087000000,25.8834000000,0 50.1109000000,25.8794000000,0 50.1166000000,25.8745000000,0 50.1180000000,25.8700000000,0 50.1200000000,25.8699000000,0 50.1177000000,25.8687000000,0 50.1199000000,25.8629000000,0 50.1224000000,25.8613000000,0 50.1203000000,25.8620000000,0 50.1211000000,25.8606000000,0 50.1292000000,25.8526000000,0 50.1281000000,25.8523000000,0 50.1286000000,25.8476000000,0 50.1351000000,25.8384000000,0 50.1341000000,25.8364000000,0 50.1366000000,25.8305000000,0 50.1402000000,25.8303000000,0 50.1411000000,25.8288000000,0 50.1393000000,25.8261000000,0 50.1411000000,25.8225000000,0 50.1490000000,25.8211000000,0 50.1400000000,25.8213000000,0 50.1470000000,25.8203000000,0 50.1450000000,25.8190000000,0 50.1618000000,25.7965000000,0 50.1648000000,25.7896000000,0 50.1770000000,25.7713000000,0 50.1802000000,25.7717000000,0 50.1776000000,25.7700000000,0 50.1825000000,25.7624000000,0 50.1924000000,25.7524000000,0 50.2130000000,25.7461000000,0 50.2165000000,25.7430000000,0 50.2273000000,25.7252000000,0 50.2293000000,25.7180000000,0 50.2297000000,25.7066000000,0 50.2375000000,25.6898000000,0 50.2494000000,25.6789000000,0 50.2629000000,25.6722000000,0 50.2627000000,25.6675000000,0 50.2658000000,25.6574000000,0 50.2620000000,25.6367000000,0 50.2633000000,25.6331000000,0 50.2691000000,25.6271000000,0 50.2647000000,25.6121000000,0 50.2643000000,25.6227000000,0 50.2603000000,25.6264000000,0 50.2599000000,25.6302000000,0 50.2613000000,25.6319000000,0 50.2583000000,25.6343000000,0 50.2599000000,25.6343000000,0 50.2594000000,25.6368000000,0 50.2570000000,25.6365000000,0 50.2586000000,25.6506000000,0 50.2556000000,25.6525000000,0 50.2498000000,25.6525000000,0 50.2470000000,25.6457000000,0 50.2475000000,25.6594000000,0 50.2445000000,25.6625000000,0 50.2430000000,25.6718000000,0 50.2350000000,25.6837000000,0 50.2297000000,25.6841000000,0 50.2224000000,25.6815000000,0 50.2199000000,25.6789000000,0 50.2208000000,25.6746000000,0 50.2185000000,25.6739000000,0 50.2189000000,25.6758000000,0 50.2156000000,25.6792000000,0 50.2115000000,25.6889000000,0 50.2075000000,25.6917000000,0 50.1954000000,25.6915000000,0 50.1966000000,25.6987000000,0 50.1954000000,25.7007000000,0 50.1833000000,25.7073000000,0 50.1769000000,25.7072000000,0 50.1741000000,25.7164000000,0 50.1641000000,25.7307000000,0 50.1587000000,25.7308000000,0 50.1448000000,25.7248000000,0 50.1453000000,25.7259000000,0 50.1435000000,25.7265000000,0 50.1457000000,25.7281000000,0 50.1454000000,25.7302000000,0 50.1421000000,25.7364000000,0 50.1370000000,25.7414000000,0 50.1349000000,25.7396000000,0 50.1342000000,25.7316000000,0 50.1438000000,25.7251000000,0 50.1428000000,25.7195000000,0 50.1443000000,25.7152000000,0 50.1490000000,25.7096000000,0 50.1559000000,25.6942000000,0 50.1813000000,25.6738000000,0 50.1867000000,25.6743000000,0 50.1879000000,25.6730000000,0 50.1896000000,25.6705000000,0 50.1850000000,25.6676000000,0 50.1883000000,25.6604000000,0 50.1927000000,25.6604000000,0 50.1963000000,25.6628000000,0 50.1961000000,25.6671000000,0 50.1988000000,25.6714000000,0 50.1987000000,25.6820000000,0 50.2015000000,25.6840000000,0 50.2020000000,25.6871000000,0 50.2093000000,25.6812000000,0 50.2097000000,25.6672000000,0 50.2112000000,25.6643000000,0 50.2154000000,25.6616000000,0 50.2171000000,25.6547000000,0 50.2198000000,25.6509000000,0 50.2174000000,25.6438000000,0 50.2134000000,25.6429000000,0 50.2109000000,25.6386000000,0 50.2135000000,25.6325000000,0 50.2169000000,25.6292000000,0 50.2163000000,25.6263000000,0 50.2192000000,25.6200000000,0 50.2232000000,25.6166000000,0 50.2311000000,25.6037000000,0 50.2555000000,25.5902000000,0 50.2601000000,25.5724000000,0 50.2667000000,25.5658000000,0 50.2726000000,25.5560000000,0 50.2802000000,25.5536000000,0 50.2890000000,25.5484000000,0 50.2997000000,25.5473000000,0 50.3094000000,25.5436000000,0 50.3125000000,25.5396000000,0 50.3061000000,25.5384000000,0 50.3026000000,25.5338000000,0 50.3087000000,25.5269000000,0 50.3117000000,25.5149000000,0 50.3328000000,25.5010000000,0 50.3377000000,25.4901000000,0 50.3423000000,25.4871000000,0 50.3449000000,25.4826000000,0 50.3469000000,25.4746000000,0 50.3602000000,25.4674000000,0 50.3633000000,25.4629000000,0 50.3645000000,25.4565000000,0 50.3702000000,25.4485000000,0 50.3827000000,25.4472000000,0 50.3886000000,25.4434000000,0 50.3919000000,25.4336000000,0 50.3906000000,25.4291000000,0 50.3935000000,25.4200000000,0 50.3980000000,25.4169000000,0 50.3982000000,25.4112000000,0 50.4059000000,25.4090000000,0 50.4089000000,25.4075000000,0 50.4108000000,25.4043000000,0 50.4124000000,25.4045000000,0 50.4116000000,25.4069000000,0 50.4085000000,25.4085000000,0 50.4059000000,25.4152000000,0 50.4071000000,25.4228000000,0 50.4052000000,25.4308000000,0 50.4015000000,25.4390000000,0 50.4013000000,25.4390000000,0 50.4012000000,25.4378000000,0 50.4011000000,25.4375000000,0 50.4009000000,25.4374000000,0 50.3961000000,25.4537000000,0 50.3939000000,25.4564000000,0 50.3904000000,25.4567000000,0 50.3835000000,25.4534000000,0 50.3838000000,25.4513000000,0 50.3864000000,25.4504000000,0 50.3856000000,25.4461000000,0 50.3896000000,25.4449000000,0 50.3863000000,25.4466000000,0 50.3871000000,25.4490000000,0 50.3889000000,25.4483000000,0 50.3917000000,25.4429000000,0 50.3857000000,25.4460000000,0 50.3816000000,25.4500000000,0 50.3797000000,25.4570000000,0 50.3828000000,25.4655000000,0 50.3813000000,25.4759000000,0 50.3725000000,25.4893000000,0 50.3648000000,25.4940000000,0 50.3617000000,25.5025000000,0 50.3798000000,25.5048000000,0 50.3831000000,25.5081000000,0 50.3809000000,25.5123000000,0 50.3838000000,25.5107000000,0 50.3954000000,25.4972000000,0 50.3949000000,25.4890000000,0 50.3932000000,25.4895000000,0 50.3934000000,25.4919000000,0 50.3902000000,25.4925000000,0 50.3871000000,25.4904000000,0 50.3858000000,25.4868000000,0 50.3880000000,25.4818000000,0 50.3936000000,25.4793000000,0 50.3975000000,25.4717000000,0 50.4067000000,25.4673000000,0 50.4147000000,25.4574000000,0 50.4276000000,25.4454000000,0 50.4487000000,25.4423000000,0 50.4513000000,25.4388000000,0 50.4794000000,25.4174000000,0 50.4933000000,25.4027000000,0 50.4948000000,25.3974000000,0 50.4922000000,25.3938000000,0 50.4925000000,25.3925000000,0 50.4938000000,25.3948000000,0 50.4926000000,25.3917000000,0 50.4935000000,25.3814000000,0 50.5040000000,25.3709000000,0 50.5090000000,25.3550000000,0 50.5095000000,25.3445000000,0 50.5197000000,25.3304000000,0 50.5274000000,25.3142000000,0 50.5320000000,25.2993000000,0 50.5291000000,25.2879000000,0 50.5322000000,25.2804000000,0 50.5328000000,25.2723000000,0 50.5201000000,25.2476000000,0 50.5236000000,25.2298000000,0 50.5311000000,25.2159000000,0 50.5459000000,25.2043000000,0 50.5528000000,25.1955000000,0 50.5591000000,25.1818000000,0 50.5602000000,25.1615000000,0 50.5575000000,25.1516000000,0 50.5582000000,25.1483000000,0 50.5475000000,25.1397000000,0 50.5454000000,25.1352000000,0 50.5501000000,25.1216000000,0 50.5565000000,25.1096000000,0 50.5596000000,25.0829000000,0 50.5649000000,25.0716000000,0 50.5700000000,25.0674000000,0 50.5709000000,25.0642000000,0 50.5668000000,25.0619000000,0 50.5631000000,25.0564000000,0 50.5610000000,25.0463000000,0 50.5633000000,25.0428000000,0 50.5615000000,25.0439000000,0 50.5650000000,25.0387000000,0 50.5685000000,25.0375000000,0 50.5739000000,25.0326000000,0 50.5796000000,25.0339000000,0 50.5849000000,25.0312000000,0 50.5866000000,25.0318000000,0 50.5748000000,25.0483000000,0 50.5766000000,25.0525000000,0 50.5747000000,25.0624000000,0 50.5765000000,25.0679000000,0 50.5811000000,25.0699000000,0 50.5853000000,25.0667000000,0 50.5881000000,25.0605000000,0 50.5930000000,25.0575000000,0 50.6017000000,25.0443000000,0 50.6093000000,25.0393000000,0 50.6173000000,25.0224000000,0 50.6243000000,25.0146000000,0 50.6313000000,24.9992000000,0 50.6390000000,24.9902000000,0 50.6505000000,24.9811000000,0 50.6518000000,24.9761000000,0 50.6573000000,24.9694000000,0 50.6606000000,24.9589000000,0 50.6679000000,24.9522000000,0 50.6735000000,24.9442000000,0 50.6759000000,24.9342000000,0 50.6739000000,24.9301000000,0 50.6727000000,24.9100000000,0 50.6827000000,24.8941000000,0 50.6891000000,24.8900000000,0 50.7018000000,24.8909000000,0 50.7057000000,24.8897000000,0 50.7163000000,24.8834000000,0 50.7178000000,24.8776000000,0 50.7280000000,24.8712000000,0 50.7278000000,24.8609000000,0 50.7304000000,24.8566000000,0 50.7306000000,24.8526000000,0 50.7286000000,24.8482000000,0 50.7290000000,24.8418000000,0 50.7331000000,24.8323000000,0 50.7397000000,24.8234000000,0 50.7462000000,24.8202000000,0 50.7488000000,24.8112000000,0 50.7457000000,24.7907000000,0 50.7520000000,24.7626000000,0 50.7587000000,24.7551000000,0 50.7576000000,24.7514000000,0 50.7616000000,24.7449000000,0 50.7614000000,24.7399000000,0 50.7587000000,24.7360000000,0 50.7591000000,24.7306000000,0 50.7606000000,24.7316000000,0 50.7615000000,24.7306000000,0 50.7605000000,24.7285000000,0 50.7644000000,24.7279000000,0 50.7657000000,24.7305000000,0 50.7638000000,24.7329000000,0 50.7642000000,24.7339000000,0 50.7678000000,24.7263000000,0 50.7680000000,24.7247000000,0 50.7703000000,24.7246000000,0 50.7682000000,24.7242000000,0 50.7662000000,24.7210000000,0 50.7723000000,24.7182000000,0 50.7799000000,24.7333000000,0 50.7863000000,24.7372000000,0 50.7901000000,24.7432000000,0 50.7985000000,24.7456000000,0 50.8025000000,24.7436000000,0 50.8117000000,24.7445000000,0 50.8433000000,24.6962000000,0 50.8734000000,24.6460000000,0 50.9284000000,24.5468000000,0 50.9343000000,24.5415000000,0 50.9945000000,24.5040000000,0 51.0246000000,24.4924000000,0 51.0985000000,24.4708000000,0 51.3138000000,24.4854000000,0 51.3653000000,24.5214000000,0 51.4139000000,24.5971000000,0 51.4018000000,24.6254000000,0 51.4022000000,24.6258000000,0 51.4089000000,24.6246000000,0 51.4064000000,24.6205000000,0 51.4121000000,24.6144000000,0 51.4144000000,24.6136000000,0 51.4149000000,24.6147000000,0 51.4167000000,24.6129000000,0 51.4187000000,24.6132000000,0 51.4191000000,24.6156000000,0 51.4240000000,24.6149000000,0 51.4259000000,24.6105000000,0 51.4304000000,24.6117000000,0 51.4303000000,24.6153000000,0 51.4329000000,24.6185000000,0 51.4308000000,24.6197000000,0 51.4305000000,24.6224000000,0 51.4363000000,24.6213000000,0 51.4371000000,24.6226000000,0 51.4384000000,24.6214000000,0 51.4386000000,24.6226000000,0 51.4408000000,24.6225000000,0 51.4411000000,24.6206000000,0 51.4430000000,24.6207000000,0 51.4463000000,24.6139000000,0 51.4492000000,24.6117000000,0 51.4486000000,24.6098000000,0 51.4510000000,24.6095000000,0 51.4499000000,24.6060000000,0 51.4522000000,24.6062000000,0 51.4522000000,24.6044000000,0 51.4498000000,24.6036000000,0 51.4498000000,24.6008000000,0 51.4535000000,24.5946000000,0 51.4494000000,24.5927000000,0 51.4492000000,24.5910000000,0 51.4497000000,24.5846000000,0 51.4524000000,24.5799000000,0 51.4582000000,24.5801000000,0 51.4622000000,24.5833000000,0 51.4588000000,24.5898000000,0 51.4656000000,24.5893000000,0 51.4674000000,24.5909000000,0 51.4702000000,24.5897000000,0 51.4722000000,24.5923000000,0 51.4739000000,24.5900000000,0 51.4749000000,24.5918000000,0 51.4753000000,24.5902000000,0 51.4768000000,24.5903000000,0 51.4782000000,24.5923000000,0 51.4766000000,24.5954000000,0 51.4774000000,24.5971000000,0 51.4823000000,24.5946000000,0 51.4855000000,24.5903000000,0 51.4865000000,24.5870000000,0 51.4847000000,24.5860000000,0 51.4877000000,24.5804000000,0 51.4897000000,24.5806000000,0 51.4899000000,24.5789000000,0 51.4939000000,24.5772000000,0 51.4962000000,24.5808000000,0 51.4991000000,24.5776000000,0 51.4981000000,24.5777000000,0 51.4980000000,24.5770000000,0 51.5050000000,24.5742000000,0 51.5049000000,24.5717000000,0 51.5034000000,24.5725000000,0 51.5027000000,24.5704000000,0 51.4995000000,24.5702000000,0 51.4977000000,24.5678000000,0 51.4860000000,24.5656000000,0 51.4842000000,24.5615000000,0 51.4882000000,24.5604000000,0 51.4871000000,24.5585000000,0 51.4741000000,24.5607000000,0 51.4719000000,24.5595000000,0 51.4726000000,24.5573000000,0 51.4703000000,24.5553000000,0 51.4687000000,24.5557000000,0 51.4704000000,24.5555000000,0 51.4700000000,24.5572000000,0 51.4668000000,24.5583000000,0 51.4605000000,24.5568000000,0 51.4570000000,24.5589000000,0 51.4538000000,24.5574000000,0 51.4469000000,24.5504000000,0 51.4426000000,24.5422000000,0 51.4424000000,24.5373000000,0 51.4436000000,24.5350000000,0 51.4459000000,24.5345000000,0 51.4457000000,24.5326000000,0 51.4451000000,24.5339000000,0 51.4430000000,24.5331000000,0 51.4396000000,24.5345000000,0 51.4364000000,24.5301000000,0 51.4340000000,24.5328000000,0 51.4360000000,24.5336000000,0 51.4363000000,24.5358000000,0 51.4324000000,24.5370000000,0 51.4282000000,24.5371000000,0 51.4229000000,24.5344000000,0 51.4158000000,24.5249000000,0 51.4132000000,24.5141000000,0 51.4153000000,24.5062000000,0 51.4113000000,24.4999000000,0 51.4107000000,24.4959000000,0 51.4003000000,24.4925000000,0 51.3918000000,24.4787000000,0 51.3825000000,24.4751000000,0 51.3754000000,24.4644000000,0 51.3672000000,24.4660000000,0 51.3622000000,24.4647000000,0 51.3471000000,24.4509000000,0 51.3382000000,24.4459000000,0 51.3267000000,24.4348000000,0 51.3202000000,24.4246000000,0 51.3100000000,24.3867000000,0 51.3078000000,24.3705000000,0 51.3055000000,24.3598000000,0 51.3040000000,24.3584000000,0 51.3042000000,24.3486000000,0 51.3008000000,24.3447000000,0 51.2993000000,24.3439000000,0 51.3021000000,24.3475000000,0 51.2994000000,24.3488000000,0 51.3012000000,24.3507000000,0 51.2999000000,24.3550000000,0 51.2943000000,24.3528000000,0 51.2931000000,24.3553000000,0 51.2922000000,24.3510000000,0 51.2895000000,24.3508000000,0 51.2910000000,24.3496000000,0 51.2889000000,24.3458000000,0 51.2887000000,24.3524000000,0 51.2844000000,24.3485000000,0 51.2876000000,24.3436000000,0 51.2876000000,24.3383000000,0 51.2871000000,24.3424000000,0 51.2854000000,24.3408000000,0 51.2836000000,24.3437000000,0 51.2801000000,24.3414000000,0 51.2789000000,24.3361000000,0 51.2763000000,24.3335000000,0 51.2763000000,24.3319000000,0 51.2823000000,24.3369000000,0 51.2829000000,24.3415000000,0 51.2863000000,24.3383000000,0 51.2833000000,24.3386000000,0 51.2833000000,24.3361000000,0 51.2885000000,24.3326000000,0 51.2843000000,24.3332000000,0 51.2839000000,24.3312000000,0 51.2806000000,24.3304000000,0 51.2806000000,24.3294000000,0 51.2826000000,24.3308000000,0 51.2840000000,24.3295000000,0 51.2817000000,24.3279000000,0 51.2856000000,24.3257000000,0 51.2860000000,24.3189000000,0 51.2854000000,24.3172000000,0 51.2856000000,24.3196000000,0 51.2838000000,24.3191000000,0 51.2809000000,24.3115000000,0 51.2807000000,24.3048000000,0 51.2788000000,24.3082000000,0 51.2782000000,24.3036000000,0 51.2762000000,24.3022000000,0 51.2756000000,24.2972000000,0 51.2782000000,24.2953000000,0 51.2767000000,24.2944000000,0 51.2817000000,24.2898000000,0 51.2929000000,24.2843000000,0 51.3010000000,24.2856000000,0 51.3039000000,24.2881000000,0 51.3013000000,24.2883000000,0 51.3066000000,24.2915000000,0 51.3152000000,24.2941000000,0 51.3362000000,24.2896000000,0 51.3550000000,24.2887000000,0 51.3636000000,24.2916000000,0 51.3719000000,24.2992000000,0 51.3788000000,24.3104000000,0 51.3797000000,24.3133000000,0 51.3784000000,24.3125000000,0 51.3784000000,24.3137000000,0 51.3813000000,24.3162000000,0 51.3928000000,24.3224000000,0 51.4040000000,24.3241000000,0 51.4054000000,24.3263000000,0 51.4045000000,24.3278000000,0 51.4160000000,24.3233000000,0 51.4245000000,24.3219000000,0 51.4385000000,24.3227000000,0 51.4402000000,24.3234000000,0 51.4402000000,24.3252000000,0 51.4441000000,24.3240000000,0 51.4454000000,24.3257000000,0 51.4442000000,24.3240000000,0 51.4449000000,24.3237000000,0 51.4465000000,24.3249000000,0 51.4470000000,24.3247000000,0 51.4453000000,24.3235000000,0 51.4470000000,24.3224000000,0 51.4454000000,24.3204000000,0 51.4500000000,24.3164000000,0 51.4644000000,24.3144000000,0 51.4719000000,24.3156000000,0 51.4742000000,24.3107000000,0 51.4882000000,24.3069000000,0 51.4894000000,24.3049000000,0 51.4860000000,24.3073000000,0 51.4839000000,24.3066000000,0 51.4858000000,24.3045000000,0 51.4930000000,24.3027000000,0 51.4948000000,24.2988000000,0 51.5003000000,24.2959000000,0 51.5058000000,24.2867000000,0 51.5114000000,24.2836000000,0 51.5116000000,24.2801000000,0 51.5162000000,24.2716000000,0 51.5237000000,24.2667000000,0 51.5247000000,24.2607000000,0 51.5338000000,24.2513000000,0 51.5435000000,24.2485000000,0 51.5620000000,24.2479000000,0 51.5754000000,24.2513000000,0 51.5807000000,24.2506000000,0 51.5808000000,24.2526000000,0 51.5810000000,24.2507000000,0 51.5890000000,24.2546000000,0 51.5904000000,24.1270000000,0 51.7581000000,23.9306000000,0 51.9202000000,23.7377000000,0 52.5810000000,22.9392000000,0 53.3313000000,22.8533000000,0 53.8074000000,22.7968000000,0 54.5376000000,22.7076000000,0 55.1373000000,22.6316000000,0 55.1904000000,22.6909000000,0 55.2092000000,22.7088000000,0 55.2753000000,22.6066000000,0 55.4816000000,22.2872000000,0 55.5273000000,22.2131000000,0 55.5667000000,22.1553000000,0 55.6667000000,22.0000000000,0 55.5502000000,21.6546000000,0 55.5147000000,21.5445000000,0</coordinates>
        </LinearRing>
      </outerBoundaryIs>
    </Polygon>
  </Placemark>
</Document>
</kml>
