<?xml version="1.0" encoding="UTF-8"?>
<kml xmlns="http://www.opengis.net/kml/2.2">
  <Document>
    <Placemark>
      <name>Christmas Island</name>
      <Polygon>
        <altitudeMode>clampToGround</altitudeMode>
        <outerBoundaryIs>
          <LinearRing>
            <coordinates>105.704112,-10.430841,0 105.714692,-10.437188,0 105.712657,-10.450942,0 105.711436,-10.469903,0 105.706309,-10.494236,0 105.706309,-10.514255,0 105.697927,-10.528985,0 105.699880,-10.553399,0 105.694591,-10.564874,0 105.678722,-10.566013,0 105.673513,-10.549086,0 105.667247,-10.533298,0 105.664073,-10.518487,0 105.649262,-10.513116,0 105.628184,-10.508966,0 105.604991,-10.510024,0 105.584972,-10.516371,0 105.581798,-10.504815,0 105.592296,-10.498468,0 105.599620,-10.480564,0 105.594249,-10.466729,0 105.594249,-10.454034,0 105.607188,-10.458429,0 105.627126,-10.468927,0 105.654552,-10.469903,0 105.669281,-10.456231,0 105.685232,-10.440362,0 105.704112,-10.430841,0</coordinates>
          </LinearRing>
        </outerBoundaryIs>
      </Polygon>
    </Placemark>
  </Document>
</kml>
