<?xml version='1.0' encoding='UTF-8'?>
<kml xmlns="http://www.opengis.net/kml/2.2">
  <Document>
    <name>Columbia</name>
    <Placemark>
      <name>Columbia</name>
      <Polygon>
        <outerBoundaryIs>
          <LinearRing>
            <coordinates>-121.332969,43.616645,0 -121.332413,43.356663,0 -121.348471,43.356753,0 -121.349679,42.746644,0 -120.883327,42.744214,0 -120.879926,41.993764,0 -115.038157,41.996012,0 -115.037774,42.911864,0 -115.08685,42.91467,0 -115.083071,43.604399,0 -115.0339,43.61877,0 -115.036089,43.675375,0 -115.00884,43.696912,0 -115.015343,43.726686,0 -115.04234,43.745582,0 -115.019756,43.822956,0 -114.973887,43.867358,0 -114.996687,43.914407,0 -114.971351,43.938308,0 -114.991311,43.953149,0 -114.967343,43.982088,0 -114.987427,43.99224,0 -114.982558,44.011188,0 -115.017628,44.012521,0 -115.048135,44.037803,0 -115.035298,44.069438,0 -114.996903,44.090551,0 -115.046725,44.119971,0 -115.018491,44.138789,0 -115.026506,44.158227,0 -115.107931,44.17006,0 -115.167684,44.20284,0 -115.174831,44.235464,0 -115.156613,44.246948,0 -115.175249,44.29298,0 -115.201221,44.282399,0 -115.213114,44.30451,0 -115.236791,44.30793,0 -115.243468,44.292244,0 -115.249734,44.311087,0 -115.288934,44.325855,0 -115.284281,44.358222,0 -115.231361,44.415347,0 -115.223645,44.463449,0 -115.247135,44.519717,0 -115.294503,44.532124,0 -115.305042,44.579592,0 -115.279542,44.61208,0 -115.198961,44.624182,0 -115.167998,44.647618,0 -115.139369,44.714875,0 -115.151937,44.728592,0 -115.11785,44.75566,0 -115.086232,44.771457,0 -115.032816,44.734974,0 -115.017155,44.743422,0 -115.00962,44.713367,0 -114.995963,44.728718,0 -114.947413,44.723038,0 -114.913627,44.75755,0 -114.813167,44.806914,0 -114.79309,44.836111,0 -114.766449,44.842742,0 -114.768911,44.872444,0 -114.723294,44.891177,0 -114.735905,44.925044,0 -114.723272,44.934387,0 -114.735991,44.974869,0 -114.719485,45.08796699999999,0 -114.733191,45.09449,0 -114.721482,45.121023,0 -114.73227,45.151155,0 -114.675715,45.232729,0 -114.593325,45.297415,0 -114.66347,45.336687,0 -114.675205,45.3652,0 -114.716235,45.39548,0 -114.763189,45.41408999999999,0 -114.769127,45.434557,0 -114.793207,45.43633400000001,0 -114.798042,45.496793,0 -114.774378,45.51360999999999,0 -114.663725,45.47100500000001,0 -114.631996,45.519177,0 -114.571537,45.549603,0 -114.538471,45.605764,0 -114.563987,45.637621,0 -114.509065,45.656806,0 -114.499049,45.67874,0 -114.514993,45.685032,0 -114.495385,45.70305500000001,0 -114.566465,45.77331,0 -114.509303,45.845531,0 -114.438348,45.862555,0 -114.410706,45.851824,0 -114.388557,45.882189,0 -114.431396,45.93604,0 -114.402524,45.95794399999999,0 -114.411755,45.97787000000001,0 -114.479992,45.99290200000001,0 -114.480505,46.030424,0 -114.507419,46.031861,0 -114.469438,46.06182999999999,0 -114.460475,46.09779,0 -114.520513,46.12491,0 -114.527096,46.146218,0 -114.514977,46.167415,0 -114.444091,46.169273,0 -114.448564,46.232964,0 -114.47072,46.26604100000001,0 -114.425441,46.287856,0 -114.432796,46.3061,0 -114.410493,46.365143,0 -114.422212,46.387331,0 -114.368541,46.43795900000001,0 -114.40255,46.500207,0 -114.342794,46.51825699999999,0 -114.347221,46.55242100000001,0 -114.329788,46.57722,0 -114.343733,46.590456,0 -114.322537,46.611284,0 -114.321118,46.647514,0 -114.358528,46.670697,0 -114.424424,46.660648,0 -114.467095,46.631764,0 -114.54232,46.64964699999999,0 -114.605269,46.635822,0 -114.642246,46.67361799999999,0 -114.621526,46.707879,0 -114.664572,46.739084,0 -114.698594,46.74045100000001,0 -114.713923,46.715061,0 -114.767272,46.697195,0 -114.788555,46.71366100000001,0 -114.765578,46.745623,0 -114.784838,46.780019,0 -114.829613,46.782967,0 -114.865779,46.814529,0 -114.895189,46.80163,0 -114.898236,46.822001,0 -114.948039,46.85963999999999,0 -114.925295,46.918749,0 -114.960964,46.930408,0 -115.001274,46.971901,0 -115.048383,46.969819,0 -115.071728,47.02585499999999,0 -115.131134,47.068956,0 -115.144341,47.101977,0 -115.245265,47.151751,0 -115.262422,47.181687,0 -115.300504,47.18813899999999,0 -115.291579,47.21000100000001,0 -115.320147,47.25670000000001,0 -115.483637,47.282134,0 -115.528511,47.299314,0 -115.549074,47.347205,0 -115.577639,47.367404,0 -115.642921,47.37736699999999,0 -115.657304,47.400208,0 -115.721435,47.42571400000001,0 -115.759304,47.42386199999999,0 -115.717039,47.452575,0 -115.640133,47.459714,0 -115.629974,47.479633,0 -115.686264,47.48494,0 -115.711398,47.516771,0 -115.698724,47.531653,0 -115.755663,47.5483,0 -115.68855,47.594333,0 -115.694444,47.623761,0 -115.736497,47.654738,0 -115.722789,47.694725,0 -115.773957,47.717904,0 -115.797332,47.75712800000001,0 -115.831944,47.755983,0 -115.852312,47.827857,0 -115.918772,47.85365599999999,0 -116.019758,47.96324,0 -116.050023,47.977871,0 -116.049086,49.000846,0 -120.851561,49.00027999999999,0 -120.880747,48.966662,0 -120.831784,48.938277,0 -120.799258,48.959329,0 -120.755593,48.94184400000001,0 -120.772052,48.926506,0 -120.770223,48.881826,0 -120.731351,48.85501499999999,0 -120.735427,48.786487,0 -120.65598,48.72489699999999,0 -120.678195,48.717826,0 -120.679972,48.694296,0 -120.703388,48.696919,0 -120.717333,48.664526,0 -120.74978,48.659272,0 -120.788307,48.625115,0 -120.760458,48.582761,0 -120.719212,48.596432,0 -120.686097,48.566496,0 -120.708676,48.541802,0 -120.703556,48.52640100000001,0 -120.765627,48.508873,0 -120.801827,48.51045299999999,0 -120.823947,48.54503,0 -120.844655,48.550552,0 -120.863213,48.530074,0 -120.950502,48.529581,0 -120.951068,48.499637,0 -121.036234,48.495297,0 -121.056534,48.47637,0 -121.060828,48.455158,0 -121.03713,48.433027,0 -121.066429,48.393539,0 -121.040631,48.3479,0 -121.069178,48.33904099999999,0 -121.071483,48.317956,0 -121.00375,48.299428,0 -121.012094,48.279909,0 -120.959848,48.22776900000001,0 -120.964769,48.211328,0 -120.919271,48.19038799999999,0 -120.907425,48.163184,0 -120.955566,48.151981,0 -120.965216,48.133962,0 -120.9471,48.113327,0 -121.015942,48.07479500000001,0 -121.153225,48.04074,0 -121.118183,47.997103,0 -121.165089,47.95621,0 -121.180776,47.898769,0 -121.157285,47.88228099999999,0 -121.153512,47.845312,0 -121.070871,47.830183,0 -121.120697,47.78260399999999,0 -121.065945,47.709279,0 -121.128824,47.676181,0 -121.119265,47.591872,0 -121.17225,47.590054,0 -121.180142,47.56492399999999,0 -121.2289,47.565603,0 -121.242871,47.535875,0 -121.29195,47.513551,0 -121.31154,47.479595,0 -121.364011,47.464725,0 -121.385108,47.43449,0 -121.427448,47.420617,0 -121.437788,47.371967,0 -121.465951,47.367977,0 -121.430372,47.334085,0 -121.445331,47.309816,0 -121.427492,47.289075,0 -121.341203,47.281261,0 -121.331959,47.257485,0 -121.365138,47.224563,0 -121.311259,47.207698,0 -121.317769,47.172976,0 -121.297819,47.148851,0 -121.315534,47.133844,0 -121.381317,47.13725500000001,0 -121.408081,47.1181,0 -121.402913,47.098576,0 -121.376893,47.089875,0 -121.374115,47.057005,0 -121.399801,47.033464,0 -121.409122,46.995189,0 -121.457568,46.964241,0 -121.456831,46.923146,0 -121.496986,46.908342,0 -121.52307,46.872783,0 -121.497345,46.862866,0 -121.442526,46.792988,0 -121.455027,46.780602,0 -121.424281,46.756629,0 -121.430734,46.740608,0 -121.353182,46.71195,0 -121.413217,46.675868,0 -121.416519,46.651923,0 -121.395189,46.645825,0 -121.386818,46.62083199999999,0 -121.424601,46.57001,0 -121.416646,46.54824,0 -121.450966,46.533894,0 -121.455981,46.516728,0 -121.423242,46.492743,0 -121.43657,46.478213,0 -121.386557,46.410601,0 -121.393759,46.39004,0 -121.522324,46.388224,0 -121.522321,46.04429300000001,0 -121.612232,46.044093,0 -121.609246,45.782519,0 -121.51438,45.782114,0 -121.538083,45.770929,0 -121.523669,45.72495800000001,0 -121.707358,45.694809,0 -121.811304,45.70676100000001,0 -121.867167,45.693277,0 -121.922029,45.649162,0 -121.901879,45.55619,0 -121.922136,45.546673,0 -121.906688,45.520828,0 -121.869342,45.514103,0 -121.776204,45.402672,0 -121.696925,45.373564,0 -121.70326,45.331267,0 -121.679081,45.29717699999999,0 -121.696411,45.255359,0 -121.680898,45.250581,0 -121.682607,45.228988,0 -121.74687,45.205997,0 -121.748649,45.1918,0 -121.699675,45.12179,0 -121.665717,45.11972,0 -121.651394,45.088803,0 -121.65871,45.066355,0 -121.691214,45.065692,0 -121.717652,45.037566,0 -121.778672,45.037277,0 -121.781177,45.01572,0 -121.805269,45.011496,0 -121.785593,44.950377,0 -121.79511,44.935668,0 -121.764083,44.941952,0 -121.747297,44.914636,0 -121.71456,44.90613,0 -121.746221,44.875394,0 -121.753589,44.828908,0 -121.820278,44.800134,0 -121.812542,44.781716,0 -121.759958,44.762326,0 -121.804597,44.729236,0 -121.787179,44.689291,0 -121.800402,44.683013,0 -121.811566,44.615767,0 -121.793895,44.594056,0 -121.816317,44.537376,0 -121.809382,44.514425,0 -121.84938,44.484523,0 -121.841346,44.285652,0 -121.789648,44.249326,0 -121.778226,44.221483,0 -121.771647,44.167583,0 -121.78402,44.148462,0 -121.769259,44.10134,0 -121.802225,44.052691,0 -121.834472,44.039744,0 -121.828402,43.988727,0 -121.859711,43.961526,0 -121.869385,43.911859,0 -121.928213,43.909181,0 -121.975113,43.85757,0 -121.961437,43.763745,0 -121.981248,43.742964,0 -121.966917,43.702821,0 -121.98691,43.653858,0 -121.964918,43.627045,0 -122.002362,43.615498,0 -121.332969,43.616645,0</coordinates>
          </LinearRing>
        </outerBoundaryIs>
      </Polygon>
    </Placemark>
  </Document>
</kml>
