<?xml version='1.0' encoding='UTF-8'?>
<kml xmlns="http://www.opengis.net/kml/2.2">
  <Document>
    <name>Deseret</name>
    <Placemark>
      <name>Deseret</name>
      <Polygon>
        <outerBoundaryIs>
          <LinearRing>
            <coordinates>-112.899191,37.00032,0 -112.901162,37.543486,0 -112.68375,37.543692,0 -112.689297,37.80559,0 -112.57855,37.80454,0 -112.588517,37.890367,0 -112.4683,37.890463,0 -112.478822,38.147419,0 -109.927974,38.151751,0 -109.885106,38.18818,0 -109.902449,38.18828,0 -109.887739,38.207649,0 -109.919883,38.224391,0 -109.88863,38.230156,0 -109.918257,38.242771,0 -109.901791,38.256807,0 -109.9075,38.270572,0 -109.93589,38.263101,0 -109.928896,38.281661,0 -109.963349,38.319492,0 -109.94094,38.353294,0 -109.9644,38.339743,0 -109.983714,38.352037,0 -109.976682,38.388993,0 -110.011771,38.364168,0 -110.010249,38.377605,0 -110.032662,38.385985,0 -110.003217,38.413617,0 -110.026588,38.447432,0 -110.044318,38.449011,0 -110.035991,38.459929,0 -110.010662,38.449741,0 -110.001977,38.481678,0 -110.025285,38.499982,0 -109.059962,38.500028,0 -109.050076,41.000659,0 -110.081463,40.997184,0 -110.048483,40.997555,0 -110.053708,42.270744,0 -110.541634,42.277491,0 -110.543329,42.448536,0 -110.59013,42.448494,0 -110.590074,42.710087,0 -110.623477,42.710181,0 -110.623434,42.779205,0 -110.587662,42.779188,0 -110.578656,43.235224,0 -110.813993,43.235178,0 -110.813996,43.31394,0 -111.044617,43.31572,0 -111.048974,44.474072,0 -111.127383,44.49762,0 -111.131382,44.532429,0 -111.173755,44.549333,0 -111.18103,44.569231,0 -111.227504,44.577172,0 -111.240332,44.613687,0 -111.220145,44.622996,0 -111.253183,44.651173,0 -111.278477,44.651265,0 -111.266804,44.667512,0 -111.323052,44.728555,0 -111.355153,44.727195,0 -111.385106,44.754898,0 -111.414273,44.710739,0 -111.442733,44.720232,0 -111.488784,44.705643,0 -111.472255,44.666896,0 -111.491934,44.643134,0 -111.516167,44.644059,0 -111.502489,44.62682,0 -111.525198,44.6052,0 -111.50134,44.57249,0 -111.509975,44.565159,0 -111.469318,44.557552,0 -111.463673,44.541591,0 -111.51527,44.537016,0 -111.586507,44.562657,0 -111.6173,44.550281,0 -111.617437,44.401254,0 -111.791624,44.40161,0 -111.791541,44.317021,0 -111.852276,44.316996,0 -111.857851,44.187759,0 -111.913744,44.18779,0 -111.913601,44.144337,0 -112.033664,44.144049,0 -112.034317,44.057358,0 -112.694744,44.058464,0 -112.697122,43.62314,0 -112.639238,43.623167,0 -112.699052,43.62313,0 -112.698891,43.540052,0 -112.816278,43.535949,0 -112.816704,43.449164,0 -112.936835,43.449386,0 -112.947016,43.284821,0 -113.361958,43.284678,0 -113.36191,43.36716,0 -113.63523,43.367546,0 -113.634325,43.497474,0 -113.67283,43.500359,0 -113.665557,43.511766,0 -113.694737,43.579559,0 -113.727656,43.59014,0 -113.802376,43.569987,0 -113.813355,43.600059,0 -113.835607,43.604909,0 -113.862703,43.645249,0 -113.904918,43.649719,0 -113.911904,43.671724,0 -113.974222,43.707825,0 -114.004151,43.764994,0 -114.029718,43.773361,0 -114.070019,43.734696,0 -114.116996,43.740347,0 -114.142407,43.774368,0 -114.275725,43.831138,0 -114.278814,43.878849,0 -114.292484,43.887062,0 -114.343532,43.890279,0 -114.359293,43.874177,0 -114.485066,43.904504,0 -114.515108,43.894739,0 -114.523498,43.848558,0 -114.56235,43.844368,0 -114.606151,43.89362,0 -114.660061,43.921884,0 -114.81379,43.927772,0 -114.813873,43.992941,0 -114.888111,43.98911,0 -114.979486,43.932946,0 -114.996687,43.914407,0 -114.973887,43.867358,0 -115.019756,43.822956,0 -115.04234,43.745582,0 -115.015343,43.726686,0 -115.00884,43.696912,0 -115.036089,43.675375,0 -115.0339,43.61877,0 -115.083071,43.604399,0 -115.08685,42.91467,0 -115.036133,42.911567,0 -115.038157,41.996012,0 -117.018209,41.999346,0 -117.018419,41.000254,0 -116.586788,41.000082,0 -116.600946,39.161463,0 -115.907071,39.161848,0 -115.000846,38.677322,0 -114.049883,38.677365,0 -114.049168,38.749951,0 -114.0506,37.000396,0 -112.899191,37.00032,0</coordinates>
          </LinearRing>
        </outerBoundaryIs>
      </Polygon>
    </Placemark>
  </Document>
</kml>
