<?xml version='1.0' encoding='UTF-8'?>
<kml xmlns="http://www.opengis.net/kml/2.2" xmlns:gx="http://www.google.com/kml/ext/2.2" xmlns:kml="http://www.opengis.net/kml/2.2">
  <Document>
    <name>East African Federation</name>
    <MultiGeometry>
      <Polygon>
        <outerBoundaryIs>
          <LinearRing>
            <coordinates>
										32.784334,-9.339687,0 32.920863,-9.4079,0 32.97471,-9.381235,0 33.103901,-9.487895,0 33.172941,-9.511046,0 33.202397,-9.493475999999999,0 33.300272,-9.492236,0 33.374996,-9.54908,0 33.404245,-9.604891,0 33.438971,-9.62153,0 33.480519,-9.624423999999999,0 33.559481,-9.593315,0 33.650638,-9.610988000000001,0 33.734612,-9.584117000000001,0 33.86525,-9.669589999999999,0 33.911862,-9.717959,0 33.954857,-9.660598,0 33.964469,-9.594659,0 33.945866,-9.55001,0 34.012735,-9.477456999999999,0 34.079811,-9.511046,0 34.288067,-9.708449999999999,0 34.317936,-9.719199,0 34.331682,-9.769221999999999,0 34.4833,-9.946161999999999,0 34.536424,-10.043003,0 34.524745,-10.094783,0 34.58562,-10.290017,0 34.565053,-10.409803,0 34.592958,-10.481736,0 34.581072,-10.539717,0 34.600399,-10.578061,0 34.624377,-10.583436,0 34.626341,-10.614338,0 34.660034,-10.665498,0 34.647631,-10.708389,0 34.67502,-10.752418,0 34.656727,-10.769884,0 34.645461,-10.913235,0 34.592958,-11.016174,0 34.613525,-11.102164,0 34.681841,-11.185053,0 34.714087,-11.202726,0 34.72866,-11.253989,0 34.757496,-11.277553,0 34.737032,-11.296777,0 34.765557,-11.345146,0 34.80049,-11.331917,0 34.886583,-11.375429,0 34.960687,-11.498522,0 34.964615,-11.573556,0 35.423501,-11.576553,0 35.441175,-11.591436,0 35.498742,-11.582341,0 35.531505,-11.612727,0 35.532745,-11.59557,0 35.576257,-11.605182,0 35.66483,-11.572006,0 35.703381,-11.516505,0 35.69563,-11.494594,0 35.764256,-11.474854,0 35.826371,-11.413462,0 35.939749,-11.434133,0 35.970341,-11.461211,0 35.969825,-11.502449,0 36.022225,-11.505653,0 36.168055,-11.578724,0 36.179218,-11.675565,0 36.199681,-11.701507,0 36.240919,-11.694582,0 36.278746,-11.708845,0 36.378068,-11.68094,0 36.494857,-11.68094,0 36.508707,-11.709775,0 36.545707,-11.729412,0 36.625702,-11.721351,0 36.738047,-11.674738,0 36.820109,-11.573556,0 36.905892,-11.59278,0 36.998392,-11.584615,0 37.032395,-11.564874,0 37.071566,-11.62916,0 37.141639,-11.674738,0 37.27021,-11.698406,0 37.3408,-11.68094,0 37.378318,-11.708845,0 37.469681,-11.71949,0 37.503788,-11.672671,0 37.572931,-11.644146,0 37.647758,-11.635981,0 37.816947,-11.533558,0 37.818497,-11.459868,0 37.868417,-11.327783,0 37.938077,-11.283961,0 38.109332,-11.249648,0 38.1669,-11.283755,0 38.210411,-11.270009,0 38.25661,-11.27714,0 38.347664,-11.358789,0 38.492255,-11.413462,0 38.654209,-11.275796,0 38.715083,-11.256469,0 38.759732,-11.263187,0 38.896261,-11.167689,0 39.060799,-11.160145,0 39.126221,-11.139681,0 39.211591,-11.17389,0 39.263267,-11.166759,0 39.498498,-10.990646,0 39.760498,-10.943104,0 39.885968,-10.864452,0 40.008131,-10.811122,0 40.161093,-10.704358,0 40.2507,-10.610927,0 40.35333,-10.560698,0 40.421026,-10.503751,0 40.43686,-10.474786,0 40.424571,-10.437188,0 40.43686,-10.392267,0 40.410899,-10.392267,0 40.449392,-10.345392,0 40.427013,-10.300063,0 40.392589,-10.312107,0 40.426768,-10.33587,0 40.42213,-10.355645,0 40.348806,-10.358087,0 40.301036,-10.268731,0 40.259451,-10.24212,0 40.232107,-10.200453,0 40.198009,-10.24212,0 40.266856,-10.268731,0 40.238943,-10.268731,0 40.232107,-10.296645,0 40.173839,-10.255141,0 40.160411,-10.28045,0 40.120616,-10.271173,0 40.135509,-10.247654,0 40.124278,-10.221612,0 40.13266,-10.169692,0 40.019786,-10.132908,0 39.98878,-10.13128,0 40.000499,-10.192641,0 39.985118,-10.220961,0 39.974946,-10.133396,0 39.914317,-10.033868,0 39.826915,-9.99033,0 39.763194,-9.982843000000001,0 39.716482,-10.038751,0 39.690766,-10.04339,0 39.724376,-10.007501,0 39.714203,-9.952081,0 39.790212,-9.923028,0 39.752289,-9.879002,0 39.800059,-9.872654000000001,0 39.800629,-9.823826,0 39.752289,-9.74863,0 39.696951,-9.744887,0 39.746593,-9.706476,0 39.740896,-9.666762,0 39.712087,-9.625095,0 39.724946,-9.604099,0 39.700938,-9.579522000000001,0 39.680675,-9.505304000000001,0 39.649913,-9.474297999999999,0 39.650727,-9.444756999999999,0 39.615896,-9.424899999999999,0 39.608409,-9.440118,0 39.567393,-9.447524,0 39.569102,-9.404961999999999,0 39.615977,-9.397149000000001,0 39.642833,-9.368584999999999,0 39.649913,-9.282484999999999,0 39.632091,-9.258476999999999,0 39.643809,-9.18906,0 39.569184,-9.093031999999999,0 39.498546,-9.1242,0 39.491873,-8.938409,0 39.447602,-8.925551,0 39.464203,-8.898858000000001,0 39.388682,-8.898858000000001,0 39.413097,-8.867364,0 39.449392,-8.858656999999999,0 39.520681,-8.923028,0 39.553722,-8.922295999999999,0 39.519542,-8.892022000000001,0 39.488536,-8.826917999999999,0 39.452647,-8.805351999999999,0 39.439138,-8.755466,0 39.35434,-8.713962,0 39.357677,-8.588310999999999,0 39.303071,-8.505466,0 39.305349,-8.38893,0 39.28004,-8.309259000000001,0 39.302094,-8.295099,0 39.293712,-8.268813,0 39.32781,-8.295586999999999,0 39.333995,-8.268813,0 39.348318,-8.275079,0 39.340831,-8.206801,0 39.361827,-8.206801,0 39.454356,-8.010431000000001,0 39.45753,-7.979669,0 39.437022,-7.99391,0 39.420909,-7.902032,0 39.443533,-7.832615,0 39.395518,-7.779879999999999,0 39.340831,-7.781671,0 39.355235,-7.752537,0 39.32781,-7.726332,0 39.305024,-7.791762,0 39.283214,-7.816583000000001,0 39.252615,-7.823337,0 39.302013,-7.754082999999999,0 39.27475,-7.596449000000001,0 39.303966,-7.448500000000001,0 39.35434,-7.370782000000001,0 39.32781,-7.309259000000001,0 39.369802,-7.306899,0 39.367442,-7.271417,0 39.414399,-7.240898999999999,0 39.435883,-7.180271000000001,0 39.477875,-7.151056,0 39.497895,-7.177178999999999,0 39.532563,-7.116876,0 39.547537,-7.118259000000001,0 39.54005,-7.02809,0 39.553722,-7.000746,0 39.464529,-6.857679999999999,0 39.354991,-6.839125,0 39.312022,-6.816339,0 39.293712,-6.815199,0 39.300466,-6.849379,0 39.280284,-6.830499,0 39.28004,-6.727146,0 39.263927,-6.744398999999999,0 39.24586,-6.731052,0 39.212738,-6.641778,0 39.040863,-6.470147,0 38.991384,-6.452081,0 39.036876,-6.483167999999999,0 38.964692,-6.47324,0 38.91505,-6.436700000000001,0 38.898285,-6.394708000000001,0 38.852224,-6.348728000000001,0 38.841156,-6.267755000000001,0 38.860037,-6.231622,0 38.856781,-6.163670000000001,0 38.813243,-6.130629,0 38.779063,-6.054864,0 38.8213,-5.924981,0 38.83253,-5.815606,0 38.895193,-5.710545,0 38.902599,-5.643324,0 38.888927,-5.637139999999999,0 38.921641,-5.616306,0 38.985362,-5.504978,0 38.99879,-5.465265,0 38.981293,-5.417413,0 39.026378,-5.378513,0 39.080577,-5.231134,0 39.074555,-5.218845,0 39.048188,-5.246677,0 39.04363,-5.232192,0 39.094086,-5.144952,0 39.142751,-5.09588,0 39.129161,-5.04754,0 39.082774,-5.061456,0 39.084483,-5.047784,0 39.098155,-5.02337,0 39.132172,-5.010186,0 39.128673,-4.953383,0 39.108653,-4.916599,0 39.130382,-4.918145,0 39.145681,-4.899835,0 39.163341,-4.848321,0 39.162283,-4.938653,0 39.213552,-4.856378,0 39.215994,-4.795668,0 39.170177,-4.779962,0 39.216075,-4.749119,0 39.215099,-4.688653,0 39.197439,-4.68377,0 39.190603,-4.677504,0 39.264334,-4.606622,0 39.293712,-4.615492,0 39.300466,-4.594985,0 39.324392,-4.624607,0 39.396169,-4.629002,0 39.406261,-4.615167,0 39.391368,-4.571059,0 39.409679,-4.574477,0 39.443858,-4.519952,0 39.450694,-4.581964,0 39.506033,-4.438084,0 39.522472,-4.418145,0 39.54005,-4.430434,0 39.615896,-4.197849,0 39.665863,-4.112074,0 39.669688,-4.087986,0 39.650076,-4.069594,0 39.581879,-4.061619,0 39.567393,-4.08115,0 39.560557,-4.039809,0 39.63559,-4.017022,0 39.643077,-3.9992,0 39.604666,-3.988214,0 39.594737,-3.978692,0 39.605724,-3.969659,0 39.643077,-3.985528,0 39.660492,-3.970798,0 39.659841,-4.007582,0 39.681163,-4.047947,0 39.699474,-4.048435,0 39.745291,-3.968683,0 39.712087,-3.96502,0 39.683767,-3.917168999999999,0 39.712087,-3.897393,0 39.711925,-3.931329,0 39.732107,-3.946384,0 39.786388,-3.917168999999999,0 39.867035,-3.69492,0 39.860118,-3.633233,0 39.800141,-3.634698,0 39.808116,-3.608819,0 39.77589,-3.600193,0 39.780935,-3.566583,0 39.786388,-3.587579,0 39.865977,-3.616469,0 39.96518,-3.399184,0 39.966075,-3.321222,0 39.991954,-3.307061,0 39.971446,-3.376072,0 39.989106,-3.373224,0 40.122895,-3.267348,0 40.119151,-3.183526,0 40.153168,-3.135186,0 40.163829,-3.06699,0 40.232921,-2.981866,0 40.232107,-2.970636,0 40.190684,-2.988051,0 40.183767,-2.950291,0 40.162608,-2.934259,0 40.18865,-2.813572,0 40.174978,-2.762628,0 40.232107,-2.669041,0 40.389822,-2.560317,0 40.490896,-2.528497,0 40.615896,-2.552504,0 40.650564,-2.539321,0 40.711762,-2.466567,0 40.816905,-2.397882,0 40.828624,-2.37477,0 40.793468,-2.341974,0 40.795584,-2.309991,0 40.773936,-2.279229,0 40.794688,-2.29046,0 40.863048,-2.231378,0 40.893728,-2.228204,0 40.921072,-2.270603,0 40.952159,-2.286065,0 40.919444,-2.302423,0 40.922618,-2.313735,0 40.969493,-2.278985,0 40.979259,-2.24212,0 40.956879,-2.218927,0 40.924815,-2.217218,0 40.911957,-2.19199,0 40.904307,-2.080336,0 40.883149,-2.060154,0 40.893809,-2.026056,0 40.872244,-2.011407,0 40.855968,-2.018487,0 40.849132,-1.977634,0 40.861013,-1.963474,0 40.908214,-1.997735,0 40.926768,-2.059259,0 40.945323,-2.073175,0 40.966645,-2.046563,0 40.970714,-1.928969,0 41.006114,-1.901788,0 40.979503,-2.004978,0 40.990245,-2.028904,0 41.028656,-2.043227,0 41.109141,-1.977634,0 41.185802,-1.990167,0 41.219005,-1.922459,0 41.231456,-1.955499,0 41.267345,-1.94964,0 41.282725,-1.96852,0 41.417654,-1.847263,0 41.458344,-1.774835,0 41.575043,-1.652602,0 41.610606,-1.593194,0 41.65211,-1.565118,0 41.836599,-1.262302,0 41.829112,-1.168878,0 41.862804,-1.212335,0 41.885427,-1.209649,0 41.897472,-1.183201,0 41.872895,-1.195489,0 41.873871,-1.176039,0 41.97169,-1.023614,0 41.946462,-0.9547669999999999,0 41.95281,-0.8944640000000001,0 41.971934,-0.99977,0 42.016368,-0.968032,0 42.071951,-0.884454,0 42.081716,-0.8434379999999999,0 42.062511,-0.839288,0 42.071544,-0.828709,0 42.135509,-0.8217100000000001,0 42.166515,-0.8026670000000001,0 42.412608,-0.4909810000000001,0 42.465994,-0.449395,0 42.47641,-0.465997,0 42.479747,-0.4220519999999999,0 42.519298,-0.369317,0 42.550792,-0.357599,0 42.580333,-0.29754,0 42.770274,-0.129327,0 43.467621,0.620551,0 43.658946,0.804918,0 43.734223,0.854967,0 43.781912,0.921617,0 43.932628,1.009833,0 43.97877,1.068671,0 44.032888,1.09748,0 44.138031,1.191596,0 44.157888,1.24079,0 44.221365,1.275621,0 44.332774,1.38996,0 44.550059,1.559068,0 45.001475,1.86636,0 45.232188,1.967678,0 45.826345,2.308824,0 46.047618,2.455064,0 46.236501,2.667629,0 46.289399,2.696234,0 46.35157300000001,2.788642,0 46.625743,3.023912,0 46.70004299999999,3.113267,0 46.834239,3.232489,0 47.01295,3.441067,0 47.489268,3.936347,0 47.577973,4.059882,0 47.948497,4.457099,0 48.05567500000001,4.612942,0 48.202403,4.908922,0 48.32886799999999,5.079657,0 48.448009,5.208726,0 48.548106,5.375067,0 48.646739,5.480048,0 48.695811,5.587348,0 49.036143,6.144232000000001,0 49.0713,6.219915999999999,0 49.085623,6.307359,0 49.074718,6.415269000000001,0 49.247325,6.810614,0 49.367035,7.025702000000001,0 49.586599,7.314765000000001,0 49.744151,7.589057,0 49.752208,7.650295,0 49.82504300000001,7.757757999999999,0 49.823416,7.805325,0 49.80323299999999,7.82689,0 49.824229,7.933904999999999,0 49.92937299999999,8.051743999999999,0 50.091075,8.161038,0 50.15642299999999,8.320624,0 50.256196,8.472561000000001,0 50.303477,8.504583999999999,0 50.326508,8.641099000000001,0 50.374278,8.698879,0 50.43970800000001,8.888170000000001,0 50.633637,9.073188,0 50.64844799999999,9.110419,0 50.646983,9.211371,0 50.689464,9.274848,0 50.768321,9.319281,0 50.830333,9.419623,0 50.84034299999999,9.456122000000001,0 50.80616299999999,9.624457,0 50.824474,9.651068,0 50.833263,9.768784999999999,0 50.901703,10.011664,0 50.88379999999999,10.101264,0 50.912814,10.176853,0 50.901703,10.234442,0 50.92738900000001,10.327844,0 51.09009900000001,10.407313,0 51.240977,10.425605,0 51.25660199999999,10.420315,0 51.27287299999999,10.377905,0 51.367419,10.367726,0 51.397509,10.395793,0 51.417038,10.447485,0 51.39517300000001,10.479023,0 51.29253200000001,10.480075,0 51.176117,10.562812,0 51.196544,10.477444,0 51.220388,10.442043,0 51.038097,10.416083,0 51.010102,10.434027,0 51.03581800000001,10.467515,0 51.09229599999999,10.482164,0 51.107432,10.576565,0 51.160655,10.598456,0 51.138194,10.676744,0 51.115082,10.993354,0 51.12379,11.038764,0 51.189504,11.138306,0 51.17444,11.158764,0 51.13094499999999,11.160752,0 51.08594800000001,11.187974,0 51.07252,11.233791,0 51.081309,11.341498,0 51.125011,11.447984,0 51.12086,11.505316,0 51.24780100000001,11.652391,0 51.249359,11.728775,0 51.292698,11.833108,0 51.12769600000001,11.878648,0 51.048839,11.878648,0 50.970083,11.932323,0 50.867055,11.942891,0 50.79786399999999,11.989119,0 50.66146899999999,11.947577,0 50.64112399999999,11.954413,0 50.561209,11.907904,0 50.52947,11.859524,0 50.512706,11.771226,0 50.437022,11.690619,0 50.372325,11.668931,0 50.268321,11.589301,0 50.161876,11.563381,0 50.07252,11.508734,0 49.942149,11.51557,0 49.851248,11.464911,0 49.804861,11.458401,0 49.686778,11.474351,0 49.57683400000001,11.460028,0 49.521739,11.393785,0 49.4192,11.344794,0 49.335704,11.334621,0 49.303477,11.345445,0 49.239594,11.300279,0 48.939112,11.24913,0 48.888845,11.250556,0 48.654796,11.330634,0 48.52198299999999,11.319281,0 48.478526,11.296332,0 48.342784,11.275458,0 48.30421,11.227525,0 48.2199,11.211127,0 48.16081799999999,11.145657,0 48.130382,11.136664,0 47.767345,11.130194,0 47.71046,11.101264,0 47.522716,11.186957,0 47.405935,11.184638,0 47.180675,11.080471,0 47.008067,10.938951,0 46.88648499999999,10.898586,0 46.865977,10.871894,0 46.65967899999999,10.75434,0 46.447765,10.693101,0 46.335134,10.709703,0 46.237559,10.792426,0 46.10222400000001,10.770657,0 45.97755,10.79914,0 45.884451,10.841213,0 45.85564200000001,10.823961,0 45.816905,10.869208,0 45.769298,10.878119,0 45.673106,10.79621,0 45.573009,10.758124,0 45.487071,10.684719,0 45.40919,10.659491,0 45.320567,10.662095,0 45.157237,10.541083,0 44.987966,10.460395,0 44.994151,10.442694,0 44.962009,10.415799,0 44.750662,10.427865,0 44.586149,10.383585,0 44.3892,10.397207,0 44.274262,10.456732,0 43.8296,10.802965,0 43.658946,10.987982,0 43.562999,11.170315,0 43.529307,11.186591,0 43.488129,11.238918,0 43.489431,11.380927,0 43.459727,11.35106,0 43.375987,11.391588,0 43.282725,11.498928,0 43.288341,11.460354,0 43.240733,11.48786,0 42.923715,10.998787,0 42.908109,11.004187,0 42.873279,10.978246,0 42.771787,10.996462,0 42.729619,11.06501,0 42.615621,11.08966,0 42.479712,11.059119,0 42.391758,11.005893,0 42.338532,11.015504,0 42.221639,10.984344,0 42.096272,10.990261,0 42.038395,10.950444,0 41.937522,10.929825,0 41.766523,10.989466,0 41.69113,10.964292,0 41.270484,10.960132,0 41.204131,10.815568,0 41.083312,10.679297,0 41.086619,10.591163,0 40.943165,10.047036,0 40.952054,9.996703,0 41.021817,9.951124,0 40.825963,9.759715,0 40.73708,9.623599,0 40.695118,9.444385,0 40.866891,9.456994,0 40.914537,9.429218000000001,0 40.924045,9.408961,0 40.910506,9.395913,0 40.797748,9.394621000000001,0 40.80922,9.328733,0 40.846427,9.307081,0 41.011068,9.358215,0 41.171782,9.444592,0 41.2309,9.496578,0 41.269864,9.505879999999999,0 41.493209,9.459707,0 41.566486,9.509239000000001,0 41.615166,9.517585,0 41.63749,9.514044999999999,0 41.664568,9.4803,0 41.711697,9.468208000000001,0 41.736915,9.473763,0 41.740636,9.584944999999999,0 41.76296,9.640135000000001,0 41.818461,9.647499,0 41.892048,9.68388,0 42.040359,9.628999,0 42.20314,9.774391,0 42.2543,9.780566,0 42.302669,9.762582999999999,0 42.341013,9.720363000000001,0 42.380907,9.708322000000001,0 42.393516,9.665611999999999,0 42.387108,9.567736999999999,0 42.418838,9.561586999999999,0 42.48736,9.479267,0 42.551853,9.351523,0 42.592264,9.210186999999999,0 42.625853,9.164299,0 42.644043,9.080221,0 42.705332,8.983199000000001,0 42.85695,8.840365,0 42.865529,8.80029,0 42.833283,8.707324,0 42.844031,8.662288,0 42.894984,8.609914,0 42.911624,8.565395000000001,0 42.896948,8.412381,0 42.770444,8.365459,0 42.743779,8.327296,0 42.703885,8.181903999999999,0 42.668435,8.14077,0 42.634535,8.147565,0 42.580378,8.230816000000001,0 42.533352,8.450362999999999,0 42.503587,8.492531,0 42.32675,8.538703999999999,0 42.274144,8.622781,0 42.207067,8.604772000000001,0 42.032298,8.433723000000001,0 42.029301,8.325151,0 41.961191,8.219989999999999,0 41.931322,8.115577,0 41.917679,7.873602,0 41.95344,7.751439,0 41.876545,7.552459,0 41.875098,7.510756,0 41.901453,7.412339,0 42.207481,7.293044,0 42.227118,7.22266,0 42.182883,7.044609,0 42.136994,6.951591,0 42.093069,6.919165,0 42.068781,6.814416,0 42.079117,6.79571,0 42.014108,6.643109000000001,0 41.985789,6.595696,0 41.931529,6.552494,0 41.861145,6.537146999999999,0 41.845849,6.569935,0 41.763684,6.541255,0 41.701879,6.444801,0 41.621987,6.364004999999999,0 41.438949,6.544665,0 41.341384,6.572752,0 41.121966,6.692744,0 41.049412,6.676053,0 40.920428,6.533684,0 40.858519,6.419919,0 40.883634,6.237992,0 40.865547,6.110403,0 40.88012,5.811687,0 40.922495,5.699497,0 40.704317,5.565423,0 40.528824,5.415535,0 40.187449,5.354557,0 40.051127,5.399697,0 40.01454,5.383186,0 39.919455,5.246502,0 39.820443,5.015069,0 39.77042,4.851487,0 39.741998,4.657003,0 39.585109,4.293821,0 39.541494,4.234496,0 39.483823,4.040968,0 39.498602,3.979654,0 39.469767,3.917539,0 39.300682,3.642569,0 39.095216,3.53627,0 39.090441,3.518334,0 39.180481,3.476998,0 39.252829,3.469564000000001,0 39.219445,3.468704,0 39.180481,3.476998,0 39.06793,3.526582,0 38.895227,3.513585,0 38.722008,3.560404000000001,0 38.66103,3.621951,0 38.660306,3.594459,0 38.547135,3.609522000000001,0 38.508998,3.650812,0 38.496906,3.62394,0 38.445953,3.601668,0 38.176925,3.620917,0 38.101891,3.612649,0 38.036158,3.648926,0 37.976731,3.726440000000001,0 37.094821,4.284882,0 37.075907,4.33108,0 37.048415,4.331959,0 37.015652,4.370587,0 36.903721,4.415778,0 36.844087,4.432237,0 36.651333,4.430583,0 36.619501,4.443373,0 36.277196,4.436449,0 36.236268,4.449652,0 36.018401,4.449135,0 35.940472,4.508046,0 35.920835,4.619332,0 35.760018,4.805728,0 35.755884,5.063439,0 35.807354,5.144674,0 35.775315,5.24658,0 35.80415,5.318023,0 35.683641,5.379595,0 35.598168,5.368743,0 35.508044,5.423417,0 35.469287,5.430755,0 35.430219,5.427215,0 35.344953,5.352362,0 35.320769,5.348719,0 35.287489,5.374092,0 35.250695,5.435147,0 35.27364,5.479873,0 35.261961,5.511887,0 35.098663,5.622474,0 35.079543,5.699782,0 34.974433,5.863106,0 34.979911,5.912843999999999,0 34.955313,5.952558,0 34.969782,5.996689,0 34.959447,6.061723999999999,0 34.898882,6.13867,0 34.844725,6.248689,0 34.832633,6.353541,0 34.784264,6.44183,0 34.733518,6.637606,0 34.703545,6.684916,0 34.618486,6.736541,0 34.524745,6.752871,0 34.511102,6.814314,0 34.523298,6.844182999999999,0 34.503661,6.89002,0 34.439169,6.934874999999999,0 34.280729,6.980092,0 34.198253,7.064376,0 34.181407,7.167212,0 34.132417,7.163388,0 34.033612,7.250256,0 34.030615,7.3487,0 34.006534,7.409936,0 33.882407,7.536079,0 33.811507,7.560986999999999,0 33.761071,7.598142000000001,0 33.71606,7.657156,0 33.637202,7.691315000000001,0 33.550851,7.691315000000001,0 33.516796,7.726093,0 33.462329,7.749502,0 33.347142,7.718961,0 33.29159,7.733069000000001,0 33.233919,7.783195,0 33.164518,7.801127000000001,0 33.120851,7.783299,0 33.058323,7.797974999999999,0 33.023493,7.835078,0 32.9898,7.917243999999999,0 33.031141,7.996309,0 33.117544,8.104158,0 33.164776,8.117051,0 33.185137,8.141080000000001,0 33.169944,8.205495000000001,0 33.208288,8.253683000000001,0 33.164363,8.292776999999999,0 33.174078,8.343057999999999,0 33.161882,8.361506,0 33.174078,8.404475,0 33.202913,8.414113,0 33.23516,8.455634999999999,0 33.361353,8.434293,0 33.392101,8.451862,0 33.480519,8.457649999999999,0 33.484757,8.474005999999999,0 33.552143,8.446823999999999,0 33.620407,8.460699,0 33.695545,8.372875000000001,0 33.751872,8.368793,0 33.824116,8.419487,0 33.931706,8.428143,0 33.970774,8.445377000000001,0 34.090249,8.556507,0 34.11185,8.626555,0 34.070698,9.454592,0 33.900855,9.45529,0 33.881425,9.499215,0 33.883905,9.619853000000001,0 33.904886,9.710699999999999,0 33.973254,9.854851999999999,0 33.956097,9.933994,0 33.966794,10.047269,0 33.916978,10.174522,0 33.468995,10.543905,0 33.3813,10.645785,0 33.140023,10.739036,0 33.182088,10.843241,0 33.083231,11.599164,0 33.132427,11.686213,0 33.144984,11.934673,0 33.203017,12.128098,0 33.209218,12.210367,0 32.731779,12.216155,0 32.725733,12.132336,0 32.746662,12.002731,0 32.082207,11.999811,0 32.34834,11.703163,0 32.359812,11.573481,0 32.348754,11.30758,0 32.364153,11.240013,0 32.435363,11.107023,0 32.430713,11.082193,0 32.414073,11.050851,0 31.942887,10.655552,0 31.864184,10.472127,0 31.664816,10.214236,0 31.234817,9.792323,0 31.164382,9.764004999999999,0 30.83696,9.749354,0 30.765284,9.724290999999999,0 30.484578,9.972028,0 30.012979,10.270485,0 29.61543199999999,10.058147,0 29.613882,9.914460999999999,0 29.567321,9.841364,0 29.483089,9.761679000000001,0 29.252354,9.711164999999999,0 29.132258,9.667731,0 29.009474,9.603239,0 28.913833,9.529031,0 28.828745,9.427474,0 28.843841,9.324545000000001,0 28.04511,9.331407,0 27.997076,9.384930000000001,0 27.895072,9.595409999999999,0 27.769602,9.583318,0 27.33924,9.612799000000001,0 27.080393,9.606831,0 26.694318,9.476941999999999,0 26.625744,9.480663,0 26.556859,9.520454000000001,0 26.179466,9.95898,0 26.102623,9.987841,0 26.010794,10.122691,0 25.905426,10.181266,0 25.893644,10.351333,0 25.843053,10.417815,0 25.623324,10.385853,0 25.327425,10.316581,0 25.232754,10.322317,0 25.07695,10.286867,0 25.017057,10.168011,0 25.028994,10.092047,0 24.976284,9.967351000000001,0 24.913859,9.890715,0 24.796398,9.818859,0 24.792522,9.520402000000001,0 24.680178,9.373357,0 24.659869,9.176985999999999,0 24.559307,8.999865,0 24.558377,8.886746,0 24.493833,8.858349,0 24.380093,8.844215999999999,0 24.176953,8.709857,0 24.170328,8.689327,0 24.235761,8.682003,0 24.211266,8.627071000000001,0 24.25054,8.579632,0 24.193179,8.532425999999999,0 24.137162,8.438866000000001,0 24.121556,8.372306999999999,0 24.131374,8.343057999999999,0 24.206615,8.283268,0 24.302733,8.26544,0 24.332085,8.245725,0 24.431097,8.271407999999999,0 24.51285,8.207148999999999,0 24.614859,8.217148,0 24.800171,8.180277,0 24.917993,8.087027000000001,0 24.952616,7.996566999999999,0 25.059173,7.896108,0 25.173171,7.888564000000001,0 25.216889,7.864069,0 25.26990899999999,7.760768,0 25.279418,7.659482,0 25.252546,7.62243,0 25.165213,7.579899999999999,0 25.190431,7.501197,0 25.316211,7.417223,0 25.360033,7.335574,0 25.481163,7.266172999999999,0 25.516768,7.269945,0 25.592422,7.211241,0 25.786209,7.142666,0 25.800781,7.104942000000001,0 25.877469,7.087734,0 25.888735,7.05187,0 25.960461,7.024482,0 25.969453,7.003553,0 26.026091,6.99668,0 26.035806,6.922265999999999,0 26.045418,6.899683,0 26.073633,6.895136,0 26.091203,6.830333999999999,0 26.147634,6.804702000000001,0 26.236207,6.720030000000001,0 26.378007,6.65329,0 26.379867,6.619778,0 26.30504,6.496916999999999,0 26.27021,6.465653,0 26.289124,6.459426,0 26.28964,6.387207999999999,0 26.375837,6.312586999999999,0 26.452008,6.28029,0 26.455625,6.230473999999999,0 26.508955,6.205461999999999,0 26.500067,6.167971,0 26.42927,6.113091,0 26.424826,6.072447,0 26.48105,6.104951,0 26.498827,6.099836000000001,0 26.543578,6.030847,0 26.602179,6.010616,0 26.705016,6.009789,0 26.776329,5.981884,0 26.80506099999999,5.957182999999999,0 26.81891,5.894628,0 26.894255,5.889667,0 26.91647499999999,5.849644,0 26.981071,5.859204,0 27.036055,5.785126,0 27.072745,5.791224,0 27.123801,5.768745,0 27.136307,5.734018,0 27.182351,5.707456,0 27.196407,5.661464,0 27.218369,5.645315,0 27.217336,5.585397,0 27.247515,5.592605,0 27.261054,5.577593,0 27.218059,5.42551,0 27.264465,5.260145,0 27.30131,5.205187,0 27.385801,5.143847,0 27.402131,5.104496,0 27.441301,5.070725,0 27.11636,5.200304,0 27.073675,5.203327,0 26.961641,5.151185,0 26.867073,5.037549,0 26.832656,5.053388,0 26.808368,5.039099,0 26.739432,5.094393,0 26.691683,5.094393,0 26.629671,5.067056,0 26.598355,5.080621,0 26.502547,5.047471,0 26.462653,5.059641,0 26.441879,5.104289,0 26.390616,5.149015,0 26.362711,5.135967,0 26.272484,5.159066,0 26.246646,5.189969,0 26.226182,5.183147,0 26.198276,5.238389,0 26.18453,5.225341,0 26.157349,5.232472,0 26.12996,5.258879,0 26.112494,5.238389,0 26.088412,5.244591,0 26.095234,5.211053,0 26.077147,5.216324,0 26.026917,5.189969,0 25.971934,5.227667,0 25.95860100000001,5.197384,0 25.912506,5.190382,0 25.910852,5.170099,0 25.872405,5.217099,0 25.849357,5.217874,0 25.826103,5.194697,0 25.814631,5.244591,0 25.794683,5.238389,0 25.792306,5.262832,0 25.769259,5.265158,0 25.781144,5.258879,0 25.771739,5.245469,0 25.743731,5.250611,0 25.691124,5.299807,0 25.609165,5.320297,0 25.62291099999999,5.34076,0 25.600483,5.34045,0 25.58126,5.374919,0 25.543743,5.37528,0 25.532787,5.372231,0 25.540849,5.354429,0 25.504469,5.342285,0 25.481989,5.356858,0 25.435067,5.328694,0 25.39569,5.333965,0 25.36365,5.310556,0 25.376466,5.293011,0 25.343393,5.271927,0 25.307736,5.185292,0 25.314454,5.163252,0 25.349284,5.141677,0 25.307633,5.032278,0 25.227535,5.009566,0 25.129453,5.018635,0 25.076123,4.951844,0 24.958094,4.99135,0 24.848333,4.936728,0 24.819498,4.94448,0 24.789422,4.919856,0 24.766374,4.929881,0 24.730614,4.917505,0 24.654236,4.929416,0 24.670773,4.957218,0 24.615479,4.985097,0 24.601216,5.026103,0 24.553467,5.039099,0 24.513676,5.087236,0 24.459623,5.107441,0 24.43667900000001,5.100594,0 24.430684,5.067418,0 24.396371,5.122298,0 24.361231,5.062948,0 24.398645,5.036024,0 24.368466,5.012434,0 24.296635,5.003262,0 24.259222,4.929881,0 24.246199,4.954066,0 24.209612,4.956184,0 24.152768,4.902596,0 24.08962,4.920218,0 23.977998,4.854149,0 23.950817,4.867792,0 23.948336,4.817692,0 23.816665,4.820611,0 23.760027,4.787435,0 23.588048,4.73395,0 23.506089,4.676434,0 23.448315,4.659407,0 23.414519,4.590832,0 23.316437,4.60773,0 23.264864,4.635067,0 23.168746,4.73811,0 23.099396,4.711652,0 23.017334,4.750512,0 22.977439,4.834306,0 22.898374,4.823583,0 22.882872,4.800742,0 22.895584,4.765395,0 22.853829,4.711264,0 22.78603,4.724648,0 22.757401,4.660802,0 22.723605,4.62884,0 22.73115,4.587266,0 22.697043,4.535745,0 22.689498,4.491665,0 22.59245,4.473707,0 22.589039,4.421953,0 22.613741,4.374359,0 22.568575,4.331546,0 22.539327,4.278164,0 22.546148,4.237184,0 22.510491,4.19127,0 22.422641,4.134787,0 22.303269,4.128716,0 22.207254,4.150316,0 22.127879,4.203078,0 22.001478,4.244652,0 21.86774,4.241551,0 21.819887,4.271937,0 21.771001,4.273487,0 21.737308,4.293382,0 21.634162,4.294209,0 21.538147,4.244652,0 21.473138,4.269301,0 21.37485,4.278164,0 21.288344,4.33338,0 21.210932,4.291574,0 21.113574,4.340847,0 21.076057,4.395469,0 20.871521,4.453373,0 20.767859,4.42278,0 20.580273,4.415003,0 20.452322,4.528924,0 20.44209,4.550499,0 20.463071,4.600935,0 20.456456,4.621502,0 20.395478,4.677106,0 20.338944,4.771906,0 20.236625,4.806349,0 20.171719,4.87836,0 20.003977,4.974478,0 19.890909,5.002125,0 19.82466,5.096977,0 19.71955,5.135967,0 19.605552,5.138292,0 19.568759,5.15519,0 19.517082,5.135967,0 19.408975,5.130386,0 19.373112,5.087546,0 19.236996,5.010781,0 19.195655,4.950345,0 19.133023,4.946934,0 19.08331,4.90934,0 19.011583,4.765033,0 18.828235,4.559981,0 18.753304,4.400611,0 18.654086,4.357229,0 18.576468,4.372757,0 18.541948,4.327851,0 18.545048,4.289016,0 18.57254,4.265684,0 18.619669,4.169566,0 18.646541,4.045982,0 18.593004,3.709775,0 18.634552,3.449222,0 18.631141,3.17898,0 18.613055,3.128182,0 18.528409,3.064775,0 18.393223,2.713686,0 18.313745,2.575968,0 18.233026,2.502587,0 18.199126,2.389106,0 18.16378,2.321048,0 18.111173,2.265289,0 18.072416,2.160024,0 18.071382,1.551457,0 18.012264,1.421956,0 17.956247,1.171661,0 17.86664,1.016632,0 17.877906,0.867907,0 17.907671,0.740473,0 17.893202,0.607664,0 17.949943,0.491496,0 17.945498,0.377291,0 17.854031,0.241072,0 17.757086,-0.009456000000000001,0 17.716365,-0.195801,0 17.749541,-0.523429,0 17.411474,-0.918341,0 17.308018,-1.014976,0 17.022557,-1.097038,0 16.833215,-1.269017,0 16.636224,-1.62083,0 16.604185,-1.754052,0 16.513958,-1.887377,0 16.231288,-2.129016,0 16.194598,-2.182036,0 16.174857,-2.303062,0 16.191704,-2.346884,0 16.225603,-2.635239,0 16.177028,-2.882459,0 16.193357,-3.238406,0 16.227464,-3.289876,0 16.225603,-3.313233,0 16.115533,-3.544227,0 16.053314,-3.619985,0 15.991096,-3.738944,0 15.912134,-3.917434,0 15.844231,-3.965597,0 15.711216,-3.992158,0 15.533759,-4.057994,0 15.490351,-4.175196,0 15.458932,-4.21385,0 15.20396,-4.339011,0 15.09792,-4.499931,0 15.022783,-4.54706,0 14.931005,-4.646899,0 14.831167,-4.815054,0 14.672727,-4.899907,0 14.623324,-4.899493,0 14.519868,-4.841305,0 14.400702,-4.886264,0 14.410934,-4.701056,0 14.365769,-4.627262,0 14.350783,-4.559049,0 14.424576,-4.502308,0 14.469742,-4.429341,0 14.392744,-4.352756,0 14.387059,-4.277102,0 14.279986,-4.312759,0 14.184694,-4.377458,0 14.021087,-4.415388,0 13.944502,-4.498071,0 13.867091,-4.489286,0 13.810454,-4.426654,0 13.714956,-4.453009,0 13.721777,-4.561012,0 13.699091,-4.642661,0 13.712475,-4.685656,0 13.681934,-4.695371,0 13.67532,-4.731751,0 13.633979,-4.725654,0 13.613101,-4.739193,0 13.591397,-4.779397,0 13.570727,-4.785908,0 13.526182,-4.754282,0 13.482257,-4.77485,0 13.493522,-4.799654,0 13.39265,-4.885334,0 13.35875,-4.794797,0 13.274001,-4.755833,0 13.18212,-4.686069,0 13.112357,-4.576929,0 13.087966,-4.579513,0 13.071532,-4.60163,0 13.065331,-4.663952,0 12.802918,-4.739813,0 12.774806,-4.7795,0 12.766228,-4.825182,0 12.696982,-4.875619,0 12.678895,-4.924298,0 12.606961,-4.94223,0 12.587738,-5.000314,0 12.550427,-5.024188,0 12.444387,-5.055091,0 12.444697,-5.093538,0 12.524072,-5.129091,0 12.530687,-5.162681,0 12.508983,-5.726264,0 12.344445,-5.724611,0 12.258972,-5.736703,0 12.210541,-5.763442,0 12.249278,-5.82879,0 12.376231,-5.958672999999999,0 12.396563,-6.005963,0 12.414201,-5.97854,0 12.457194,-5.981772000000001,0 12.457204,-6.013552,0 12.431854,-6.034414,0 12.449498,-6.051928,0 12.607012,-5.998019,0 12.671982,-6.000132000000001,0 12.722607,-5.979263,0 12.71754,-5.931329,0 12.76648,-5.86531,0 12.822439,-5.829767,0 12.896169,-5.814547999999999,0 13.067227,-5.862629,0 13.170665,-5.849867,0 13.342524,-5.890595,0 13.380454,-5.856385999999999,0 13.641523,-5.865791,0 13.943572,-5.841606,0 14.02119,-5.872509000000001,0 14.140149,-5.863517,0 14.241849,-5.889562,0 14.482144,-5.885531,0 14.576609,-5.904651,0 14.703733,-5.881397,0 16.315727,-5.854629,0 16.396136,-5.894109000000001,0 16.497318,-5.882844,0 16.552922,-5.902378,0 16.597364,-5.924701999999999,0 16.580724,-5.955398,0 16.601188,-6.050586,0 16.632194,-6.065262000000001,0 16.61111,-6.089756,0 16.695859,-6.140916,0 16.726762,-6.189182,0 16.714773,-6.231556,0 16.720974,-6.342351,0 16.693585,-6.359816999999999,0 16.692965,-6.398368,0 16.720974,-6.42834,0 16.706091,-6.465031,0 16.727795,-6.465960999999999,0 16.721697,-6.491799,0 16.747329,-6.521977999999999,0 16.730792,-6.56983,0 16.768103,-6.708323,0 16.823086,-6.785114,0 16.832905,-6.827799,0 16.914967,-6.864075999999999,0 16.928713,-6.968669,0 16.955275,-6.981485,0 16.973155,-7.014765000000001,0 16.961166,-7.069231000000001,0 16.929126,-7.060653,0 16.945663,-7.204624,0 16.989071,-7.254853,0 16.996099,-7.297951,0 17.093354,-7.352315,0 17.103999,-7.416084,0 17.118159,-7.425489000000001,0 17.132215,-7.409572,0 17.176553,-7.428176000000001,0 17.148545,-7.472617999999999,0 17.217791,-7.585996,0 17.286417,-7.625167,0 17.288898,-7.699476999999999,0 17.303781,-7.692449,0 17.32042,-7.713637,0 17.315976,-7.753634,0 17.342435,-7.78402,0 17.375404,-7.792288,0 17.380985,-7.823191,0 17.400002,-7.823397,0 17.3907,-7.839209999999999,0 17.420569,-7.843861,0 17.426357,-7.875487,0 17.452402,-7.883962,0 17.434109,-7.915795,0 17.468318,-7.939463,0 17.468318,-7.959926,0 17.481858,-7.945664,0 17.496224,-7.987212,0 17.536531,-8.015117,0 17.536531,-8.075991999999999,0 17.600197,-8.098523,0 17.713265,-8.068344,0 17.789539,-8.081778999999999,0 17.867984,-8.044468999999999,0 17.930822,-8.062142,0 17.981879,-8.105344000000001,0 18.098151,-8.109271,0 18.09288,-8.056355,0 18.120372,-8.022455000000001,0 18.192719,-7.996927,0 18.366558,-8.016771,0 18.420508,-7.99827,0 18.507635,-7.997547,0 18.504327,-7.940703,0 18.516523,-7.932228,0 18.738525,-7.932331,0 18.773768,-8.001991,0 19.355542,-8.001991,0 19.330944,-7.898638,0 19.38138,-7.703921,0 19.355645,-7.57411,0 19.443908,-7.575246999999999,0 19.468713,-7.52109,0 19.513155,-7.479439,0 19.476361,-7.315935,0 19.487213,-7.153877,0 19.54261,-7.052282,0 19.521836,-7.001949,0 20.294296,-7.001949,0 20.319514,-6.918543000000001,0 20.611486,-6.915959000000001,0 20.524463,-7.143129,0 20.520535,-7.286375999999999,0 21.784954,-7.283379000000001,0 21.842418,-7.369884999999999,0 21.83291,-7.390762,0 21.860918,-7.469827,0 21.846656,-7.514269000000001,0 21.854097,-7.585996,0 21.770485,-7.806758,0 21.753948,-7.997339999999999,0 21.79963,-8.040851999999999,0 21.815133,-8.096766000000001,0 21.857301,-8.156917,0 21.873217,-8.264094,0 21.920553,-8.329000000000001,0 21.899882,-8.348843,0 21.943911,-8.455916999999999,0 21.916212,-8.576840000000001,0 21.935953,-8.583144000000001,0 21.90691,-8.645466000000001,0 21.859885,-8.846384,0 21.839731,-9.092364,0 21.851617,-9.233751,0 21.791982,-9.406143,0 21.819887,-9.447691000000001,0 21.854097,-9.61781,0 21.878902,-9.657083999999999,0 21.94236,-9.72292,0 21.95652,-9.76178,0 21.984425,-9.748758,0 21.998378,-9.809116,0 22.055842,-9.875365,0 22.090982,-9.877122,0 22.159918,-9.931486,0 22.209734,-10.098194,0 22.20281,-10.130647,0 22.313397,-10.368565,0 22.271849,-10.481736,0 22.305956,-10.550673,0 22.31009,-10.668805,0 22.32642,-10.694643,0 22.319495,-10.761306,0 22.223997,-10.797066,0 22.165499,-10.85236,0 22.196092,-10.992299,0 22.243841,-11.078289,0 22.25552,-11.166552,0 22.23764,-11.249545,0 22.281771,-11.236729,0 22.340269,-11.180195,0 22.440315,-11.146915,0 22.469357,-11.122421,0 22.50098300000001,-11.042426,0 22.53757,-11.037155,0 22.727739,-11.096789,0 22.853106,-11.053071,0 22.931137,-11.096789,0 23.014336,-11.102474,0 23.196754,-11.071881,0 23.373281,-10.975143,0 23.455963,-10.960984,0 23.641585,-11.004495,0 23.752276,-11.008216,0 23.833718,-11.028473,0 23.867411,-11.016381,0 23.887771,-10.974419,0 23.927976,-10.945377,0 23.948646,-10.881505,0 24.00146,-10.873444,0 24.09148,-10.897835,0 24.114218,-10.919229,0 24.124243,-11.043252,0 24.181294,-11.034467,0 24.293845,-11.05028,0 24.37053299999999,-11.1002,0 24.381798,-11.12056,0 24.361748,-11.164692,0 24.396578,-11.217402,0 24.392237,-11.279104,0 24.33994,-11.358065,0 24.285473,-11.381216,0 24.293948,-11.3992,0 24.370223,-11.410155,0 24.446497,-11.463589,0 24.490939,-11.461522,0 24.564733,-11.444675,0 24.593258,-11.399613,0 24.635219,-11.385867,0 24.67408,-11.341632,0 24.712527,-11.326026,0 24.826732,-11.317551,0 24.942901,-11.268562,0 25.184023,-11.246651,0 25.31032,-11.194768,0 25.322516,-11.205413,0 25.324893,-11.283651,0 25.284689,-11.307319,0 25.306496,-11.333054,0 25.277971,-11.371811,0 25.279004,-11.396306,0 25.316728,-11.472994,0 25.300398,-11.535005,0 25.344943,-11.642182,0 25.386388,-11.64983,0 25.481163,-11.715253,0 25.474135,-11.756181,0 25.49558,-11.776541,0 25.561003,-11.753287,0 25.575679,-11.727345,0 25.621464,-11.728895,0 25.725644,-11.800519,0 25.850701,-11.793801,0 25.981132,-11.903045,0 26.16665,-11.902425,0 26.229592,-11.933121,0 26.298012,-11.941182,0 26.339146,-11.918961,0 26.414594,-11.91183,0 26.489111,-11.960819,0 26.643521,-11.985521,0 26.697057,-12.017457,0 26.717418,-12.013012,0 26.759379,-11.968674,0 26.874204,-11.964333,0 26.947688,-11.909143,0 26.967325,-11.870385,0 26.981071,-11.749049,0 27.021482,-11.69789,0 27.010268,-11.609833,0 27.023756,-11.59557,0 27.180129,-11.569629,0 27.20762,-11.639392,0 27.209998,-11.721971,0 27.234182,-11.809097,0 27.420734,-11.921959,0 27.467553,-12.001644,0 27.52047,-12.179617,0 27.638189,-12.293615,0 27.756734,-12.304261,0 27.831407,-12.259922,0 27.856676,-12.262403,0 27.933881,-12.303331,0 27.958686,-12.367823,0 28.08767,-12.377538,0 28.131285,-12.429214,0 28.185752,-12.402446,0 28.237532,-12.437069,0 28.322488,-12.4411,0 28.42274,-12.521302,0 28.512295,-12.668373,0 28.511624,-12.694418,0 28.474003,-12.736482,0 28.539425,-12.833841,0 28.542836,-12.885621,0 28.583971,-12.888721,0 28.621178,-12.839422,0 28.667893,-12.849344,0 28.793363,-12.991557,0 28.809435,-13.038376,0 28.830881,-13.051812,0 28.825816,-13.092843,0 28.844213,-13.102352,0 28.85367,-13.137078,0 28.903434,-13.162296,0 28.950356,-13.350967,0 28.99397099999999,-13.395925,0 29.122129,-13.38435,0 29.184141,-13.436853,0 29.308267,-13.353654,0 29.449551,-13.300324,0 29.551043,-13.224153,0 29.629075,-13.261463,0 29.657497,-13.26012,0 29.669176,-13.281204,0 29.658892,-13.309522,0 29.626594,-13.326369,0 29.625147,-13.364196,0 29.601686,-13.374428,0 29.617396,-13.421247,0 29.702869,-13.457627,0 29.782244,-13.455663,0 29.797643,-13.424244,0 29.799297,-12.154089,0 29.734908,-12.164838,0 29.631865,-12.215997,0 29.57672700000001,-12.188092,0 29.474252,-12.242662,0 29.446554,-12.33506,0 29.480453,-12.380535,0 29.523448,-12.392524,0 29.524688,-12.429214,0 29.499677,-12.453089,0 29.364388,-12.409267,0 29.304857,-12.404823,0 29.254989,-12.366169,0 29.173392,-12.367616,0 29.11107,-12.393454,0 29.100218,-12.374024,0 29.035106,-12.378882,0 28.944672,-12.206076,0 28.859509,-12.14179,0 28.821475,-12.075748,0 28.759877,-12.035233,0 28.751092,-11.992238,0 28.686032,-11.984074,0 28.623865,-11.947797,0 28.592652,-11.900461,0 28.569191,-11.91369,0 28.540562,-11.872039,0 28.507851,-11.872763,0 28.488886,-11.808684,0 28.452506,-11.780779,0 28.40548,-11.605182,0 28.360315,-11.533558,0 28.357008,-11.446949,0 28.439587,-11.348247,0 28.436176,-11.289129,0 28.473693,-11.22567,0 28.487336,-11.153427,0 28.476794,-11.077979,0 28.547177,-10.913751,0 28.554412,-10.834996,0 28.623245,-10.716864,0 28.665878,-10.697434,0 28.699622,-10.643174,0 28.665516,-10.608964,0 28.672337,-10.564315,0 28.634924,-10.51946,0 28.646086,-10.438431,0 28.620868,-10.373319,0 28.623865,-10.276374,0 28.56991500000001,-10.219633,0 28.628516,-10.102741,0 28.627947,-9.929418999999999,0 28.668462,-9.821622,0 28.698486,-9.791959,0 28.631255,-9.715581999999999,0 28.621798,-9.638273999999999,0 28.583557,-9.563756,0 28.617767,-9.543291999999999,0 28.5741,-9.539158,0 28.562783,-9.484897999999999,0 28.519685,-9.445624,0 28.515964,-9.378341000000001,0 28.46046400000001,-9.335036000000001,0 28.36853199999999,-9.308578000000001,0 28.35246,-9.271991,0 28.372304,-9.235094,0 28.59906,-9.096394999999999,0 28.765407,-8.934027,0 28.893099,-8.765769000000001,0 28.930461,-8.679883,0 28.935474,-8.590792,0 28.889172,-8.483098999999999,0 30.752107,-8.194124,0 30.728129,-8.104104,0 30.778255,-8.289104999999999,0 30.828278,-8.388116999999999,0 30.959536,-8.550485,0 31.03364,-8.600301,0 31.119836,-8.616631,0 31.206756,-8.580767,0 31.260913,-8.623969000000001,0 31.353311,-8.587175,0 31.38597,-8.632547000000001,0 31.427518,-8.633476999999999,0 31.539036,-8.70355,0 31.55335,-8.809074000000001,0 31.672671,-8.913047000000001,0 31.709775,-8.919661,0 31.787599,-8.892169000000001,0 31.936634,-8.93258,0 31.917824,-8.973095000000001,0 31.917721,-9.022497,0 31.938081,-9.061771,0 31.980559,-9.071899999999999,0 32.031719,-9.045958000000001,0 32.057247,-9.049576,0 32.096418,-9.069108999999999,0 32.134141,-9.064147999999999,0 32.231448,-9.133808,0 32.423426,-9.143834,0 32.459703,-9.168018,0 32.518046,-9.258245000000001,0 32.713228,-9.28584,0 32.752295,-9.337413,0 32.784334,-9.339687,0 
									</coordinates>
          </LinearRing>
        </outerBoundaryIs>
      </Polygon>
      <Polygon>
        <outerBoundaryIs>
          <LinearRing>
            <coordinates>
										12.99459,-5.868243999999999,0 12.828161,-5.871794,0 12.745128,-5.940199,0 12.761119,-5.958406,0 12.807373,-5.95397,0 12.839276,-5.92764,0 12.99459,-5.868243999999999,0 
									</coordinates>
          </LinearRing>
        </outerBoundaryIs>
      </Polygon>
      <Polygon>
        <outerBoundaryIs>
          <LinearRing>
            <coordinates>
										39.237862,-5.856047,0 39.226104,-5.769169,0 39.214412,-5.777380000000001,0 39.21447,-5.858106,0 39.237862,-5.856047,0 
									</coordinates>
          </LinearRing>
        </outerBoundaryIs>
      </Polygon>
      <Polygon>
        <outerBoundaryIs>
          <LinearRing>
            <coordinates>
										39.719439,-8.092572000000001,0 39.801492,-8.006587,0 39.796737,-7.992453,0 39.74204,-7.994825000000001,0 39.7028,-8.049004,0 39.702796,-8.091393,0 39.719439,-8.092572000000001,0 
									</coordinates>
          </LinearRing>
        </outerBoundaryIs>
      </Polygon>
      <Polygon>
        <outerBoundaryIs>
          <LinearRing>
            <coordinates>
										39.893403,-7.754082999999999,0 39.910981,-7.654474,0 39.895681,-7.637628,0 39.8449,-7.737725999999999,0 39.773448,-7.775486000000001,0 39.814301,-7.788506999999999,0 39.703868,-7.819431,0 39.693044,-7.870294,0 39.631684,-7.914972,0 39.621918,-7.939223,0 39.587169,-7.945489000000001,0 39.629731,-7.985772,0 39.686778,-7.988865,0 39.726329,-7.973403,0 39.754649,-7.915297000000001,0 39.823253,-7.913995,0 39.893403,-7.754082999999999,0 
									</coordinates>
          </LinearRing>
        </outerBoundaryIs>
      </Polygon>
      <Polygon>
        <outerBoundaryIs>
          <LinearRing>
            <coordinates>
										39.544281,-6.45086,0 39.569509,-6.420831,0 39.574067,-6.377618,0 39.543468,-6.321222,0 39.524913,-6.175063000000001,0 39.498546,-6.123792999999999,0 39.500987,-6.196222,0 39.464854,-6.187433,0 39.45753,-6.212009,0 39.431,-6.185968,0 39.416515,-6.192071,0 39.437022,-6.157892,0 39.423839,-6.122328,0 39.430186,-6.054864,0 39.402843,-6.048028,0 39.372569,-5.970798,0 39.35434,-5.896660999999999,0 39.355724,-5.803806000000001,0 39.313487,-5.718438,0 39.295258,-5.736505,0 39.28004,-5.841974,0 39.211111,-5.917739,0 39.197439,-5.896660999999999,0 39.19044,-5.914239,0 39.186209,-5.994317000000001,0 39.212901,-6.114189999999999,0 39.177013,-6.157892,0 39.198578,-6.220798,0 39.264171,-6.302422999999999,0 39.290294,-6.308201000000001,0 39.276052,-6.274102,0 39.280284,-6.258477,0 39.293712,-6.267755000000001,0 39.286876,-6.246759000000001,0 39.300466,-6.239353,0 39.37436,-6.32879,0 39.375662,-6.363376999999999,0 39.403575,-6.373712,0 39.409679,-6.345798,0 39.394054,-6.308201000000001,0 39.416515,-6.301364999999999,0 39.443696,-6.421563,0 39.47169,-6.452081,0 39.508474,-6.462823,0 39.544281,-6.45086,0 
									</coordinates>
          </LinearRing>
        </outerBoundaryIs>
      </Polygon>
      <Polygon>
        <outerBoundaryIs>
          <LinearRing>
            <coordinates>
										39.575458,-5.394548,0 39.569029,-5.406201,0 39.615331,-5.463799,0 39.6329,-5.477752,0 39.659811,-5.47597,0 39.662138,-5.46374,0 39.575458,-5.394548,0 
									</coordinates>
          </LinearRing>
        </outerBoundaryIs>
      </Polygon>
      <Polygon>
        <outerBoundaryIs>
          <LinearRing>
            <coordinates>
										39.650564,-5.338474,0 39.648936,-5.427504,0 39.705414,-5.442966,0 39.738617,-5.431085,0 39.729015,-5.454197,0 39.764008,-5.432306,0 39.780935,-5.383233,0 39.796072,-5.406834,0 39.855968,-5.253025,0 39.861176,-5.114516,0 39.848481,-5.108982,0 39.838634,-5.137465,0 39.828136,-5.102146,0 39.835623,-5.026462,0 39.878184,-4.987726,0 39.869477,-4.90602,0 39.855968,-4.897231,0 39.849864,-4.949151,0 39.841645,-4.96559,0 39.835623,-4.945082,0 39.823741,-4.957208,0 39.821544,-4.993829,0 39.805919,-4.96087,0 39.735199,-4.910333,0 39.712087,-4.93141,0 39.684093,-4.890313,0 39.677257,-4.945082,0 39.715994,-4.976821,0 39.712087,-4.992852,0 39.681163,-4.987237,0 39.68393,-5.020196,0 39.698253,-5.01336,0 39.677257,-5.044366,0 39.718272,-5.061782,0 39.725434,-5.080499,0 39.700694,-5.079197,0 39.690766,-5.137465,0 39.72047,-5.136326,0 39.718272,-5.170505,0 39.742524,-5.161798,0 39.746104,-5.205173,0 39.649913,-5.190851,0 39.668712,-5.213962,0 39.690766,-5.211358,0 39.736339,-5.240004,0 39.780935,-5.239353,0 39.764171,-5.262384,0 39.690766,-5.259861,0 39.726329,-5.280369,0 39.716563,-5.289646,0 39.663585,-5.287205,0 39.698253,-5.34238,0 39.650564,-5.338474,0 
									</coordinates>
          </LinearRing>
        </outerBoundaryIs>
      </Polygon>
      <Polygon>
        <outerBoundaryIs>
          <LinearRing>
            <coordinates>
										41.143321,-2.059503,0 41.065684,-2.03631,0 41.045177,-2.069757,0 40.982921,-2.097345,0 40.957286,-2.174005,0 40.979503,-2.169366,0 41.006114,-2.197361,0 40.986176,-2.165948,0 40.995616,-2.143813,0 41.081798,-2.121515,0 41.104828,-2.134047,0 41.123383,-2.093683,0 41.136892,-2.115492,0 41.155284,-2.112074,0 41.162771,-2.090916,0 41.143321,-2.059503,0 
									</coordinates>
          </LinearRing>
        </outerBoundaryIs>
      </Polygon>
    <Polygon><outerBoundaryIs><LinearRing><coordinates>
  43.727224,-12.263604,0 43.850108,-12.346124,0 43.858165,-12.371352,0 43.665212,-12.352472,0 43.658946,-12.318292,0 43.633962,-12.301039,0 43.635753,-12.236912,0 43.727224,-12.263604,0
</coordinates></LinearRing></outerBoundaryIs></Polygon><Polygon><outerBoundaryIs><LinearRing><coordinates>
  44.529063,-12.232843,0 44.528494,-12.354750,0 44.511485,-12.380304,0 44.385265,-12.251723,0 44.268403,-12.205011,0 44.206391,-12.160577,0 44.323090,-12.187921,0 44.343516,-12.174249,0 44.373546,-12.180352,0 44.415294,-12.119317,0 44.411794,-12.085545,0 44.467052,-12.064386,0 44.529063,-12.232843,0
</coordinates></LinearRing></outerBoundaryIs></Polygon><Polygon><outerBoundaryIs><LinearRing><coordinates>
  43.446625,-11.790704,0 43.498302,-11.882013,0 43.479991,-11.922784,0 43.437673,-11.931573,0 43.369965,-11.860610,0 43.301768,-11.849542,0 43.271007,-11.828220,0 43.217784,-11.750258,0 43.215994,-11.715997,0 43.244151,-11.672947,0 43.246837,-11.440606,0 43.276541,-11.379571,0 43.355724,-11.361261,0 43.394867,-11.400160,0 43.377126,-11.605076,0 43.446625,-11.749119,0 43.446625,-11.790704,0
</coordinates></LinearRing></outerBoundaryIs></Polygon></MultiGeometry>
  </Document>
</kml>
