<?xml version='1.0' encoding='UTF-8'?>
<kml xmlns="http://www.opengis.net/kml/2.2" xmlns:gx="http://www.google.com/kml/ext/2.2" xmlns:kml="http://www.opengis.net/kml/2.2">
  <Document>
    <name>Egypt</name>
    <MultiGeometry>
      <Polygon>
        <outerBoundaryIs>
          <LinearRing>
            <coordinates>
34.047048,31.229193,0 33.85434,31.163479,0 33.64796,31.117255,0 33.499522,31.128079,0 33.406423,31.155422,0 33.406423,31.137274,0 33.377696,31.132554,0 33.386485,31.114407,0 33.277192,31.10692,0 33.317638,31.100775,0 33.303233,31.099799,0 33.303966,31.079657,0 33.262462,31.100775,0 33.194835,31.073432,0 33.221446,31.059801,0 33.133311,31.045559,0 33.144705,31.077867,0 33.118988,31.10692,0 33.157725,31.117865,0 33.098643,31.183295,0 33.126475,31.189521,0 33.109386,31.196438,0 33.030284,31.162177,0 32.98463,31.109524,0 32.954438,31.10692,0 33.030284,31.100775,0 33.064301,31.134914,0 33.057465,31.100775,0 33.009125,31.086493,0 33.023448,31.073432,0 33.009939,31.056301,0 32.961274,31.065985,0 32.975108,31.065985,0 32.968761,31.086493,0 32.927094,31.111802,0 32.913585,31.100775,0 32.940929,31.093329,0 32.917247,31.082831,0 32.893077,31.100775,0 32.769542,31.045559,0 32.700694,31.038723,0 32.715017,31.052314,0 32.666515,31.052314,0 32.83961,31.101223,0 32.927257,31.155422,0 32.761974,31.081204,0 32.601573,31.060981,0 32.509532,31.10692,0 32.389903,31.226508,0 32.344249,31.241889,0 32.331391,31.27143,0 32.207042,31.295071,0 32.214122,31.278266,0 32.28297,31.265286,0 32.270518,31.257554,0 32.295095,31.213365,0 32.289806,31.169623,0 32.262462,31.169623,0 32.283458,31.136542,0 32.234141,31.104885,0 32.183849,31.124945,0 32.179942,31.10692,0 32.16627,31.114407,0 32.152843,31.106594,0 32.159434,31.093329,0 32.138357,31.093329,0 32.146332,31.079657,0 32.097992,31.093329,0 32.107432,31.072821,0 32.132091,31.065985,0 32.106456,31.053371,0 32.083751,31.065985,0 32.083751,31.084418,0 32.043956,31.086493,0 32.070079,31.10692,0 32.050141,31.14175,0 32.016124,31.128079,0 32.036876,31.150295,0 32.03712,31.216783,0 32.009288,31.210639,0 31.986583,31.230292,0 31.926443,31.186998,0 31.926606,31.210639,0 31.899425,31.203192,0 31.906261,31.216783,0 31.892589,31.216783,0 31.906261,31.223619,0 31.906261,31.251614,0 31.885753,31.223619,0 31.834158,31.251614,0 31.820567,31.278266,0 31.766938,31.284654,0 31.795909,31.310981,0 31.797211,31.359524,0 31.858409,31.35399,0 31.827891,31.368354,0 31.844737,31.394965,0 31.830414,31.408637,0 31.878917,31.416083,0 31.854828,31.423163,0 31.858409,31.443345,0 31.824229,31.443345,0 31.841645,31.464504,0 31.878917,31.429145,0 31.86524500000001,31.497992,0 31.844737,31.497992,0 31.850922,31.5185,0 31.86524500000001,31.512274,0 31.86524500000001,31.525336,0 31.878917,31.5185,0 31.889496,31.53205,0 31.917979,31.523993,0 31.9935,31.437812,0 31.968272,31.43651,0 31.994965,31.394965,0 32.199555,31.295071,0 32.024913,31.400051,0 31.944835,31.520941,0 31.87436,31.53559,0 31.748302,31.481594,0 31.556814,31.443345,0 31.220958,31.579901,0 31.097423,31.607896,0 30.978038,31.584296,0 31.023204,31.582994,0 31.111095,31.53974,0 31.130382,31.516995,0 31.111095,31.512274,0 31.129242,31.504462,0 31.119151,31.493109,0 31.0713,31.51732,0 31.029145,31.5185,0 30.980724,31.43651,0 30.939708,31.457017,0 30.939708,31.443345,0 30.892426,31.419094,0 30.798513,31.446479,0 30.756196,31.423,0 30.734386,31.388129,0 30.675059,31.421576,0 30.62672,31.388658,0 30.542654,31.402411,0 30.557872,31.422187,0 30.628103,31.434312,0 30.973888,31.586737,0 30.535818,31.463853,0 30.456391,31.462714,0 30.362153,31.508734,0 30.370616,31.461615,0 30.398611,31.443345,0 30.364594,31.46011,0 30.343923,31.497992,0 30.348399,31.421332,0 30.312836,31.350572,0 30.25172,31.303412,0 30.179454,31.278266,0 30.254568,31.278266,0 30.240896,31.265286,0 30.287608,31.278225,0 30.302989,31.27143,0 30.28874799999999,31.237942,0 30.268809,31.265286,0 30.261404,31.244127,0 30.22047,31.220201,0 30.201671,31.226508,0 30.206798,31.237942,0 30.165212,31.216783,0 30.140147,31.23725,0 30.172618,31.27143,0 30.0949,31.28559,0 30.066661,31.304877,0 30.069591,31.333482,0 29.898204,31.203192,0 29.876964,31.213568,0 29.863536,31.196357,0 29.884613,31.189521,0 29.83839,31.15412,0 29.781505,31.147935,0 29.765961,31.121568,0 29.503266,30.956692,0 29.218923,30.838039,0 29.028087,30.827053,0 28.835704,30.910793,0 28.812022,30.956773,0 28.527599,31.050116,0 28.478526,31.051825,0 28.424327,31.083441,0 28.31837000000001,31.059801,0 28.203868,31.070502,0 28.154552,31.093329,0 27.926931,31.099026,0 27.897146,31.114407,0 27.852875,31.240302,0 27.66033,31.180243,0 27.609874,31.203192,0 27.58773800000001,31.193101,0 27.4463,31.223212,0 27.393565,31.254706,0 27.342296,31.368232,0 27.320649,31.381008,0 27.246104,31.381293,0 27.226248,31.367662,0 27.054373,31.408637,0 26.965505,31.449652,0 26.865733,31.436835,0 26.753184,31.477484,0 26.362153,31.521918,0 25.966807,31.616604,0 25.824067,31.614936,0 25.401866,31.50316,0 25.190929,31.53148,0 25.161794,31.583564,0 25.15089,31.65648,0 25.088422,31.613524,0 25.023723,31.494409,0 24.861252,31.38036,0 24.848953,31.34863,0 24.859495,31.145955,0 24.882646,31.039088,0 24.99488699999999,30.785099,0 24.907658,30.498656,0 24.772369,30.331018,0 24.688653,30.182758,0 24.697334,30.122607,0 24.811643,29.89089,0 24.798207,29.796425,0 24.804925,29.7548,0 24.870657,29.638347,0 24.863836,29.502903,0 24.956647,29.292683,0 24.981245,29.181372,0 24.981245,21.995351,0 31.248407,21.994369,0 31.359512,22.188104,0 31.42328,22.226965,0 31.460901,22.215493,0 31.491803,22.173221,0 31.435476,21.995351,0 36.883637,21.995714,0 36.898448,22.017483,0 36.895383,22.066133,0 36.818207,22.108832,0 36.782237,22.164455,0 36.756847,22.176907,0 36.747569,22.160956,0 36.713715,22.169135,0 36.562839,22.296677,0 36.439823,22.356443,0 36.4281,22.426045,0 36.313416,22.491613,0 36.290538,22.568183,0 36.226085,22.635443,0 36.120616,22.675686,0 35.969493,22.697984,0 35.847547,22.762989,0 35.784923,22.83319699999999,0 35.755707,22.922309,0 35.723399,22.931871,0 35.763682,22.870429,0 35.695305,22.932126,0 35.621087,23.139293,0 35.57468,23.212565,0 35.547537,23.393988,0 35.489431,23.497016,0 35.510221,23.683922,0 35.510148,23.756379,0 35.483224,23.772487,0 35.474768,23.797915,0 35.491222,23.947577,0 35.513927,23.977118,0 35.598533,23.929413,0 35.68452,23.910916,0 35.750356,23.932423,0 35.785779,23.893046,0 35.792535,23.90229100000001,0 35.738571,23.983317,0 35.605261,24.018817,0 35.588372,24.075837,0 35.5039,24.140538,0 35.493767,24.138989,0 35.510509,24.111233,0 35.493828,24.1089,0 35.428645,24.185953,0 35.391856,24.282782,0 35.235455,24.400126,0 35.18572,24.485663,0 35.144556,24.500206,0 35.16027,24.574618,0 35.109548,24.643785,0 35.063487,24.764106,0 35.002208,24.815619,0 34.989757,24.905015,0 34.953725,24.944142,0 34.939138,25.003363,0 34.806895,25.211615,0 34.743337,25.351304,0 34.681895,25.428697,0 34.633474,25.569403,0 34.54656,25.725043,0 34.338715,26.001776,0 34.014008,26.61164,0 33.941417,26.65351,0 33.93214,26.682603,0 33.951915,26.743354,0 33.948253,26.831,0 33.959646,26.849799,0 33.996104,26.837877,0 33.996104,26.896552,0 33.951671,26.930976,0 33.90089,27.014228,0 33.901378,27.058743,0 33.836762,27.120754,0 33.824718,27.180487,0 33.83839,27.194159,0 33.83839,27.24258,0 33.691661,27.341864,0 33.632986,27.495836,0 33.557872,27.53677,0 33.564708,27.571519,0 33.496349,27.646633,0 33.526541,27.677558,0 33.5442,27.679185,0 33.557872,27.659654,0 33.557872,27.681383,0 33.592052,27.646633,0 33.574962,27.681383,0 33.536794,27.708075,0 33.557872,27.759914,0 33.522716,27.751899,0 33.473481,27.823188,0 33.488943,27.845893,0 33.592052,27.791246,0 33.554373,27.89647,0 33.512543,27.959052,0 33.441742,28.016547,0 33.343598,28.050605,0 33.338145,28.085435,0 33.24936,28.14289,0 33.241954,28.174872,0 33.212169,28.189927,0 33.126475,28.287502,0 33.1067,28.347113,0 33.043224,28.400784,0 33.00294,28.489488,0 32.868907,28.578925,0 32.806895,28.778144,0 32.749197,28.804836,0 32.680837,28.880561,0 32.67335,28.921536,0 32.625499,28.972724,0 32.624685,29.048163,0 32.659679,29.089097,0 32.658946,29.110785,0 32.632335,29.243069,0 32.581228,29.369127,0 32.451345,29.487291,0 32.387706,29.525621,0 32.337657,29.592475,0 32.363943,29.688218,0 32.392833,29.734361,0 32.509532,29.866848,0 32.472911,29.881985,0 32.476899,29.932196,0 32.513438,29.961575,0 32.553966,29.962104,0 32.571544,29.942572,0 32.557465,29.976467,0 32.57781,30.01142,0 32.57781,29.983547,0 32.561615,29.976386,0 32.58546,29.95246,0 32.571544,29.9289,0 32.625336,29.874254,0 32.625499,29.84634,0 32.604503,29.824164,0 32.648448,29.794623,0 32.690684,29.733629,0 32.680837,29.599921,0 32.712413,29.580471,0 32.724132,29.539537,0 32.715017,29.455959,0 32.728526,29.455959,0 32.734711,29.483832,0 32.741547,29.455959,0 32.817231,29.414049,0 32.817393,29.359768,0 32.839366,29.31623,0 32.868337,29.297431,0 32.88559,29.243069,0 32.957856,29.202094,0 33.061209,29.101386,0 33.078624,29.064887,0 33.14503,29.031724,0 33.177908,28.989569,0 33.165863,28.97606,0 33.174571,28.836982,0 33.228282,28.763861,0 33.194835,28.675116,0 33.228689,28.569403,0 33.256196,28.551581,0 33.237641,28.566107,0 33.26295,28.577053,0 33.269786,28.544135,0 33.256196,28.544135,0 33.369151,28.447943,0 33.43393,28.3664,0 33.564708,28.297105,0 33.618175,28.233303,0 33.634776,28.181301,0 33.674571,28.160549,0 33.715994,28.075263,0 33.763927,28.049018,0 33.763357,28.023993,0 33.865571,27.96133,0 33.879405,27.934638,0 33.903982,27.941799,0 33.987559,27.886664,0 34.054454,27.814521,0 34.189789,27.78677,0 34.257335,27.728583,0 34.257335,27.769517,0 34.221202,27.769843,0 34.214122,27.79149,0 34.259125,27.801703,0 34.27947,27.858344,0 34.320974,27.861274,0 34.331309,27.91413,0 34.37086,27.923651,0 34.400727,27.968736,0 34.434906,27.975572,0 34.444027,28.053541,0 34.426753,28.081544,0 34.455333,28.174872,0 34.412934,28.23314,0 34.410167,28.320014,0 34.469005,28.45539,0 34.523611,28.50731,0 34.51059,28.537991,0 34.624522,28.735989,0 34.633474,28.770697,0 34.620453,28.845852,0 34.647146,28.86286,0 34.64031,28.948798,0 34.68572,28.988674,0 34.674571,29.106513,0 34.694998,29.164496,0 34.729015,29.19892,0 34.745291,29.291327,0 34.736583,29.311265,0 34.886729,29.490058,0 34.855267,29.545717,0 34.824365,29.7417,0 34.741373,29.940241,0 34.733208,30.012588,0 34.599469,30.344506,0 34.526915,30.409618,0 34.536217,30.48217199999999,0 34.504384,30.530334,0 34.480407,30.651205,0 34.200269,31.314267,0 34.047048,31.229193,0
</coordinates>
          </LinearRing>
        </outerBoundaryIs>
      </Polygon>
      <Polygon>
        <outerBoundaryIs>
          <LinearRing>
            <coordinates>
33.989594,26.720282,0 34.003591,26.708197,0 33.975597,26.790025,0 33.955089,26.790025,0 33.989594,26.720282,0
</coordinates>
          </LinearRing>
        </outerBoundaryIs>
      </Polygon>
      <Polygon>
        <outerBoundaryIs>
          <LinearRing>
            <coordinates>
33.913585,27.523749,0 33.933767,27.494696,0 33.956391,27.504381,0 34.05128,27.448635,0 34.028494,27.502021,0 33.964122,27.534125,0 33.913585,27.523749,0
</coordinates>
          </LinearRing>
        </outerBoundaryIs>
      </Polygon>
      <Polygon>
        <outerBoundaryIs>
          <LinearRing>
            <coordinates>
34.511892,27.967475,0 34.506847,27.986233,0 34.5442,27.996039,0 34.517345,28.016547,0 34.489513,27.996039,0 34.496349,27.955146,0 34.518077,27.930406,0 34.620453,27.920356,0 34.570567,27.974107,0 34.511892,27.967475,0
</coordinates>
          </LinearRing>
        </outerBoundaryIs>
      </Polygon>
      <Polygon>
        <outerBoundaryIs>
          <LinearRing>
            <coordinates>
32.983084,31.089911,0 32.969737,31.086575,0 32.989268,31.073432,0 32.983084,31.089911,0
</coordinates>
          </LinearRing>
        </outerBoundaryIs>
      </Polygon>
      <Polygon>
        <outerBoundaryIs>
          <LinearRing>
            <coordinates>
33.475922,31.14175,0 33.432953,31.172065,0 33.269786,31.216783,0 33.475922,31.14175,0
</coordinates>
          </LinearRing>
        </outerBoundaryIs>
      </Polygon>
      <Polygon>
        <outerBoundaryIs>
          <LinearRing>
            <coordinates>
33.10255,31.226752,0 33.262462,31.223619,0 33.104747,31.240302,0 32.934744,31.147935,0 33.10255,31.226752,0
</coordinates>
          </LinearRing>
        </outerBoundaryIs>
      </Polygon>
      <Polygon>
        <outerBoundaryIs>
          <LinearRing>
            <coordinates>
34.681773,27.958703,0 34.661786,27.930218,0 34.704695,27.908368,0 34.732162,27.918943,0 34.731882,27.957141,0 34.681773,27.958703,0
</coordinates>
          </LinearRing>
        </outerBoundaryIs>
      </Polygon>
    </MultiGeometry>
  </Document>
</kml>
