<?xml version='1.0' encoding='UTF-8'?>
<kml xmlns="http://www.opengis.net/kml/2.2" xmlns:gx="http://www.google.com/kml/ext/2.2" xmlns:kml="http://www.opengis.net/kml/2.2">
  <Document>
    <name>Ethiopia</name>
    <MultiGeometry>
      <Polygon>
        <outerBoundaryIs>
          <LinearRing>
            <coordinates>
34.066892,9.531176,0 34.11185,8.626555,0 34.090249,8.556507,0 33.95031,8.433206999999999,0 33.824116,8.419487,0 33.74102,8.367087,0 33.695545,8.372875000000001,0 33.620407,8.460699,0 33.552143,8.446823999999999,0 33.484757,8.474005999999999,0 33.480519,8.457649999999999,0 33.392101,8.451862,0 33.361353,8.434293,0 33.23516,8.455634999999999,0 33.202913,8.414113,0 33.174078,8.404475,0 33.161882,8.361506,0 33.174078,8.343057999999999,0 33.164363,8.292776999999999,0 33.208288,8.253683000000001,0 33.169944,8.205495000000001,0 33.185137,8.141080000000001,0 33.164776,8.117051,0 33.117544,8.104158,0 33.031141,7.996309,0 32.9898,7.917243999999999,0 33.023493,7.835078,0 33.058323,7.797974999999999,0 33.120851,7.783299,0 33.164518,7.801127000000001,0 33.233919,7.783195,0 33.29159,7.733069000000001,0 33.347142,7.718961,0 33.462329,7.749502,0 33.516796,7.726093,0 33.550851,7.691315000000001,0 33.637202,7.691315000000001,0 33.71606,7.657156,0 33.761071,7.598142000000001,0 33.811507,7.560986999999999,0 33.882407,7.536079,0 34.006534,7.409936,0 34.030615,7.3487,0 34.033612,7.250256,0 34.132417,7.163388,0 34.181407,7.167212,0 34.198253,7.064376,0 34.280729,6.980092,0 34.439169,6.934874999999999,0 34.503661,6.89002,0 34.523298,6.844182999999999,0 34.511102,6.814314,0 34.524745,6.752871,0 34.618486,6.736541,0 34.703545,6.684916,0 34.733518,6.637606,0 34.784264,6.44183,0 34.832633,6.353541,0 34.844725,6.248689,0 34.898882,6.13867,0 34.959447,6.061723999999999,0 34.969782,5.996689,0 34.955313,5.952558,0 34.979911,5.912843999999999,0 34.974433,5.863106,0 35.079543,5.699782,0 35.098663,5.622474,0 35.261961,5.511887,0 35.27364,5.479873,0 35.250695,5.435147,0 35.287489,5.374092,0 35.320769,5.348719,0 35.344953,5.352362,0 35.430219,5.427215,0 35.469287,5.430755,0 35.508044,5.423417,0 35.598168,5.368743,0 35.683641,5.379595,0 35.80415,5.318023,0 35.775315,5.24658,0 35.807354,5.144674,0 35.755884,5.063439,0 35.751647,4.854356,0 35.784513,4.764181,0 35.920835,4.619332,0 35.940472,4.508046,0 36.041345,4.443683,0 36.844087,4.432237,0 37.015652,4.370587,0 37.048415,4.331959,0 37.075907,4.33108,0 37.094821,4.284882,0 37.976731,3.726440000000001,0 38.036158,3.648926,0 38.101891,3.612649,0 38.176925,3.620917,0 38.445953,3.601668,0 38.496906,3.62394,0 38.508998,3.650812,0 38.547135,3.609522000000001,0 38.660306,3.594459,0 38.66103,3.621951,0 38.722008,3.560404000000001,0 38.895227,3.513585,0 39.06793,3.526582,0 39.09028941822102,3.518121168688693,0 39.095216,3.53627,0 39.300682,3.642569,0 39.469767,3.917539,0 39.498602,3.979654,0 39.483823,4.040968,0 39.541494,4.234496,0 39.585109,4.293821,0 39.741998,4.657003,0 39.77042,4.851487,0 39.820443,5.015069,0 39.919455,5.246502,0 40.01454,5.383186,0 40.051127,5.399697,0 40.187449,5.354557,0 40.528824,5.415535,0 40.704317,5.565423,0 40.922495,5.699497,0 40.88012,5.811687,0 40.865547,6.110403,0 40.883634,6.237992,0 40.858519,6.419919,0 40.920428,6.533684,0 41.049412,6.676053,0 41.121966,6.692744,0 41.341384,6.572752,0 41.438949,6.544665,0 41.621987,6.364004999999999,0 41.701879,6.444801,0 41.763684,6.541255,0 41.845849,6.569935,0 41.861145,6.537146999999999,0 41.931529,6.552494,0 41.985789,6.595696,0 42.014108,6.643109000000001,0 42.079117,6.79571,0 42.068781,6.814416,0 42.093069,6.919165,0 42.136994,6.951591,0 42.182883,7.044609,0 42.227118,7.22266,0 42.207481,7.293044,0 41.901453,7.412339,0 41.875098,7.510756,0 41.876545,7.552459,0 41.95344,7.751439,0 41.917679,7.873602,0 41.931322,8.115577,0 41.961191,8.219989999999999,0 42.029301,8.325151,0 42.032298,8.433723000000001,0 42.207067,8.604772000000001,0 42.274144,8.622781,0 42.32675,8.538703999999999,0 42.503587,8.492531,0 42.533352,8.450362999999999,0 42.580378,8.230816000000001,0 42.634535,8.147565,0 42.668435,8.14077,0 42.703885,8.181903999999999,0 42.743779,8.327296,0 42.770444,8.365459,0 42.896948,8.412381,0 42.913381,8.51098,0 42.90594,8.589812,0 42.844031,8.662288,0 42.833283,8.707324,0 42.865529,8.80029,0 42.85695,8.840365,0 42.705332,8.983199000000001,0 42.644043,9.080221,0 42.625853,9.164299,0 42.592264,9.210186999999999,0 42.551853,9.351523,0 42.48736,9.479267,0 42.418838,9.561586999999999,0 42.387108,9.567736999999999,0 42.393516,9.665611999999999,0 42.380907,9.708322000000001,0 42.341013,9.720363000000001,0 42.302669,9.762582999999999,0 42.2543,9.780566,0 42.20314,9.774391,0 42.040359,9.628999,0 41.892048,9.68388,0 41.818461,9.647499,0 41.76296,9.640135000000001,0 41.740636,9.584944999999999,0 41.736915,9.473763,0 41.711697,9.468208000000001,0 41.664568,9.4803,0 41.63749,9.514044999999999,0 41.615166,9.517585,0 41.566486,9.509239000000001,0 41.493209,9.459707,0 41.269864,9.505879999999999,0 41.2309,9.496578,0 41.171782,9.444592,0 41.011068,9.358215,0 40.846427,9.307081,0 40.80922,9.328733,0 40.797748,9.394621000000001,0 40.910506,9.395913,0 40.924045,9.408961,0 40.914537,9.429218000000001,0 40.866891,9.456994,0 40.695118,9.444385,0 40.73708,9.623599,0 40.825963,9.759715,0 41.021817,9.951124,0 40.952054,9.996703,0 40.943165,10.047036,0 41.086619,10.591163,0 41.092304,10.699244,0 41.204131,10.815568,0 41.270484,10.960132,0 41.69113,10.964292,0 41.766523,10.989466,0 41.785594,11.067388,0 41.787971,11.259727,0 41.74911,11.537953,0 41.792415,11.704455,0 41.808228,11.736236,0 41.936386,11.827445,0 42.379459,12.465907,0 42.250165,12.623985,0 42.184949,12.733048,0 42.137304,12.77333,0 41.946617,12.876166,0 41.894321,12.94797,0 41.784767,13.164572,0 41.7118,13.247926,0 41.530726,13.393783,0 41.192038,13.615863,0 41.043623,13.872488,0 40.833197,14.105962,0 40.772322,14.148362,0 40.585874,14.19469,0 40.479834,14.244403,0 40.421646,14.273755,0 40.277055,14.404574,0 40.194373,14.444649,0 40.104559,14.465966,0 40.037483,14.451522,0 39.979813,14.458731,0 39.999839,14.455238,0 39.9825,14.445217,0 39.984051,14.397804,0 39.963587,14.368374,0 39.804423,14.386719,0 39.734764,14.373567,0 39.668204,14.324526,0 39.691976,14.303959,0 39.752954,14.30923,0 39.768353,14.295458,0 39.720191,14.234894,0 39.690425,14.165105,0 39.761429,14.145287,0 39.723602,14.101233,0 39.73125,14.082887,0 39.772591,14.090975,0 39.78489,14.0802,0 39.792124,13.973618,0 39.819616,13.930235,0 39.797602,13.73526,0 39.827988,13.614596,0 39.823027,13.571653,0 39.794088,13.553902,0 39.756158,13.571446,0 39.724118,13.481503,0 39.744169,13.390759,0 39.723188,13.252602,0 39.773108,13.193769,0 39.807834,13.087754,0 39.791298,13.053131,0 39.765356,13.038429,0 39.754504,12.894175,0 39.860337,12.833481,0 39.89186,12.761056,0 39.87553,12.668193,0 39.80432,12.566107,0 39.792641,12.524507,0 39.7883,12.47451,0 39.808558,12.406401,0 39.797395,12.340177,0 39.746546,12.316019,0 39.62955,12.303797,0 39.539117,12.251061,0 39.533742,12.327749,0 39.407962,12.332271,0 39.377473,12.325114,0 39.372719,12.299095,0 39.298925,12.296304,0 39.272673,12.312582,0 39.247972,12.364026,0 39.232985,12.496447,0 39.18472,12.632408,0 39.263681,12.797798,0 39.265542,12.853428,0 39.224304,13.015847,0 39.045193,13.003393,0 39.014394,13.014968,0 38.995791,13.127106,0 38.74609,13.374895,0 38.704956,13.393627,0 38.675087,13.491735,0 38.583929,13.497368,0 38.460733,13.463468,0 38.485331,13.537133,0 38.473962,13.576174,0 38.452568,13.589972,0 38.379911,13.525841,0 38.281106,13.512638,0 38.136515,13.52486,0 38.058484,13.468816,0 37.891569,13.539458,0 37.742327,13.565632,0 37.718659,13.548062,0 37.67029,13.443986,0 37.515881,13.367401,0 37.299047,13.369908,0 37.247784,13.414375,0 37.19311,13.431764,0 37.132545,13.422282,0 37.031983,13.373396,0 36.896281,13.39665,0 36.706215,13.557984,0 36.538473,13.599119,0 36.439942,13.776176,0 36.398429,13.67604,0 36.382099,13.571033,0 36.233581,13.36164,0 36.136946,13.032436,0 36.149865,12.980242,0 36.114415,12.933889,0 36.143251,12.832551,0 36.115035,12.70181,0 36.029976,12.717158,0 35.687671,12.659228,0 35.672375,12.604296,0 35.616875,12.575151,0 35.428772,12.266953,0 35.412546,12.198636,0 35.353738,12.14603,0 35.317358,12.023712,0 35.251419,11.971725,0 35.245734,11.929867,0 35.215555,11.896588,0 35.088018,11.838193,0 35.048227,11.771376,0 35.046263,11.648644,0 35.074375,11.587356,0 35.073135,11.54896,0 34.947148,11.274868,0 34.953969,11.226112,0 34.984148,11.186398,0 34.913558,10.952976,0 34.952832,10.91843,0 34.950662,10.869183,0 34.861572,10.787586,0 34.838524,10.72914,0 34.798527,10.729656,0 34.764834,10.680254,0 34.750674,10.743945,0 34.574768,10.884143,0 34.420048,10.780816,0 34.279489,10.565506,0 34.276181,10.488715,0 34.32486,10.268651,0 34.317419,10.181266,0 34.301813,10.160285,0 34.303466,10.113544,0 34.221921,10.02603,0 34.098208,9.67972,0 34.066892,9.531176,0
</coordinates>
          </LinearRing>
        </outerBoundaryIs>
      </Polygon>
    </MultiGeometry>
  </Document>
</kml>
