<?xml version='1.0' encoding='UTF-8'?>
<kml xmlns="http://www.opengis.net/kml/2.2">
  <Document>
    <name>Front Range Socialist Republic</name>
    <Placemark>
      <name>Front Range Socialist Republic</name>
      <Polygon>
        <outerBoundaryIs>
          <LinearRing>
            <coordinates>-106.321165,40.999123,0 -106.190631,40.99757,0 -106.185307,40.933973,0 -106.131257,40.89661,0 -106.130671,40.873868,0 -106.057742,40.817126,0 -105.990602,40.7272,0 -105.947021,40.616689,0 -105.910889,40.566404,0 -105.907857,40.515493,0 -105.869097,40.520739,0 -105.85231,40.506531,0 -105.854926,40.486252,0 -105.806835,40.473938,0 -105.817266,40.424323,0 -105.78725,40.380872,0 -105.701727,40.324297,0 -105.681508,40.271684,0 -105.644433,40.249894,0 -105.660006,40.248833,0 -105.677554,40.188507,0 -105.667729,40.158276,0 -105.626126,40.127336,0 -105.651061,40.058445,0 -105.641189,40.034203,0 -105.689818,40.015108,0 -105.6932,39.941239,0 -105.675358,39.933192,0 -105.699719,39.891499,0 -105.696342,39.838943,0 -105.763884,39.794991,0 -105.799555,39.803282,0 -105.822992,39.785627,0 -105.887622,39.7966,0 -105.882387,39.740298,0 -105.924546,39.703423,0 -105.92629,39.672985,0 -105.910753,39.662294,0 -105.864775,39.6672,0 -105.848665,39.644156,0 -105.784604,39.631145,0 -105.776268,39.60497,0 -105.838369,39.572952,0 -105.815825,39.551927,0 -105.82317,39.529999,0 -105.859507,39.531536,0 -105.868065,39.51949,0 -105.8542,39.504597,0 -105.905961,39.45966,0 -105.966786,39.438035,0 -105.951765,39.414627,0 -106.013851,39.386898,0 -106.021949,39.361728,0 -106.056087,39.358431,0 -106.097206,39.377987,0 -106.148795,39.36835,0 -106.140274,39.338809,0 -106.183972,39.309354,0 -106.18512,39.242694,0 -106.16831,39.230725,0 -106.184744,39.209308,0 -106.17312,39.138116,0 -106.210173,39.103918,0 -106.169867,39.090726,0 -106.191577,39.067983,0 -106.193083,39.01811,0 -106.16934,38.991518,0 -106.108995,38.987332,0 -106.112663,38.941364,0 -106.06591,38.931896,0 -106.028138,38.942832,0 -105.965923,38.905926,0 -105.974297,38.882458,0 -105.925197,38.872255,0 -105.941845,38.84039,0 -105.906665,38.806961,0 -105.94454,38.768105,0 -105.943493,38.723116,0 -105.96975,38.693551,0 -105.922662,38.676999,0 -105.907699,38.651933,0 -105.915666,38.63005,0 -105.885959,38.620602,0 -105.884637,38.562289,0 -105.903411,38.548554,0 -105.906859,38.506288,0 -105.93804,38.50347,0 -106.011017,38.437233,0 -105.893661,38.346577,0 -105.858315,38.298359,0 -105.800014,38.269911,0 -105.787887,38.242056,0 -105.673065,38.159112,0 -105.66148,38.100912,0 -105.603531,38.031226,0 -105.583922,37.967196,0 -105.51108,37.939121,0 -105.473234,37.896004,0 -105.478495,37.87985,0 -105.450539,37.878108,0 -105.428911,37.851736,0 -105.435194,37.804794,0 -105.454912,37.795696,0 -105.454246,37.723956,0 -105.477732,37.706889,0 -105.498602,37.614137,0 -105.485549,37.577903,0 -105.753278,37.344114,0 -105.720103,37.285906,0 -105.746219,37.248905,0 -105.731408,37.156244,0 -105.748834,37.135001,0 -105.74078,37.101985,0 -105.770357,37.064403,0 -105.768729,37.036453,0 -105.718468,36.995846,0 -103.086102,37.000174,0 -103.075938,37.64342,0 -104.058195,37.644128,0 -104.055525,38.868786,0 -103.719664,38.866827,0 -103.705701,40.001364,0 -104.150309,40.00104,0 -104.147711,40.524307,0 -103.581837,40.52316,0 -103.573387,40.833976,0 -103.573774,41.00172,0 -104.053245,41.001847,0 -104.052773,42.611766,0 -105.286511,42.605826,0 -105.282264,42.431407,0 -105.332638,42.431106,0 -105.351964,42.404892,0 -105.358612,42.319339,0 -105.378682,42.319018,0 -105.375642,42.290139,0 -105.526313,42.288869,0 -105.613828,42.304479,0 -105.614648,42.377373,0 -105.575642,42.377314,0 -105.556042,42.430583,0 -106.073403,42.433236,0 -106.068412,41.3951,0 -106.322885,41.395141,0 -106.321165,40.999123,0</coordinates>
          </LinearRing>
        </outerBoundaryIs>
      </Polygon>
    </Placemark>
  </Document>
</kml>
