<?xml version="1.0" encoding="UTF-8"?>
<kml xmlns="http://www.opengis.net/kml/2.2" xmlns:gx="http://www.google.com/kml/ext/2.2" xmlns:kml="http://www.opengis.net/kml/2.2">
  <Document>
    <name>Gran Colombia</name>
    <MultiGeometry>
      <Polygon>
        <outerBoundaryIs>
          <LinearRing>
            <coordinates>-78.207021,2.575344,0 -78.214868,2.681914,0 -78.145086,2.673748,0 -78.096181,2.540025,0 -78.134429,2.504381,0 -78.207021,2.575344,0</coordinates>
          </LinearRing>
        </outerBoundaryIs>
      </Polygon>
      <Polygon>
        <outerBoundaryIs>
          <LinearRing>
            <coordinates>-78.220289,2.933617,0 -78.164270,3.001596,0 -78.167091,2.959704,0 -78.220289,2.933617,0</coordinates>
          </LinearRing>
        </outerBoundaryIs>
      </Polygon>
      <Polygon>
        <outerBoundaryIs>
          <LinearRing>
            <coordinates>-81.580312,3.976020,0 -81.611724,3.958970,0 -81.601430,3.988349,0 -81.582265,3.991523,0 -81.580312,3.976020,0</coordinates>
          </LinearRing>
        </outerBoundaryIs>
      </Polygon>
      <Polygon>
        <outerBoundaryIs>
          <LinearRing>
            <coordinates>-81.716949,12.563218,0 -81.691029,12.591254,0 -81.717397,12.502427,0 -81.716949,12.563218,0</coordinates>
          </LinearRing>
        </outerBoundaryIs>
      </Polygon>
      <Polygon>
        <outerBoundaryIs>
          <LinearRing>
            <coordinates>-81.382639,13.319159,0 -81.386138,13.341457,0 -81.365346,13.373969,0 -81.346303,13.348700,0 -81.382639,13.319159,0</coordinates>
          </LinearRing>
        </outerBoundaryIs>
      </Polygon>
      <Polygon>
        <outerBoundaryIs>
          <LinearRing>
            <coordinates>-80.090891,13.578030,0 -80.089426,13.576850,0 -80.090403,13.576606,0 -80.090891,13.578030,0</coordinates>
          </LinearRing>
        </outerBoundaryIs>
      </Polygon>
      <Polygon>
        <outerBoundaryIs>
          <LinearRing>
            <coordinates>-77.867502,2.639838,0 -77.914052,2.658677,0 -77.902333,2.696234,0 -77.850494,2.638129,0 -77.785024,2.593817,0 -77.888051,2.593817,0 -77.867502,2.639838,0</coordinates>
          </LinearRing>
        </outerBoundaryIs>
      </Polygon>
      <Polygon>
        <outerBoundaryIs>
          <LinearRing>
            <coordinates>-77.847076,2.724107,0 -77.759104,2.603095,0 -77.847076,2.648383,0 -77.882558,2.724595,0 -77.847076,2.724107,0</coordinates>
          </LinearRing>
        </outerBoundaryIs>
      </Polygon>
      <Polygon>
        <outerBoundaryIs>
          <LinearRing>
            <coordinates>-79.021512,1.638310,0 -78.846052,1.821585,0 -78.759448,1.830547,0 -78.571230,1.782207,0 -78.545400,1.914740,0 -78.591367,1.896843,0 -78.608022,2.027981,0 -78.665606,1.982915,0 -78.703159,2.189805,0 -78.574086,2.433173,0 -78.558990,2.449164,0 -78.558990,2.381537,0 -78.525045,2.495507,0 -78.346018,2.647986,0 -78.254750,2.541897,0 -78.270076,2.634952,0 -78.246931,2.663601,0 -78.207753,2.537340,0 -78.132476,2.492743,0 -78.085276,2.516059,0 -78.096105,2.651451,0 -77.949840,2.674518,0 -77.888051,2.634711,0 -77.904286,2.579983,0 -77.839670,2.565863,0 -77.760406,2.591620,0 -77.751536,2.627265,0 -77.798695,2.675727,0 -77.778188,2.689399,0 -77.812367,2.764472,0 -77.733551,2.786119,0 -77.785756,2.794827,0 -77.764556,2.815660,0 -77.688832,2.791734,0 -77.723541,2.840155,0 -77.668324,2.867499,0 -77.641713,2.846381,0 -77.636057,2.869615,0 -77.657704,2.876899,0 -77.709340,2.860663,0 -77.710072,2.918118,0 -77.643381,2.898139,0 -77.619700,2.931586,0 -77.633901,2.994859,0 -77.721791,2.982001,0 -77.539629,3.196845,0 -77.479684,3.227464,0 -77.541795,3.246081,0 -77.464864,3.301626,0 -77.457387,3.356147,0 -77.380971,3.387641,0 -77.318918,3.319973,0 -77.367055,3.402086,0 -77.353017,3.429836,0 -77.333160,3.411811,0 -77.333160,3.511786,0 -77.264272,3.470852,0 -77.298980,3.511786,0 -77.274892,3.532782,0 -77.321767,3.547838,0 -77.277943,3.545885,0 -77.284779,3.580634,0 -77.209625,3.580634,0 -77.189198,3.662584,0 -77.118276,3.678046,0 -77.170806,3.677191,0 -77.126454,3.717231,0 -77.198720,3.710028,0 -77.195424,3.758205,0 -77.167388,3.737942,0 -77.125640,3.733547,0 -77.174916,3.758205,0 -77.126454,3.778713,0 -77.150380,3.813666,0 -77.120269,3.799140,0 -77.114491,3.852607,0 -77.031565,3.915839,0 -77.126454,3.929511,0 -77.123036,3.886135,0 -77.253163,3.840806,0 -77.311757,3.908433,0 -77.300201,3.969143,0 -77.209625,3.977281,0 -77.243764,3.977281,0 -77.189198,4.067328,0 -77.264272,4.108222,0 -77.264272,4.067328,0 -77.318918,4.053046,0 -77.346181,3.929511,0 -77.435170,4.029364,0 -77.408274,4.045600,0 -77.426666,4.180365,0 -77.348053,4.224677,0 -77.298980,4.203192,0 -77.236318,4.265326,0 -77.336537,4.268744,0 -77.387196,4.347235,0 -77.312734,4.471381,0 -77.333160,4.471381,0 -77.318918,4.683661,0 -77.298980,4.655707,0 -77.291615,4.682074,0 -77.325754,4.752509,0 -77.258046,4.704088,0 -77.348622,4.854193,0 -77.372874,5.149156,0 -77.346181,5.244778,0 -77.380971,5.375067,0 -77.408559,5.386176,0 -77.380971,5.403022,0 -77.462148,5.501044,0 -77.559193,5.503079,0 -77.490834,5.594794,0 -77.404856,5.628363,0 -77.333160,5.615302,0 -77.245920,5.734198,0 -77.353017,6.026190,0 -77.366689,5.998928,0 -77.484364,6.188788,0 -77.483388,6.294338,0 -77.415110,6.239081,0 -77.380971,6.300523,0 -77.399281,6.387641,0 -77.360463,6.389879,0 -77.380971,6.444525,0 -77.345367,6.566107,0 -77.415110,6.636298,0 -77.411244,6.693793,0 -77.462636,6.720689,0 -77.537994,6.663642,0 -77.531809,6.712063,0 -77.593251,6.828111,0 -77.671051,6.879706,0 -77.696278,6.849189,0 -77.665028,7.015570,0 -77.696278,7.074530,0 -77.688832,7.047187,0 -77.895839,7.235098,0 -77.820181,7.476547,0 -77.755120,7.486107,0 -77.731245,7.530343,0 -77.764215,7.705732,0 -77.740237,7.718858,0 -77.679931,7.670954,0 -77.613320,7.537474,0 -77.579989,7.528379,0 -77.339745,7.707231,0 -77.379897,7.774410,0 -77.300419,7.902103,0 -77.163270,7.939258,0 -77.316904,8.250841,0 -77.374368,8.289314,0 -77.422324,8.456410,0 -77.488728,8.473644,0 -77.434003,8.628260,0 -77.351674,8.669338,0 -77.274729,8.495795,0 -77.144439,8.421088,0 -77.031565,8.259996,0 -76.962026,8.266547,0 -76.963124,8.203681,0 -76.917592,8.188951,0 -76.942535,8.128852,0 -76.832265,8.136542,0 -76.846547,8.095526,0 -76.825429,8.095526,0 -76.860219,8.082506,0 -76.839101,8.054633,0 -76.866444,8.061998,0 -76.832265,8.027289,0 -76.921702,8.027289,0 -76.933705,7.964586,0 -76.907053,7.929511,0 -76.757232,7.923570,0 -76.730621,8.051337,0 -76.759185,8.114691,0 -76.774810,8.416693,0 -76.838612,8.500434,0 -76.947174,8.545478,0 -76.893707,8.620347,0 -76.660227,8.687445,0 -76.647328,8.747301,0 -76.546864,8.784573,0 -76.426869,8.910549,0 -76.315541,8.947740,0 -76.192616,9.134914,0 -76.168121,9.246975,0 -76.116933,9.265815,0 -76.096099,9.333197,0 -75.953285,9.402296,0 -75.943798,9.440734,0 -75.811025,9.443549,0 -75.798207,9.418199,0 -75.852854,9.412055,0 -75.811879,9.391547,0 -75.739247,9.425727,0 -75.672608,9.409990,0 -75.620633,9.452853,0 -75.576367,9.621086,0 -75.618031,9.689276,0 -75.705137,9.700662,0 -75.639945,9.783263,0 -75.576191,10.041847,0 -75.589361,10.128261,0 -75.530670,10.240668,0 -75.703577,10.134428,0 -75.592152,10.302720,0 -75.583811,10.282375,0 -75.515696,10.318996,0 -75.523834,10.391506,0 -75.551137,10.419420,0 -75.578481,10.398342,0 -75.502756,10.487738,0 -75.522206,10.432929,0 -75.493276,10.434638,0 -75.489125,10.501370,0 -75.519602,10.576483,0 -75.279612,10.742743,0 -75.249501,10.706773,0 -75.222239,10.734687,0 -75.229644,10.768256,0 -75.270009,10.759101,0 -75.267405,10.795315,0 -75.049550,10.901190,0 -75.023590,10.974311,0 -74.923571,11.045672,0 -74.861510,11.048834,0 -74.844372,11.109670,0 -74.522951,10.995924,0 -74.297830,10.991499,0 -74.491567,10.979478,0 -74.517445,10.926663,0 -74.481760,10.850816,0 -74.525014,10.883450,0 -74.596995,10.867825,0 -74.598459,10.781928,0 -74.564280,10.830959,0 -74.543813,10.762030,0 -74.499664,10.764716,0 -74.509633,10.844550,0 -74.477122,10.827582,0 -74.456614,10.748033,0 -74.395090,10.749498,0 -74.214915,11.086982,0 -74.233632,11.241156,0 -74.153391,11.343655,0 -74.139068,11.323717,0 -74.112416,11.357896,0 -74.083852,11.330634,0 -74.004628,11.355292,0 -73.826039,11.276760,0 -73.705149,11.268256,0 -73.292388,11.294013,0 -72.741322,11.707953,0 -72.433461,11.796088,0 -72.263051,11.885972,0 -72.138661,12.104560,0 -72.145416,12.200832,0 -72.172760,12.221259,0 -72.138661,12.256049,0 -71.969635,12.255113,0 -72.015126,12.193996,0 -71.967275,12.153022,0 -71.937611,12.166449,0 -71.868031,12.208238,0 -71.871083,12.256049,0 -71.960520,12.282701,0 -71.829091,12.376207,0 -71.809071,12.372138,0 -71.843129,12.338080,0 -71.802846,12.323676,0 -71.732533,12.410224,0 -71.693593,12.365302,0 -71.630930,12.427395,0 -71.679107,12.416978,0 -71.658803,12.440375,0 -71.693593,12.427395,0 -71.686147,12.454657,0 -71.740793,12.419908,0 -71.675608,12.468329,0 -71.511301,12.443264,0 -71.261830,12.341864,0 -71.113881,12.094387,0 -71.138092,12.015815,0 -71.409668,11.812303,0 -71.990614,11.649058,0 -72.267083,11.154902,0 -72.499317,11.120795,0 -72.576470,10.957368,0 -72.682975,10.855618,0 -72.754392,10.674853,0 -72.914899,10.432904,0 -72.935621,10.175194,0 -72.987711,9.999417,0 -72.985540,9.812167,0 -73.107652,9.577995,0 -73.178448,9.523037,0 -73.391149,9.172775,0 -73.212245,9.173446,0 -73.009725,9.295377,0 -72.955310,9.103993,0 -72.826687,9.141691,0 -72.791030,9.113941,0 -72.675430,8.651514,0 -72.393535,8.355383,0 -72.395964,8.256603,0 -72.335761,8.103899,0 -72.350075,8.042585,0 -72.407074,8.043774,0 -72.491204,7.937501,0 -72.451774,7.832805,0 -72.478698,7.484454,0 -72.414619,7.413812,0 -72.206208,7.381876,0 -72.164040,7.328856,0 -72.164143,7.220801,0 -72.098256,7.086752,0 -71.993818,7.012855,0 -71.848194,6.983864,0 -71.774038,7.028926,0 -71.620404,7.052129,0 -71.467700,7.012441,0 -71.292517,7.025774,0 -71.275516,6.984381,0 -71.184048,6.962574,0 -71.136041,6.992132,0 -71.011268,6.990892,0 -70.895539,7.068510,0 -70.703302,7.099930,0 -70.578607,7.085822,0 -70.510704,7.009702,0 -70.319062,6.938286,0 -70.129203,6.972547,0 -69.443638,6.122237,0 -69.331396,6.156370,0 -69.246104,6.080664,0 -69.061129,6.217839,0 -68.635315,6.135880,0 -68.449021,6.194998,0 -68.304172,6.176988,0 -68.146508,6.223781,0 -67.977991,6.217839,0 -67.827199,6.313414,0 -67.573984,6.266234,0 -67.449961,6.197943,0 -67.491199,6.114486,0 -67.428567,6.038470,0 -67.422469,5.978241,0 -67.625144,5.784506,0 -67.649070,5.656090,0 -67.617031,5.541601,0 -67.652481,5.477961,0 -67.834589,5.339313,0 -67.826630,5.120386,0 -67.793092,5.063335,0 -67.875051,4.532644,0 -67.793092,4.428981,0 -67.786219,4.172976,0 -67.720642,4.074972,0 -67.631759,3.761865,0 -67.499829,3.717914,0 -67.403917,3.504464,0 -67.304647,3.425709,0 -67.309453,3.383929,0 -67.395804,3.266572,0 -67.838619,2.886130,0 -67.855931,2.789753,0 -67.751028,2.842102,0 -67.690411,2.806341,0 -67.626591,2.813421,0 -67.575586,2.691103,0 -67.500294,2.675342,0 -67.325421,2.474630,0 -67.189718,2.394377,0 -67.173750,2.336448,0 -67.217262,2.266064,0 -67.177833,2.154495,0 -67.114633,2.102999,0 -67.132616,1.990810,0 -67.066832,1.894123,0 -66.933610,1.501692,0 -66.932731,1.424643,0 -66.883536,1.349945,0 -66.900899,1.288966,0 -66.875061,1.222510,0 -67.086107,1.176002,0 -67.073601,1.541199,0 -67.117165,1.709793,0 -67.340614,2.090106,0 -67.424639,2.138114,0 -67.592950,2.054811,0 -67.820843,1.784001,0 -67.928846,1.741290,0 -68.031786,1.777515,0 -68.111109,1.942415,0 -68.177100,1.973188,0 -68.192189,2.014891,0 -68.280246,1.829398,0 -68.163302,1.721291,0 -69.352403,1.720206,0 -69.541952,1.772709,0 -69.856171,1.707675,0 -69.852192,1.059420,0 -69.762559,1.091097,0 -69.716024,1.058593,0 -69.478261,1.060660,0 -69.418161,1.028621,0 -69.354961,1.067068,0 -69.288815,1.038439,0 -69.204324,0.943664,0 -69.209983,0.907543,0 -69.152389,0.867803,0 -69.192258,0.728949,0 -69.137455,0.650142,0 -69.297057,0.618103,0 -69.302148,0.656550,0 -69.362557,0.640944,0 -69.478080,0.732825,0 -69.594119,0.689313,0 -69.619157,0.650659,0 -69.694682,0.668746,0 -69.805321,0.606941,0 -70.054246,0.588131,0 -70.068044,-0.160144,0 -69.933634,-0.314347,0 -69.619751,-0.524566,0 -69.584223,-0.644559,0 -69.628381,-0.733442,0 -69.532599,-0.934050,0 -69.442863,-1.008361,0 -69.448159,-1.092077,0 -69.399454,-1.182717,0 -69.964950,-4.236484,0 -70.030501,-4.131581,0 -70.188398,-4.028952,0 -70.216975,-3.924979,0 -70.311104,-3.829274,0 -70.377689,-3.818836,0 -70.490886,-3.878470,0 -70.734127,-3.782042,0 -70.050629,-2.715130,0 -70.105794,-2.625213,0 -70.150468,-2.669242,0 -70.183877,-2.619529,0 -70.236070,-2.625110,0 -70.273949,-2.546252,0 -70.364615,-2.557621,0 -70.357535,-2.486927,0 -70.445256,-2.498503,0 -70.578607,-2.405485,0 -70.598632,-2.446620,0 -70.647595,-2.450754,0 -70.706584,-2.328281,0 -70.787871,-2.307403,0 -70.904556,-2.211078,0 -71.021448,-2.196712,0 -71.029691,-2.263995,0 -71.119969,-2.252109,0 -71.209060,-2.339236,0 -71.315461,-2.334068,0 -71.420830,-2.376030,0 -71.411631,-2.326627,0 -71.456486,-2.255107,0 -71.498138,-2.315051,0 -71.538394,-2.222964,0 -71.678540,-2.169531,0 -71.731405,-2.189891,0 -71.746133,-2.132324,0 -71.836205,-2.179762,0 -71.948653,-2.324146,0 -72.061514,-2.320012,0 -72.176391,-2.410343,0 -72.250960,-2.396287,0 -72.283826,-2.433184,0 -72.378032,-2.450754,0 -72.644321,-2.334068,0 -72.712430,-2.422125,0 -72.733721,-2.367555,0 -72.761678,-2.402281,0 -72.804673,-2.377787,0 -72.935414,-2.425329,0 -72.987556,-2.337686,0 -73.056440,-2.299858,0 -73.083829,-2.345127,0 -73.158915,-2.293037,0 -73.197775,-2.213559,0 -73.111062,-2.073412,0 -73.168733,-1.959311,0 -73.193021,-1.788675,0 -73.257255,-1.742373,0 -73.267694,-1.772242,0 -73.350531,-1.790639,0 -73.440086,-1.758703,0 -73.530985,-1.673747,0 -73.484528,-1.572461,0 -73.497163,-1.477997,0 -73.574212,-1.416915,0 -73.562921,-1.372163,0 -73.636560,-1.255168,0 -73.754718,-1.183338,0 -73.802545,-1.223645,0 -73.857167,-1.210519,0 -73.919902,-1.113781,0 -73.981293,-1.107477,0 -73.982792,-1.066239,0 -74.037207,-1.079675,0 -74.076895,-0.990894,0 -74.119631,-1.020970,0 -74.266754,-0.972291,0 -74.344424,-0.858603,0 -74.289130,-0.836279,0 -74.302798,-0.785429,0 -74.385145,-0.721970,0 -74.364888,-0.676185,0 -74.417959,-0.542653,0 -74.562395,-0.439404,0 -74.642313,-0.339771,0 -74.686573,-0.353414,0 -74.790701,-0.312590,0 -74.755329,-0.278276,0 -74.824653,-0.170479,0 -74.872712,-0.221949,0 -74.933458,-0.209443,0 -75.141688,-0.043459,0 -75.222096,-0.032400,0 -75.283488,-0.107021,0 -75.464924,-0.039738,0 -75.626774,0.078911,0 -75.789710,0.084389,0 -75.951974,0.203968,0 -76.053467,0.363545,0 -76.119561,0.351763,0 -76.136304,0.396721,0 -76.223741,0.406746,0 -76.300480,0.461627,0 -76.416390,0.401889,0 -76.408019,0.254508,0 -76.565425,0.216060,0 -76.724537,0.277555,0 -76.734355,0.233114,0 -76.882460,0.240142,0 -77.082861,0.348869,0 -77.206936,0.334193,0 -77.397467,0.387626,0 -77.434726,0.433825,0 -77.468057,0.650866,0 -77.543350,0.656447,0 -77.645566,0.716288,0 -77.703185,0.843102,0 -77.847983,0.809254,0 -77.903225,0.832095,0 -77.918262,0.874418,0 -78.120007,0.921237,0 -78.349218,1.055802,0 -78.485205,1.192642,0 -78.570057,1.195845,0 -78.602148,1.263645,0 -78.664677,1.266642,0 -78.828684,1.434312,0 -78.860707,1.558498,0 -78.899599,1.545328,0 -79.021512,1.638310,0</coordinates>
          </LinearRing>
        </outerBoundaryIs>
      </Polygon>
      <Polygon>
        <outerBoundaryIs>
          <LinearRing>
            <coordinates>-77.549550,4.204779,0 -77.499664,4.260972,0 -77.435618,4.258490,0 -77.462880,4.285793,0 -77.428131,4.285793,0 -77.452016,4.291693,0 -77.415110,4.320502,0 -77.428131,4.341010,0 -77.353017,4.265326,0 -77.271718,4.258490,0 -77.302968,4.217597,0 -77.333160,4.244818,0 -77.549550,4.204779,0</coordinates>
          </LinearRing>
        </outerBoundaryIs>
      </Polygon>
      <Polygon>
        <outerBoundaryIs>
          <LinearRing>
            <coordinates>-75.575830,10.377872,0 -75.535320,10.350646,0 -75.582290,10.319033,0 -75.575830,10.377872,0</coordinates>
          </LinearRing>
        </outerBoundaryIs>
      </Polygon>
      <Polygon>
        <outerBoundaryIs>
          <LinearRing>
            <coordinates>-90.928700,-0.970310,0 -90.993886,-0.963474,0 -91.159779,-1.030206,0 -91.435862,-0.997491,0 -91.445790,-0.941502,0 -91.502309,-0.896254,0 -91.465891,-0.807875,0 -91.310455,-0.683282,0 -91.157786,-0.678806,0 -91.086781,-0.582452,0 -91.208892,-0.484633,0 -91.238678,-0.376153,0 -91.374989,-0.281915,0 -91.423329,-0.028578,0 -91.476430,-0.011082,0 -91.563100,-0.051772,0 -91.603383,-0.014215,0 -91.504465,0.066148,0 -91.497304,0.106106,0 -91.323638,0.139309,0 -91.283518,0.033189,0 -91.209299,-0.010675,0 -91.173573,-0.228448,0 -91.124135,-0.299574,0 -90.956044,-0.422133,0 -90.949208,-0.521417,0 -90.990142,-0.579197,0 -90.967844,-0.564548,0 -90.956044,-0.607110,0 -90.892974,-0.625746,0 -90.791575,-0.754002,0 -90.829091,-0.774672,0 -90.858632,-0.915460,0 -90.928700,-0.970310,0</coordinates>
          </LinearRing>
        </outerBoundaryIs>
      </Polygon>
      <Polygon>
        <outerBoundaryIs>
          <LinearRing>
            <coordinates>-91.455678,-0.257582,0 -91.399526,-0.307875,0 -91.401112,-0.452895,0 -91.507558,-0.490411,0 -91.606516,-0.456313,0 -91.668568,-0.284926,0 -91.455678,-0.257582,0</coordinates>
          </LinearRing>
        </outerBoundaryIs>
      </Polygon>
      <Polygon>
        <outerBoundaryIs>
          <LinearRing>
            <coordinates>-90.826812,-0.164158,0 -90.777252,-0.147719,0 -90.632476,-0.201267,0 -90.565012,-0.284926,0 -90.604888,-0.369806,0 -90.818227,-0.339614,0 -90.874135,-0.271254,0 -90.826812,-0.164158,0</coordinates>
          </LinearRing>
        </outerBoundaryIs>
      </Polygon>
      <Polygon>
        <outerBoundaryIs>
          <LinearRing>
            <coordinates>-90.475657,0.263088,0 -90.544545,0.310858,0 -90.483062,0.365465,0 -90.407948,0.310858,0 -90.475657,0.263088,0</coordinates>
          </LinearRing>
        </outerBoundaryIs>
      </Polygon>
      <Polygon>
        <outerBoundaryIs>
          <LinearRing>
            <coordinates>-90.797760,0.653510,0 -90.756988,0.630601,0 -90.760569,0.553697,0 -90.805247,0.571601,0 -90.797760,0.653510,0</coordinates>
          </LinearRing>
        </outerBoundaryIs>
      </Polygon>
      <Polygon>
        <outerBoundaryIs>
          <LinearRing>
            <coordinates>-91.810943,1.377183,0 -91.817738,1.368069,0 -91.825307,1.377021,0 -91.810943,1.377183,0</coordinates>
          </LinearRing>
        </outerBoundaryIs>
      </Polygon>
      <Polygon>
        <outerBoundaryIs>
          <LinearRing>
            <coordinates>-91.817535,1.394761,0 -91.820465,1.391343,0 -91.822011,1.394477,0 -91.817535,1.394761,0</coordinates>
          </LinearRing>
        </outerBoundaryIs>
      </Polygon>
      <Polygon>
        <outerBoundaryIs>
          <LinearRing>
            <coordinates>-92.006093,1.664374,0 -91.999827,1.651190,0 -92.006663,1.649604,0 -92.006093,1.664374,0</coordinates>
          </LinearRing>
        </outerBoundaryIs>
      </Polygon>
      <Polygon>
        <outerBoundaryIs>
          <LinearRing>
            <coordinates>-80.265940,-3.018487,0 -80.262204,-2.840848,0 -80.210683,-2.724867,0 -80.059885,-2.662774,0 -79.907216,-2.732354,0 -79.995188,-2.798028,0 -80.131033,-3.020921,0 -80.265940,-3.018487,0</coordinates>
          </LinearRing>
        </outerBoundaryIs>
      </Polygon>
      <Polygon>
        <outerBoundaryIs>
          <LinearRing>
            <coordinates>-79.877239,-2.649678,0 -79.819640,-2.485911,0 -79.772571,-2.541987,0 -79.828702,-2.592051,0 -79.833237,-2.636017,0 -79.877239,-2.649678,0</coordinates>
          </LinearRing>
        </outerBoundaryIs>
      </Polygon>
      <Polygon>
        <outerBoundaryIs>
          <LinearRing>
            <coordinates>-78.485205,1.192642,0 -78.349218,1.055802,0 -78.120007,0.921237,0 -77.918262,0.874418,0 -77.903225,0.832095,0 -77.847983,0.809254,0 -77.703185,0.843102,0 -77.645566,0.716288,0 -77.543350,0.656447,0 -77.468057,0.650866,0 -77.434726,0.433825,0 -77.397467,0.387626,0 -77.206936,0.334193,0 -77.082861,0.348869,0 -76.882460,0.240142,0 -76.734355,0.233114,0 -76.724537,0.277555,0 -76.565425,0.216060,0 -76.408019,0.254508,0 -76.416390,0.401889,0 -76.300480,0.461627,0 -76.223741,0.406746,0 -76.136304,0.396721,0 -76.119561,0.351763,0 -76.053467,0.363545,0 -75.951974,0.203968,0 -75.817874,0.100098,0 -75.626774,0.078911,0 -75.464924,-0.039738,0 -75.283488,-0.107021,0 -75.429500,-0.163658,0 -75.539260,-0.120043,0 -75.623002,-0.106607,0 -75.643208,-0.128828,0 -75.619566,-0.180918,0 -75.484768,-0.247684,0 -75.405625,-0.442401,0 -75.260699,-0.543480,0 -75.297027,-0.746982,0 -75.227264,-0.969810,0 -75.348729,-0.974978,0 -75.406400,-0.915137,0 -75.573031,-1.537321,0 -76.091242,-2.128913,0 -76.684591,-2.573640,0 -77.867826,-2.990256,0 -78.196411,-3.363670,0 -78.156646,-3.429299,0 -78.163726,-3.477254,0 -78.226306,-3.507020,0 -78.257182,-3.409558,0 -78.350794,-3.389611,0 -78.400740,-3.679826,0 -78.425854,-3.689438,0 -78.419679,-3.791034,0 -78.480683,-3.849531,0 -78.497633,-3.949577,0 -78.562073,-3.979756,0 -78.576620,-4.100059,0 -78.682428,-4.326918,0 -78.673152,-4.401539,0 -78.637211,-4.435129,0 -78.672661,-4.550987,0 -78.898642,-4.694234,0 -78.928614,-4.747461,0 -78.900218,-4.843683,0 -78.980342,-4.873965,0 -79.009281,-4.960110,0 -79.063929,-5.011373,0 -79.104159,-4.980057,0 -79.303217,-4.961246,0 -79.450572,-4.810196,0 -79.527854,-4.618063,0 -79.507209,-4.531557,0 -79.657975,-4.438746,0 -79.832874,-4.478950,0 -79.904084,-4.398645,0 -79.982012,-4.388620,0 -80.140246,-4.283097,0 -80.205048,-4.298186,0 -80.255407,-4.386760,0 -80.382867,-4.476263,0 -80.492291,-4.413011,0 -80.345272,-4.198451,0 -80.469605,-4.213230,0 -80.514073,-4.083419,0 -80.491981,-4.014896,0 -80.427463,-3.981306,0 -80.325506,-4.015413,0 -80.165257,-3.890046,0 -80.226313,-3.749279,0 -80.216391,-3.631560,0 -80.249981,-3.577713,0 -80.265664,-3.426405,0 -80.341054,-3.368585,0 -80.306874,-3.320733,0 -80.314320,-3.376072,0 -80.286448,-3.320733,0 -80.259104,-3.348077,0 -80.135569,-3.327569,0 -80.059885,-3.204034,0 -80.037506,-3.208266,0 -80.039947,-3.279880,0 -79.953196,-3.197442,0 -79.834584,-2.806817,0 -79.726430,-2.593845,0 -79.745025,-2.490167,0 -79.789540,-2.481052,0 -79.839467,-2.377048,0 -79.839833,-2.209568,0 -79.868642,-2.160903,0 -79.861887,-2.108005,0 -79.765614,-2.004978,0 -79.891957,-2.115899,0 -79.901845,-2.184828,0 -79.863026,-2.297133,0 -79.896108,-2.543390,0 -79.998402,-2.608168,0 -80.063588,-2.577244,0 -80.001780,-2.480157,0 -79.943756,-2.498305,0 -79.929677,-2.484145,0 -79.977935,-2.456720,0 -80.034332,-2.473891,0 -80.008941,-2.358819,0 -79.950022,-2.307224,0 -80.012685,-2.326430,0 -80.175120,-2.586684,0 -80.231801,-2.628676,0 -80.279612,-2.612563,0 -80.255483,-2.730239,0 -80.467885,-2.617934,0 -80.656646,-2.415785,0 -80.913645,-2.318780,0 -81.013010,-2.166925,0 -80.931286,-2.217333,0 -80.870573,-2.203301,0 -80.744979,-2.102915,0 -80.737447,-2.043497,0 -80.760572,-1.797548,0 -80.855580,-1.588311,0 -80.816490,-1.552255,0 -80.820546,-1.499933,0 -80.770862,-1.477830,0 -80.744256,-1.343773,0 -80.882151,-1.145766,0 -80.909611,-1.044915,0 -80.816365,-0.946344,0 -80.616320,-0.941408,0 -80.569883,-0.912243,0 -80.448969,-0.606060,0 -80.421992,-0.599600,0 -80.378798,-0.657885,0 -80.299007,-0.662229,0 -80.391737,-0.625487,0 -80.496464,-0.381374,0 -80.432725,-0.339187,0 -80.323695,-0.173173,0 -80.305350,-0.189367,0 -80.231848,-0.139699,0 -80.051349,0.089992,0 -80.048492,0.318305,0 -80.036529,0.357082,0 -80.005238,0.324530,0 -79.990956,0.365465,0 -80.043568,0.458930,0 -80.016957,0.558905,0 -80.036366,0.625230,0 -80.108266,0.695054,0 -80.075836,0.816148,0 -79.862172,0.876410,0 -79.655751,1.003607,0 -79.670074,0.921617,0 -79.614858,0.845282,0 -79.648305,0.907416,0 -79.632680,0.986029,0 -79.571767,0.983710,0 -79.435048,1.078030,0 -79.165761,1.099799,0 -79.057240,1.217515,0 -79.013051,1.192776,0 -78.991689,1.119696,0 -78.928944,1.243150,0 -78.901682,1.236314,0 -78.871693,1.288967,0 -78.812856,1.277289,0 -78.881947,1.319281,0 -78.828684,1.434312,0 -78.664677,1.266642,0 -78.602148,1.263645,0 -78.570057,1.195845,0 -78.485205,1.192642,0</coordinates>
          </LinearRing>
        </outerBoundaryIs>
      </Polygon>
      <Polygon>
        <outerBoundaryIs>
          <LinearRing>
            <coordinates>-89.661285,-1.340102,0 -89.613271,-1.391697,0 -89.756907,-1.360610,0 -89.736399,-1.340102,0 -89.661285,-1.340102,0</coordinates>
          </LinearRing>
        </outerBoundaryIs>
      </Polygon>
      <Polygon>
        <outerBoundaryIs>
          <LinearRing>
            <coordinates>-90.524037,-1.305922,0 -90.471913,-1.216729,0 -90.369008,-1.264907,0 -90.399322,-1.325860,0 -90.475209,-1.342055,0 -90.524037,-1.305922,0</coordinates>
          </LinearRing>
        </outerBoundaryIs>
      </Polygon>
      <Polygon>
        <outerBoundaryIs>
          <LinearRing>
            <coordinates>-89.544586,-0.956638,0 -89.629954,-0.925877,0 -89.413238,-0.713474,0 -89.257192,-0.681573,0 -89.254791,-0.719171,0 -89.420033,-0.919366,0 -89.544586,-0.956638,0</coordinates>
          </LinearRing>
        </outerBoundaryIs>
      </Polygon>
      <Polygon>
        <outerBoundaryIs>
          <LinearRing>
            <coordinates>-90.544545,-0.681573,0 -90.527577,-0.569920,0 -90.460561,-0.513849,0 -90.263987,-0.483005,0 -90.240590,-0.528009,0 -90.191965,-0.538263,0 -90.198801,-0.681573,0 -90.337066,-0.776951,0 -90.428863,-0.762465,0 -90.544545,-0.681573,0</coordinates>
          </LinearRing>
        </outerBoundaryIs>
      </Polygon>
      <Polygon>
        <outerBoundaryIs>
          <LinearRing>
            <coordinates>-78.901682,1.374172,0 -78.899281,1.271430,0 -78.956899,1.236314,0 -78.995432,1.286811,0 -78.901682,1.374172,0</coordinates>
          </LinearRing>
        </outerBoundaryIs>
      </Polygon>
      <Polygon>
        <outerBoundaryIs>
          <LinearRing>
            <coordinates>-60.029587,8.042818,0 -60.129219,8.028813,0 -60.231125,7.964114,0 -60.374760,7.823606,0 -60.525758,7.813374,0 -60.586995,7.727126,0 -60.601257,7.633850,0 -60.730578,7.525433,0 -60.601774,7.330148,0 -60.643555,7.250670,0 -60.628413,7.191138,0 -60.548005,7.125509,0 -60.475322,7.188503,0 -60.372021,7.172277,0 -60.299932,7.121013,0 -60.303575,7.054144,0 -60.359696,7.004897,0 -60.377344,6.938544,0 -60.639550,6.837723,0 -60.700347,6.767082,0 -60.907570,6.815244,0 -60.899482,6.768554,0 -60.933821,6.731735,0 -61.129830,6.715844,0 -61.211970,6.561435,0 -61.139752,6.441262,0 -61.160913,6.342353,0 -61.114792,6.264012,0 -61.121562,6.186652,0 -61.269382,6.107225,0 -61.338086,5.986793,0 -61.396713,5.945581,0 -60.739854,5.202138,0 -60.664303,5.170254,0 -60.598674,4.996880,0 -60.612626,4.900581,0 -60.718150,4.784283,0 -60.895813,4.708525,0 -60.977281,4.534970,0 -61.168587,4.490244,0 -61.315581,4.520785,0 -61.293050,4.448050,0 -61.501874,4.401851,0 -61.526731,4.285502,0 -61.567271,4.248527,0 -61.737803,4.252067,0 -61.866891,4.157034,0 -62.035046,4.159876,0 -62.153592,4.090294,0 -62.428097,4.183182,0 -62.536979,4.125408,0 -62.560957,4.037791,0 -62.744357,4.034018,0 -62.788798,3.899401,0 -62.740429,3.741943,0 -62.749576,3.660372,0 -62.786318,3.604406,0 -62.889412,3.560817,0 -62.997054,3.599135,0 -63.251199,3.886560,0 -63.351710,3.958726,0 -63.425400,3.968364,0 -63.468860,3.867233,0 -63.510666,3.854546,0 -63.671587,3.946246,0 -63.875140,3.949812,0 -64.037663,3.882503,0 -64.146700,4.110551,0 -64.364981,4.151867,0 -64.589670,4.118871,0 -64.699870,4.264159,0 -64.791622,4.284417,0 -64.813042,4.210571,0 -64.727104,4.140782,0 -64.642897,3.972963,0 -64.202976,3.594717,0 -64.197860,3.515084,0 -64.245609,3.418940,0 -64.222923,3.123996,0 -63.997562,2.714926,0 -64.047972,2.471323,0 -63.831319,2.428638,0 -63.384834,2.420577,0 -63.361115,2.400010,0 -63.372639,2.266839,0 -63.411758,2.149379,0 -63.617533,2.101165,0 -63.783208,1.974997,0 -63.958339,1.970708,0 -64.036629,1.927274,0 -64.092957,1.622615,0 -64.301523,1.446657,0 -64.352941,1.365835,0 -64.394773,1.392190,0 -64.364594,1.497093,0 -64.409010,1.507506,0 -64.551197,1.419527,0 -64.604217,1.331289,0 -64.730876,1.247574,0 -64.839293,1.270828,0 -65.022486,1.139983,0 -65.136769,1.126909,0 -65.203044,0.923821,0 -65.327196,0.910281,0 -65.451220,0.690140,0 -65.542661,0.649315,0 -65.587336,0.739129,0 -65.518503,0.886510,0 -65.596043,0.983610,0 -65.745440,0.974154,0 -65.891761,0.895605,0 -65.974082,0.806980,0 -66.134382,0.731119,0 -66.208745,0.763107,0 -66.285071,0.745847,0 -66.407079,0.802071,0 -66.875061,1.222510,0 -66.900899,1.288966,0 -66.883536,1.349945,0 -66.932731,1.424643,0 -66.980894,1.665946,0 -67.132616,1.990810,0 -67.114633,2.102999,0 -67.177833,2.154495,0 -67.217262,2.266064,0 -67.173750,2.336448,0 -67.189718,2.394377,0 -67.325421,2.474630,0 -67.500294,2.675342,0 -67.575586,2.691103,0 -67.626591,2.813421,0 -67.690411,2.806341,0 -67.751028,2.842102,0 -67.855931,2.789753,0 -67.838619,2.886130,0 -67.395804,3.266572,0 -67.309453,3.383929,0 -67.304647,3.425709,0 -67.403917,3.504464,0 -67.499829,3.717914,0 -67.631759,3.761865,0 -67.720642,4.074972,0 -67.786219,4.172976,0 -67.793092,4.428981,0 -67.875051,4.532644,0 -67.793092,5.063335,0 -67.826630,5.120386,0 -67.834589,5.339313,0 -67.652481,5.477961,0 -67.617031,5.541601,0 -67.649070,5.656090,0 -67.625144,5.784506,0 -67.422469,5.978241,0 -67.428567,6.038470,0 -67.491199,6.114486,0 -67.449961,6.197943,0 -67.573984,6.266234,0 -67.827199,6.313414,0 -67.977991,6.217839,0 -68.146508,6.223781,0 -68.304172,6.176988,0 -68.449021,6.194998,0 -68.635315,6.135880,0 -69.061129,6.217839,0 -69.246104,6.080664,0 -69.331396,6.156370,0 -69.443638,6.122237,0 -70.129203,6.972547,0 -70.319062,6.938286,0 -70.510704,7.009702,0 -70.578607,7.085822,0 -70.703302,7.099930,0 -70.895539,7.068510,0 -71.011268,6.990892,0 -71.136041,6.992132,0 -71.184048,6.962574,0 -71.275516,6.984381,0 -71.292517,7.025774,0 -71.467700,7.012441,0 -71.620404,7.052129,0 -71.774038,7.028926,0 -71.848194,6.983864,0 -71.993818,7.012855,0 -72.098256,7.086752,0 -72.164143,7.220801,0 -72.164040,7.328856,0 -72.206208,7.381876,0 -72.414619,7.413812,0 -72.478698,7.484454,0 -72.451774,7.832805,0 -72.491204,7.937501,0 -72.407074,8.043774,0 -72.350075,8.042585,0 -72.335761,8.103899,0 -72.395964,8.256603,0 -72.393535,8.355383,0 -72.675430,8.651514,0 -72.791030,9.113941,0 -72.826687,9.141691,0 -72.955310,9.103993,0 -73.009725,9.295377,0 -73.212245,9.173446,0 -73.377816,9.164687,0 -73.390839,9.194504,0 -73.324383,9.255922,0 -73.178448,9.523037,0 -73.107652,9.577995,0 -72.985540,9.812167,0 -72.987711,9.999417,0 -72.935621,10.175194,0 -72.914899,10.432904,0 -72.754392,10.674853,0 -72.682975,10.855618,0 -72.576470,10.957368,0 -72.499317,11.120795,0 -72.267083,11.154902,0 -71.971080,11.661925,0 -71.449458,11.795457,0 -71.357629,11.850802,0 -71.327507,11.849998,0 -71.336049,11.789252,0 -71.378163,11.758450,0 -71.960520,11.591254,0 -71.939320,11.380764,0 -71.856923,11.216986,0 -71.769765,11.106350,0 -71.626454,11.014960,0 -71.679311,10.987982,0 -71.697133,11.025580,0 -71.768666,11.015286,0 -71.715688,10.957750,0 -71.674062,10.802395,0 -71.576283,10.721096,0 -71.629547,10.454006,0 -71.754465,10.370998,0 -71.897694,10.139228,0 -71.969065,10.105699,0 -72.043691,9.929592,0 -72.124379,9.826077,0 -71.998931,9.654731,0 -71.946848,9.541164,0 -71.987864,9.610053,0 -72.008290,9.575873,0 -71.960520,9.517890,0 -71.983713,9.497463,0 -72.015126,9.521308,0 -71.995229,9.459215,0 -71.918935,9.500190,0 -71.844390,9.439358,0 -71.900746,9.434556,0 -71.905263,9.384711,0 -71.891591,9.425727,0 -71.833567,9.425727,0 -71.760854,9.364732,0 -71.734527,9.384711,0 -71.739980,9.289374,0 -71.816518,9.233303,0 -71.744700,9.237616,0 -71.734527,9.165025,0 -71.761871,9.130845,0 -71.708567,9.076728,0 -71.557688,9.041571,0 -71.241038,9.155748,0 -71.151723,9.288520,0 -71.062408,9.326646,0 -71.090240,9.555406,0 -71.035634,9.744086,0 -71.086171,9.811998,0 -71.072418,9.857856,0 -71.162465,9.970933,0 -71.206939,9.980618,0 -71.267812,10.151923,0 -71.363881,10.219957,0 -71.469350,10.401801,0 -71.466298,10.502143,0 -71.541575,10.564887,0 -71.500111,10.627997,0 -71.535308,10.686347,0 -71.527903,10.740953,0 -71.583119,10.809231,0 -71.445912,10.796210,0 -71.453359,10.871894,0 -71.412465,10.919094,0 -71.501129,10.960028,0 -71.293935,10.986640,0 -70.869700,11.196275,0 -70.685618,11.248033,0 -70.513905,11.253160,0 -70.486440,11.295111,0 -70.231067,11.351587,0 -70.159006,11.401435,0 -70.154466,11.469974,0 -70.099374,11.429547,0 -70.079010,11.457343,0 -70.036529,11.440904,0 -70.053909,11.506482,0 -70.161598,11.568545,0 -70.024374,11.514073,0 -69.925899,11.513061,0 -69.844605,11.436232,0 -69.794911,11.436713,0 -69.743642,11.503363,0 -69.816029,11.693671,0 -70.211781,11.609076,0 -70.233144,11.748358,0 -70.205800,11.734687,0 -70.207997,11.774319,0 -70.240590,11.761949,0 -70.301991,11.858140,0 -70.205800,12.112006,0 -70.144276,12.117987,0 -70.017730,12.198920,0 -69.925364,12.159613,0 -69.835317,12.015204,0 -69.808583,11.803616,0 -69.747141,11.632270,0 -69.623606,11.467760,0 -69.500071,11.508734,0 -69.376698,11.494045,0 -69.270416,11.536038,0 -69.061879,11.453518,0 -68.863189,11.452867,0 -68.754384,11.374091,0 -68.655670,11.347886,0 -68.483510,11.206936,0 -68.417592,11.179145,0 -68.403310,11.200263,0 -68.278432,10.925482,0 -68.376617,10.919094,0 -68.238840,10.884955,0 -68.331939,10.829576,0 -68.287099,10.657904,0 -68.209584,10.537258,0 -68.129547,10.487738,0 -67.880605,10.479967,0 -67.865387,10.452216,0 -67.777577,10.495998,0 -67.170033,10.555976,0 -67.012359,10.611233,0 -66.541575,10.632717,0 -66.333974,10.611233,0 -66.275868,10.652167,0 -66.046539,10.576483,0 -66.121693,10.542955,0 -66.122222,10.507025,0 -65.882069,10.309556,0 -65.929921,10.323188,0 -65.923004,10.282213,0 -65.717641,10.220160,0 -65.868479,10.309556,0 -65.580434,10.185452,0 -65.169545,10.097317,0 -65.080190,10.062567,0 -65.175689,10.083645,0 -65.148915,10.058417,0 -65.083974,10.047512,0 -64.963490,10.097317,0 -64.776601,10.090399,0 -64.728627,10.136054,0 -64.717030,10.227607,0 -64.667633,10.187323,0 -64.631418,10.248114,0 -64.468373,10.248603,0 -64.376698,10.300767,0 -64.463368,10.332831,0 -64.380605,10.343695,0 -64.402415,10.370998,0 -64.381256,10.386217,0 -64.357411,10.338690,0 -64.339182,10.390692,0 -64.210561,10.439276,0 -64.188547,10.477607,0 -63.863637,10.446112,0 -63.655019,10.494534,0 -63.966664,10.581366,0 -64.045481,10.570258,0 -64.031850,10.590074,0 -64.169057,10.570258,0 -64.233876,10.515041,0 -64.297678,10.619859,0 -64.270741,10.672675,0 -64.144765,10.617418,0 -64.048899,10.652167,0 -63.915110,10.631049,0 -63.846832,10.652167,0 -63.812123,10.713609,0 -63.756947,10.665595,0 -63.553334,10.629136,0 -63.404897,10.665839,0 -63.387563,10.699368,0 -63.251291,10.680569,0 -63.161610,10.734687,0 -63.137441,10.706773,0 -62.928212,10.699368,0 -62.705678,10.762030,0 -62.154205,10.686347,0 -61.845774,10.740953,0 -61.886708,10.680121,0 -61.962473,10.652167,0 -62.252675,10.632392,0 -62.334950,10.530219,0 -62.662343,10.567043,0 -62.923329,10.530829,0 -63.010813,10.453559,0 -62.857004,10.531562,0 -62.831125,10.406806,0 -62.995188,10.407864,0 -63.003977,10.384670,0 -62.975982,10.398342,0 -62.956166,10.357367,0 -63.003977,10.275377,0 -62.931630,10.285631,0 -62.942494,10.405178,0 -62.879791,10.370998,0 -62.764475,10.395331,0 -62.674957,10.293362,0 -62.674957,10.213324,0 -62.626576,10.130805,0 -62.656606,10.082180,0 -62.777455,10.086493,0 -62.822743,10.042060,0 -62.851389,10.080390,0 -62.894114,10.069322,0 -62.901519,10.103461,0 -63.017649,10.103461,0 -62.982167,10.069078,0 -62.952992,10.088080,0 -62.936025,10.008246,0 -62.914622,10.083645,0 -62.895579,10.044013,0 -62.797922,10.028998,0 -62.801096,9.995998,0 -62.784983,10.069770,0 -62.716705,10.048407,0 -62.618520,10.091620,0 -62.619537,10.224433,0 -62.579945,10.224433,0 -62.494944,10.151801,0 -62.426178,9.967515,0 -62.441640,9.932807,0 -62.377594,9.884670,0 -62.318715,9.706244,0 -62.242991,9.842841,0 -62.257232,9.974351,0 -62.221995,9.938381,0 -62.178700,9.846137,0 -62.175893,9.704983,0 -62.215688,9.637926,0 -62.181874,9.648871,0 -62.154286,9.726142,0 -62.195180,9.932807,0 -62.027333,9.874416,0 -62.135610,9.940619,0 -62.221425,9.951809,0 -62.196476,10.019678,0 -62.025383,9.957357,0 -61.831451,9.791938,0 -61.810374,9.748196,0 -61.845774,9.651028,0 -61.780100,9.759223,0 -61.743316,9.699408,0 -61.743316,9.596381,0 -61.731028,9.694037,0 -61.828172,9.827158,0 -61.592519,9.781968,0 -61.578114,9.808824,0 -61.670966,9.896499,0 -61.636735,9.898771,0 -61.422265,9.736261,0 -61.503098,9.839567,0 -61.439168,9.818411,0 -61.206044,9.577379,0 -61.208323,9.603827,0 -61.053212,9.581285,0 -60.960601,9.538723,0 -60.961293,9.487454,0 -60.862294,9.456122,0 -60.797434,9.384711,0 -60.785390,9.313544,0 -61.085439,9.102444,0 -61.112050,9.041490,0 -60.959137,9.182522,0 -61.006581,9.048774,0 -61.099680,8.960354,0 -61.209462,8.609036,0 -61.277211,8.589016,0 -61.659047,8.616523,0 -61.598744,8.555487,0 -61.499664,8.534369,0 -61.434234,8.479153,0 -61.359120,8.486558,0 -61.284047,8.397203,0 -61.181020,8.493394,0 -61.026601,8.500922,0 -61.077992,8.466457,0 -61.071889,8.403306,0 -61.066558,8.456285,0 -61.020375,8.468817,0 -60.975575,8.575995,0 -60.692454,8.604682,0 -60.626088,8.555487,0 -60.478912,8.532375,0 -60.371897,8.635403,0 -60.197825,8.623847,0 -60.020985,8.558010,0 -59.815595,8.287764,0 -59.829289,8.245105,0 -59.957059,8.200147,0 -60.029587,8.042818,0</coordinates>
          </LinearRing>
        </outerBoundaryIs>
      </Polygon>
      <Polygon>
        <outerBoundaryIs>
          <LinearRing>
            <coordinates>-64.159535,10.824897,0 -64.155873,10.811957,0 -64.201812,10.797065,0 -64.203440,10.827297,0 -64.159535,10.824897,0</coordinates>
          </LinearRing>
        </outerBoundaryIs>
      </Polygon>
      <Polygon>
        <outerBoundaryIs>
          <LinearRing>
            <coordinates>-65.329905,10.977607,0 -65.208241,10.949897,0 -65.204945,10.904364,0 -65.316640,10.891099,0 -65.411773,10.924750,0 -65.329905,10.977607,0</coordinates>
          </LinearRing>
        </outerBoundaryIs>
      </Polygon>
      <Polygon>
        <outerBoundaryIs>
          <LinearRing>
            <coordinates>-64.056874,10.887112,0 -64.175852,10.967475,0 -64.224355,10.939358,0 -64.408559,10.967475,0 -64.370595,11.062486,0 -64.220082,11.091539,0 -64.181630,11.034084,0 -64.049062,10.990709,0 -63.976552,11.118313,0 -63.880971,11.179145,0 -63.787668,10.973782,0 -63.842926,10.967760,0 -63.898061,10.884955,0 -64.059722,10.857611,0 -64.056874,10.887112,0</coordinates>
          </LinearRing>
        </outerBoundaryIs>
      </Polygon>
      <Polygon>
        <outerBoundaryIs>
          <LinearRing>
            <coordinates>-66.728017,11.782050,0 -66.809560,11.752956,0 -66.854604,11.751370,0 -66.728017,11.782050,0</coordinates>
          </LinearRing>
        </outerBoundaryIs>
      </Polygon>
      <Polygon>
        <outerBoundaryIs>
          <LinearRing>
            <coordinates>-66.615102,11.824042,0 -66.587799,11.783108,0 -66.641835,11.761461,0 -66.704498,11.783108,0 -66.650868,11.780178,0 -66.615102,11.824042,0</coordinates>
          </LinearRing>
        </outerBoundaryIs>
      </Polygon>
      <Polygon>
        <outerBoundaryIs>
          <LinearRing>
            <coordinates>-66.108510,11.825832,0 -66.101186,11.799791,0 -66.143137,11.781806,0 -66.194325,11.817694,0 -66.108510,11.825832,0</coordinates>
          </LinearRing>
        </outerBoundaryIs>
      </Polygon>
      <Polygon>
        <outerBoundaryIs>
          <LinearRing>
            <coordinates>-64.607167,11.899115,0 -64.556793,11.857327,0 -64.562856,11.816596,0 -64.648793,11.830268,0 -64.607167,11.899115,0</coordinates>
          </LinearRing>
        </outerBoundaryIs>
      </Polygon>
      <Polygon>
        <outerBoundaryIs>
          <LinearRing>
            <coordinates>-66.753814,11.862372,0 -66.817860,11.871080,0 -66.711781,11.867906,0 -66.753814,11.862372,0</coordinates>
          </LinearRing>
        </outerBoundaryIs>
      </Polygon>
      <Polygon>
        <outerBoundaryIs>
          <LinearRing>
            <coordinates>-67.637603,11.980048,0 -67.665883,11.982001,0 -67.648997,11.983954,0 -67.637603,11.980048,0</coordinates>
          </LinearRing>
        </outerBoundaryIs>
      </Polygon>
      <Polygon>
        <outerBoundaryIs>
          <LinearRing>
            <coordinates>-67.679067,12.028144,0 -67.680409,12.025051,0 -67.681549,12.025784,0 -67.679067,12.028144,0</coordinates>
          </LinearRing>
        </outerBoundaryIs>
      </Polygon>
      <Polygon>
        <outerBoundaryIs>
          <LinearRing>
            <coordinates>-67.676666,12.026923,0 -67.677602,12.027818,0 -67.677235,12.030015,0 -67.676666,12.026923,0</coordinates>
          </LinearRing>
        </outerBoundaryIs>
      </Polygon>
      <Polygon>
        <outerBoundaryIs>
          <LinearRing>
            <coordinates>-67.676096,12.044420,0 -67.676991,12.046332,0 -67.674672,12.048407,0 -67.676096,12.044420,0</coordinates>
          </LinearRing>
        </outerBoundaryIs>
      </Polygon>
      <Polygon>
        <outerBoundaryIs>
          <LinearRing>
            <coordinates>-67.684438,12.063463,0 -67.681386,12.063707,0 -67.681020,12.061835,0 -67.684438,12.063463,0</coordinates>
          </LinearRing>
        </outerBoundaryIs>
      </Polygon>
      <Polygon>
        <outerBoundaryIs>
          <LinearRing>
            <coordinates>-67.688832,12.068996,0 -67.687082,12.067532,0 -67.687327,12.065579,0 -67.688832,12.068996,0</coordinates>
          </LinearRing>
        </outerBoundaryIs>
      </Polygon>
      <Polygon>
        <outerBoundaryIs>
          <LinearRing>
            <coordinates>-61.540116,8.565411,0 -61.314603,8.571314,0 -61.263688,8.456088,0 -61.338444,8.509952,0 -61.433688,8.514154,0 -61.540116,8.565411,0</coordinates>
          </LinearRing>
        </outerBoundaryIs>
      </Polygon>
      <Polygon>
        <outerBoundaryIs>
          <LinearRing>
            <coordinates>-61.227610,8.571601,0 -61.126373,8.534369,0 -61.137847,8.559760,0 -61.098459,8.602688,0 -61.016469,8.610093,0 -60.992543,8.576728,0 -61.050649,8.555487,0 -61.041575,8.518541,0 -61.270375,8.514553,0 -61.227610,8.571601,0</coordinates>
          </LinearRing>
        </outerBoundaryIs>
      </Polygon>
      <Polygon>
        <outerBoundaryIs>
          <LinearRing>
            <coordinates>-60.808134,8.632888,0 -60.760333,8.717708,0 -60.676056,8.762917,0 -60.687225,8.709995,0 -60.611611,8.683771,0 -60.617677,8.636723,0 -60.808134,8.632888,0</coordinates>
          </LinearRing>
        </outerBoundaryIs>
      </Polygon>
      <Polygon>
        <outerBoundaryIs>
          <LinearRing>
            <coordinates>-61.093874,8.633744,0 -61.169915,8.595314,0 -61.167108,8.699385,0 -61.126440,8.756478,0 -60.732365,8.892150,0 -60.686043,8.789015,0 -60.769735,8.741511,0 -60.846576,8.637715,0 -61.093874,8.633744,0</coordinates>
          </LinearRing>
        </outerBoundaryIs>
      </Polygon>
      <Polygon>
        <outerBoundaryIs>
          <LinearRing>
            <coordinates>-61.091624,8.822414,0 -61.016713,8.880316,0 -60.897572,9.033393,0 -60.838368,9.000556,0 -60.865712,8.994330,0 -60.864980,8.941230,0 -61.091624,8.822414,0</coordinates>
          </LinearRing>
        </outerBoundaryIs>
      </Polygon>
      <Polygon>
        <outerBoundaryIs>
          <LinearRing>
            <coordinates>-61.085439,8.890692,0 -61.069325,8.978827,0 -60.852040,9.096137,0 -60.875640,9.043647,0 -60.942983,9.025824,0 -61.085439,8.890692,0</coordinates>
          </LinearRing>
        </outerBoundaryIs>
      </Polygon>
      <Polygon>
        <outerBoundaryIs>
          <LinearRing>
            <coordinates>-60.889719,9.098578,0 -60.961293,9.069403,0 -60.936757,9.164618,0 -60.853342,9.194037,0 -60.889719,9.098578,0</coordinates>
          </LinearRing>
        </outerBoundaryIs>
      </Polygon>
      <Polygon>
        <outerBoundaryIs>
          <LinearRing>
            <coordinates>-60.817860,9.206000,0 -60.757924,9.230414,0 -60.728505,9.192939,0 -60.797434,9.171820,0 -60.845204,9.116604,0 -60.817860,9.206000,0</coordinates>
          </LinearRing>
        </outerBoundaryIs>
      </Polygon>
      <Polygon>
        <outerBoundaryIs>
          <LinearRing>
            <coordinates>-62.316396,9.885647,0 -62.325754,9.844184,0 -62.349355,9.872301,0 -62.331125,9.920559,0 -62.316396,9.885647,0</coordinates>
          </LinearRing>
        </outerBoundaryIs>
      </Polygon>
      <Polygon>
        <outerBoundaryIs>
          <LinearRing>
            <coordinates>-62.391103,9.993354,0 -62.408925,9.972561,0 -62.427561,10.000393,0 -62.426869,10.049221,0 -62.391103,9.993354,0</coordinates>
          </LinearRing>
        </outerBoundaryIs>
      </Polygon>
      <Polygon>
        <outerBoundaryIs>
          <LinearRing>
            <coordinates>-62.235341,10.013861,0 -62.298004,9.983710,0 -62.286366,10.024400,0 -62.240834,10.051500,0 -62.235341,10.013861,0</coordinates>
          </LinearRing>
        </outerBoundaryIs>
      </Polygon>
      <Polygon>
        <outerBoundaryIs>
          <LinearRing>
            <coordinates>-62.649403,10.344916,0 -62.659820,10.310004,0 -62.787587,10.430121,0 -62.781117,10.492906,0 -62.649403,10.344916,0</coordinates>
          </LinearRing>
        </outerBoundaryIs>
      </Polygon>
      <Polygon>
        <outerBoundaryIs>
          <LinearRing>
            <coordinates>-63.903635,10.777289,0 -63.909169,10.735541,0 -64.004506,10.775702,0 -63.976552,10.809231,0 -63.903635,10.777289,0</coordinates>
          </LinearRing>
        </outerBoundaryIs>
      </Polygon>
      <Polygon>
        <outerBoundaryIs>
          <LinearRing>
            <coordinates>-63.634592,15.700588,0 -63.635487,15.694037,0 -63.643625,15.700588,0 -63.634592,15.700588,0</coordinates>
          </LinearRing>
        </outerBoundaryIs>
      </Polygon>
    </MultiGeometry>
  </Document>
</kml>