<?xml version='1.0' encoding='UTF-8'?>
<kml xmlns="http://www.opengis.net/kml/2.2">
  <Document><name>Heartland</name><Placemark id="5C7726A3FB000599">
						<name>Heartland</name>
						<description>See: 2050-snapshot/domains/borders-geopolitics.md#heartland</description>
						<styleUrl>#__managed_style_327411ABBD3F8CDEB600</styleUrl>
						<Polygon>
							<outerBoundaryIs>
								<LinearRing>
									<coordinates>
										-100.089484,37.002092,0 -98.347149,36.997962,0 -94.617964,36.998905,0 -94.60829000000001,39.117944,0 -94.588413,39.149869,0 -94.655787,39.15568,0 -94.68033599999998,39.184303,0 -94.74193799999999,39.170203,0 -94.78383800000002,39.207154,0 -94.823791,39.209874,0 -94.83147099999999,39.256273,0 -94.90532900000001,39.311952,0 -94.909409,39.354255,0 -94.88135999999999,39.370383,0 -94.885026,39.389801,0 -94.94203899999999,39.389499,0 -94.98214400000001,39.440552,0 -95.04078,39.466387,0 -95.052177,39.499996,0 -95.10930399999999,39.542285,0 -95.103228,39.577783,0 -95.049277,39.589583,0 -95.05336699999999,39.630347,0 -95.02459500000001,39.668485,0 -94.971317,39.68641,0 -94.96531800000001,39.739065,0 -94.89931600000001,39.724042,0 -94.862943,39.742994,0 -94.86964399999999,39.772894,0 -94.91229300000001,39.759338,0 -94.93530199999998,39.77561,0 -94.884084,39.794234,0 -94.87594400000002,39.813294,0 -94.886933,39.833098,0 -94.93976699999999,39.85193,0 -94.929574,39.888754,0 -95.01315200000002,39.899953,0 -95.037767,39.865542,0 -95.12816599999999,39.874165,0 -95.149657,39.905948,0 -95.20193500000001,39.904053,0 -95.20442800000001,39.938949,0 -95.250254,39.948644,0 -95.30250700000001,39.984357,0 -95.30777999999998,39.990618,0 -95.30829,39.999998,0 -95.308469,40.002194,0 -95.31527099999998,40.01207,0 -95.413588,40.038424,0 -95.42164,40.058952,0 -95.39334700000001,40.119212,0 -95.47919300000001,40.185652,0 -95.47750099999999,40.24272,0 -95.55247300000001,40.261904,0 -95.55873200000002,40.295774,0 -95.610439,40.31397,0 -95.65732800000001,40.310856,0 -95.62372799999999,40.346567,0 -95.65913399999999,40.40869,0 -95.65819,40.44188,0 -95.693133,40.469396,0 -95.69996900000001,40.505275,0 -95.661687,40.517309,0 -95.65584799999999,40.546609,0 -95.678718,40.56256,0 -95.708591,40.521551,0 -95.762857,40.528371,0 -95.77470399999999,40.573574,0 -95.749685,40.606842,0 -95.78656800000002,40.657253,0 -95.84280099999999,40.677496,0 -95.852615,40.702262,0 -95.88534900000001,40.721093,0 -95.88364300000002,40.747831,0 -95.835232,40.779151,0 -95.84693799999999,40.865745,0 -95.80947399999999,40.891228,0 -95.83974300000001,40.93278,0 -95.830297,40.978332,0 -95.86728599999999,41.001599,0 -95.860462,41.037887,0 -95.88241499999999,41.060411,0 -95.862587,41.088399,0 -95.883489,41.154898,0 -95.84128800000001,41.174998,0 -95.92599,41.195698,0 -95.91089100000001,41.233998,0 -95.927491,41.298397,0 -95.90429,41.299597,0 -95.90248999999999,41.273398,0 -95.87148900000001,41.295797,0 -95.883089,41.316697,0 -95.92569,41.322197,0 -95.95669100000001,41.345496,0 -95.92879000000001,41.370096,0 -95.93749,41.393095,0 -95.922529,41.455766,0 -96.01175699999999,41.476212,0 -96.01922399999999,41.489296,0 -95.992833,41.512002,0 -96.00511200000001,41.54325,0 -96.026657,41.540366,0 -96.04070100000001,41.507076,0 -96.09658599999999,41.545397,0 -96.08184300000002,41.580407,0 -96.11583,41.60576,0 -96.095046,41.647365,0 -96.12140099999999,41.688522,0 -96.07232100000002,41.706858,0 -96.106425,41.73789,0 -96.064537,41.793002,0 -96.107592,41.820685,0 -96.110246,41.84885,0 -96.161756,41.90182,0 -96.136743,41.920826,0 -96.13253699999999,41.974625,0 -96.18626500000001,41.977417,0 -96.19455600000001,42.008662,0 -96.236487,41.996428,0 -96.225656,42.035217,0 -96.272901,42.047281,0 -96.309389,42.046692,0 -96.30964499999999,42.015187,0 -96.554866,42.015875,0 -96.555511,42.089957,0 -97.368404,42.090922,0 -97.36758999999999,42.438775,0 -97.48529799999999,42.438578,0 -97.484921,42.850368,0 -97.50034100000001,42.85722,0 -97.68650599999999,42.842435,0 -97.84527,42.867734,0 -97.875345,42.858724,0 -97.88856199999999,42.817251,0 -97.936716,42.775754,0 -98.035034,42.764205,0 -98.146933,42.839823,0 -98.18976499999999,42.841628,0 -98.42074,42.931924,0 -98.44414500000001,42.929242,0 -98.49854999999999,42.99856,0 -104.053028,43.000587,0 -104.053249,41.001406,0 -103.573774,41.00172,0 -103.581844,40.523383,0 -104.147714,40.524389,0 -104.150332,40.000856,0 -103.705701,40.001297,0 -103.719664,38.866827,0 -104.055528,38.868868,0 -104.05426,38.522392,0 -104.058196,37.644049,0 -103.066036,37.6436,0 -103.086102,37.000174,0 -102.042089,36.993016,0 -100.089484,37.002092,0 
									</coordinates>
								</LinearRing>
							</outerBoundaryIs>
						</Polygon>
					</Placemark>
				</Document>
</kml>
