<?xml version="1.0" encoding="UTF-8"?>
<kml xmlns="http://www.opengis.net/kml/2.2">
  <Document>
    <Placemark>
      <name>Heard Island and McDonald Islands</name>
      <Polygon>
        <altitudeMode>clampToGround</altitudeMode>
        <outerBoundaryIs>
          <LinearRing>
            <coordinates>73.735118,-53.112400,0 73.812185,-53.118504,0 73.661632,-53.146661,0 73.609548,-53.179864,0 73.580821,-53.187595,0 73.473399,-53.189223,0 73.440196,-53.173272,0 73.404145,-53.139337,0 73.363780,-53.074802,0 73.371267,-53.064630,0 73.353282,-53.051690,0 73.364431,-53.037286,0 73.253673,-53.015069,0 73.236013,-52.982029,0 73.296886,-52.961602,0 73.377452,-53.017022,0 73.399587,-52.990981,0 73.426524,-53.003188,0 73.412852,-53.009373,0 73.425629,-53.025323,0 73.447032,-53.028090,0 73.487966,-53.009373,0 73.564220,-53.016778,0 73.632579,-53.044122,0 73.699474,-53.100844,0 73.735118,-53.112400,0</coordinates>
          </LinearRing>
        </outerBoundaryIs>
      </Polygon>
    </Placemark>
  </Document>
</kml>
