<?xml version="1.0" encoding="UTF-8"?>
<kml xmlns="http://www.opengis.net/kml/2.2">
<Document>
  <Placemark>
    <name>Israel (absorbed by APR)</name>
    <Polygon>
      <outerBoundaryIs>
        <LinearRing>
          <coordinates>35.028796835,32.3651573690001,0 35.0215621340001,32.344590149,0 35.0178414310001,32.3422130330001,0 35.0045089110001,32.338053081,0 35.0006848550001,32.335727641,0 34.9965507410001,32.3230410770001,0 34.9930367430001,32.2915701300001,0 34.9899361580001,32.2784701540001,0 35.002441854,32.275137024,0 35.009366496,32.267643942,0 35.0111234940001,32.257101949,0 35.0076094970001,32.2443895470001,0 35.0002714440001,32.232013041,0 34.9614107670001,32.2015756230001,0 34.9582233058236,32.1864536304563,0 34.9626797918079,32.1734616047102,0 34.9770395799798,32.1499874406388,0 34.9869428821672,32.1239911349993,0 34.9842170108412,32.0895836108445,0 35.0072446516515,32.0207715258395,0 34.9967747271984,32.0111017802152,0 34.9988268447922,31.9938985513942,0 34.9978365145734,31.9787790417716,0 34.9866952996125,31.9672277378095,0 35.0012230616718,31.9496194177572,0 35.0077342597901,31.9449216883205,0 35.0037757819919,31.9392112202506,0 35.0054236680526,31.9337686622769,0 35.016354414099,31.9265863394992,0 35.0299017354599,31.9244295376782,0 35.0390062343957,31.9086373882285,0 35.0343230759025,31.8611137615624,0 35.0301073754143,31.857008176316,0 35.0065719312399,31.8560562546286,0 34.9985399939423,31.8538350658068,0 34.9923759490395,31.8547870104248,0 34.9712687649783,31.8549456669057,0 34.9591913672765,31.853985114216,0 34.9433070091668,31.8474233492949,0 34.9312972829645,31.8404936073376,0 34.9213269442305,31.8406861071987,0 34.9112854345751,31.8323725453567,0 34.9086499371448,31.8293236349778,0 34.9012085301495,31.8145441764726,0 34.8948523287719,31.8093506941792,0 34.8886511570253,31.8063276231213,0 34.827776320221,31.7919874132885,0 34.794755079883,31.7695081653695,0 34.786538527431,31.7658391382656,0 34.7852982930817,31.7667951517748,0 34.7828178243831,31.7691981061077,0 34.7811125020403,31.7714460308097,0 34.7789420917042,31.7750633810701,0 34.7722758319641,31.7922974725503,0 34.7697953632654,31.7972584090483,0 34.7664880713674,31.801366685724,0 34.7632324563128,31.8036146104259,0 34.7463342634155,31.8120637068745,0 34.7412182963873,31.8136140004857,0 34.7382727387958,31.8141566019456,0 34.7351721533722,31.8108751493687,0 34.7328467143044,31.8097382678068,0 34.7163619316578,31.8076453718364,0 34.7134680518091,31.8068702263798,0 34.7129512878716,31.8056816679746,0 34.7138814629591,31.8046739767227,0 34.715431755671,31.8037696400568,0 34.717498814119,31.8032270367983,0 34.7193591651933,31.8024002144983,0 34.7209094579051,31.801366685724,0 34.7219946626236,31.7999714217437,0 34.7226147802479,31.7981885850352,0 34.7235449562347,31.7966382923233,0 34.7244751322215,31.795191352399,0 34.7260254249334,31.7941061467812,0 34.7272656592828,31.7929175892753,0 34.7272656592828,31.7915998405602,0 34.7257153656716,31.7899978701056,0 34.7201343124485,31.7885767695023,0 34.7160518741946,31.786742255051,0 34.7058199401381,31.7800759953109,0 34.7022542658217,31.7789132762267,0 34.6977584164177,31.7793266873767,0 34.6737288748877,31.7863546823227,0 34.6729537294311,31.7872073430444,0 34.6723336118067,31.788370063028,0 34.6720235534442,31.789429430224,0 34.6717134950817,31.7907471789391,0 34.6720235534442,31.792530016547,0 34.6727986998001,31.7940803092588,0 34.6738839054179,31.7954238963957,0 34.6752791675995,31.7965607770582,0 34.6785347835534,31.7982144234568,0 34.684270868206,31.8004365097371,0 34.6858211609178,31.8012374945147,0 34.6873714536297,31.8022968608115,0 34.688611687979,31.803459580795,0 34.6896968926974,31.804932359141,0 34.6903170103217,31.806560167118,0 34.6904720399527,31.8082654894607,0 34.6900069519592,31.809660753441,0 34.6858211609178,31.8133039412239,0 34.6791549011778,31.8173605410561,0 34.6762093435863,31.8196859810232,0 34.6743489934113,31.8216238473627,0 34.6740389341495,31.8226315368159,0 34.673573846156,31.824130154483,0 34.6734188174245,31.8257321231389,0 34.673573846156,31.8273599311159,0 34.6740389341495,31.828470974256,0 34.6745040221429,31.8295561789745,0 34.6760543148548,31.8315973981014,0 34.6768294612107,31.8323208685132,0 34.6782247251909,31.8330701773468,0 34.6800850771646,31.8336127788067,0 34.6822554866014,31.8338453228034,0 34.6864412776428,31.8331735301343,0 34.6924874197586,31.8312873397389,0 34.6965181820684,31.8306930614356,0 34.6982235044112,31.8306155461705,0 34.6999288267539,31.8306930614356,0 34.7017891778283,31.8310806341639,0 34.7031844418085,31.8319332948856,0 34.7044246761579,31.8332252060784,0 34.7048897641513,31.8351113964737,0 34.7048897641513,31.8436380072882,0 34.7061299993999,31.8469969751303,0 34.7065950855947,31.848702297473,0 34.706750116125,31.8505626494467,0 34.7056649114065,31.85671214435,0 34.7055098808763,31.858184922696,0 34.7059749688697,31.8597093778855,0 34.7070601735881,31.8608720969697,0 34.709850702448,31.8634300809335,0 34.7107808766361,31.8651870792203,0 34.7112976423723,31.8675383567098,0 34.7103674663854,31.8721117213788,0 34.7086104671993,31.873868720565,0 34.7065950855947,31.8745405141334,0 34.7045797057888,31.8740237492966,0 34.7014791203651,31.8739979108749,0 34.6974483580553,31.87448883729,0 34.689231804704,31.8772535259295,0 34.6845809256691,31.8780286731847,0 34.680550165158,31.8779769963413,0 34.6785347835534,31.8772018499853,0 34.6698531431081,31.8750056021268,0 34.6659414015744,31.8738989899464,0 34.6932072270001,31.926459052,0 34.711924675,31.951605536,0 34.7338866906783,32.0133096955275,0 34.743337436,32.0398623720001,0 34.7439884770001,32.044623114,0 34.7426863940001,32.055609442,0 34.743337436,32.0603701840001,0 34.757009311,32.06659577,0 34.8044350251544,32.1925060167976,0 34.8376570970001,32.2807070980001,0 34.8677962632759,32.4075053983555,0 34.8732202480001,32.4303246110001,0 34.9041447270001,32.5606143250001,0 34.909841342,32.57025788,0 34.9158634770001,32.6148949240001,0 34.92090905,32.6282412780001,0 34.919118686,32.6429710960001,0 34.942067905,32.7245140650001,0 34.9475203790001,32.814154364,0 34.9555770190001,32.8343773460001,0 34.9704695970001,32.8413760440001,0 34.9831649100001,32.8387718770001,0 35.0034285820001,32.8275414080001,0 35.018728061,32.8250186220001,0 35.0276798840001,32.826605536,0 35.0627547540001,32.858343817,0 35.067067905,32.8668480490001,0 35.0754889363653,32.8930754711561,0 35.077631869715,32.8924887147824,0 35.0847632183478,32.890628363708,0 35.0873987157781,32.8889230413653,0 35.0898791853761,32.8861841902482,0 35.0934448587932,32.8794145777206,0 35.0954602385991,32.8763915057634,0 35.0971655618412,32.8744278019015,0 35.1011963232517,32.872283229987,0 35.1021264992385,32.8702678492818,0 35.102436557601,32.8672447782239,0 35.0999560889024,32.8547907578871,0 35.1004211768958,32.8528787299694,0 35.1019714696076,32.8509150252082,0 35.1102396989029,32.8461091174418,0 35.1130302259641,32.8440420598931,0 35.1144254899444,32.8428018255438,0 35.1175260762674,32.8406572545287,0 35.1190763689792,32.8398045920083,0 35.1227970720273,32.8384610048715,0 35.1375248545883,32.8348953314544,0 35.1410905289048,32.8332158475333,0 35.1426408216166,32.8321306419156,0 35.1435709976034,32.8300119084228,0 35.1437260272343,32.826833807734,0 35.1410905289048,32.8144056258189,0 35.1409355001732,32.8124160835354,0 35.1420207048916,32.8087470573308,0 35.1440360855968,32.8038636342993,0 35.1544230492843,32.784898382954,0 35.1547331067475,32.7819786655829,0 35.1547331067475,32.7780254185382,0 35.153647902029,32.769860541131,0 35.1524076676797,32.7660623237172,0 35.1513224629613,32.7633493110218,0 35.1414005881666,32.7502493355384,0 35.1412455576364,32.7501718211726,0 35.1403153834482,32.7490349387114,0 35.1389201185686,32.7462185741279,0 35.1386100602061,32.7443065462101,0 35.1403153834482,32.7303022322622,0 35.1398502945554,32.7271499699951,0 35.1384550305752,32.7251862661333,0 35.1334940940772,32.7225766062254,0 35.1324088875601,32.72069041583,0 35.1317887708351,32.7180549183997,0 35.1324088875601,32.7129906282149,0 35.1324088875601,32.7107427035129,0 35.1322538588285,32.7087273219084,0 35.1307035661167,32.7058592804814,0 35.1283781270489,32.7031462668867,0 35.1257426287193,32.700872503763,0 35.1241923360075,32.6998906518321,0 35.1224870127654,32.699193019842,0 35.120781691322,32.6991155054762,0 35.1190763689792,32.6997356231005,0 35.1178361346299,32.7008983421847,0 35.1165959002806,32.7022160908999,0 35.1136503435885,32.7064793972064,0 35.1122550796082,32.7075646019248,0 35.1107047868963,32.7083397491801,0 35.1087927589786,32.7082363963926,0 35.1072424662668,32.7074870884583,0 35.1062089365931,32.7061693388439,0 35.1047619966688,32.7028362094235,0 35.1038318206819,32.6968159039308,0 35.1038318206819,32.6949555528565,0 35.1086894061911,32.6772305358605,0 35.1087927589786,32.6731222600842,0 35.1080692885668,32.6706417913855,0 35.0937549171557,32.6640530460112,0 35.0923596531754,32.6629936788152,0 35.0911194188261,32.661830959731,0 35.0889490093892,32.6590921095132,0 35.0815076032932,32.6447777372028,0 35.0784070169702,32.6406436221055,0 35.0768567242584,32.639558417387,0 35.0751514019157,32.6386799182436,0 35.0731360212104,32.6383698589818,0 35.0711206396058,32.6386024029785,0 35.0580981793875,32.64348582601,0 35.0537573587151,32.6443384867318,0 35.051225213173,32.644493517262,0 35.0489514500493,32.6442868107877,0 35.0467810397132,32.6437958852719,0 35.0448690117954,32.6431757685469,0 35.0433187190836,32.6423231060265,0 35.0405281920224,32.6399201516936,0 35.039442987304,32.6386024029785,0 35.0374276056994,32.6357343615515,0 35.0368074889744,32.6340807151528,0 35.0358773129876,32.6304116889482,0 35.035722284256,32.6283446313996,0 35.0374276056994,32.6251665307108,0 35.0403731632908,32.6211357693003,0 35.0483313333244,32.6137977159918,0 35.0498816260362,32.6109813505089,0 35.0495715676737,32.609586087428,0 35.0450240414264,32.6101545273096,0 35.039442987304,32.6120665552273,0 35.0366524593435,32.6127641872175,0 35.0344820490074,32.6129450552701,0 35.0298311699725,32.6127125112733,0 35.0278157901666,32.6122215848582,0 35.0259554381929,32.6114464385023,0 35.0248702325752,32.6101545273096,0 35.0248702325752,32.6078807641859,0 35.0262654965554,32.6045476338662,0 35.0306063172278,32.5987081982248,0 35.0321566099396,32.5951941998524,0 35.0330867859264,32.5922744824813,0 35.0330867859264,32.5902591008768,0 35.0333968442889,32.5882953961156,0 35.0340169610139,32.5865642362505,0 35.0347921082692,32.5851431338485,0 35.0389778993106,32.5821200627906,0 35.0523620947349,32.5745236270637,0 35.053912388346,32.5727924671986,0 35.0545325050711,32.5706220568624,0 35.053912388346,32.5665912954519,0 35.0515352724349,32.5595374620842,0 35.051225213173,32.5576771101105,0 35.0514319187481,32.5557650821927,0 35.0520520363723,32.5541114357941,0 35.0537573587151,32.5525869824033,0 35.0602685888243,32.549098823352,0 35.0621289407979,32.5472126329566,0 35.0633691751473,32.5453264434606,0 35.0652295271209,32.5432335474902,0 35.0681750829137,32.541218166785,0 35.0745312842913,32.5381692573054,0 35.0777869002452,32.5362313909659,0 35.0822827487498,32.5344743917797,0 35.1113249036214,32.5296684840133,0 35.1133402852259,32.5290483672883,0 35.1155106946628,32.5286091168173,0 35.1186112809858,32.5289966904449,0 35.1226420432956,32.5303919544251,0 35.1293083030357,32.5345519070448,0 35.1322538588285,32.5371098901093,0 35.1342692404331,32.5392027860797,0 35.1351994164199,32.5407530787915,0 35.1361295924067,32.542070828406,0 35.1378349138502,32.5433627386994,0 35.1432609392409,32.5462824569698,0 35.1449662615837,32.5479361033684,0 35.1460514672014,32.5498481312862,0 35.1463615246646,32.5517859967263,0 35.146826612658,32.5534913190691,0 35.1476017599132,32.5551191270461,0 35.1489970229942,32.5562818470296,0 35.150547315706,32.5573153749046,0 35.1595390154132,32.5611652691618,0 35.161089308125,32.562147121992,0 35.1623295433737,32.5634131938638,0 35.1634664240362,32.564808457844,0 35.1662569519967,32.5693559840914,0 35.1687374197961,32.5717589384242,0 35.1702877134072,32.5726115991459,0 35.17199303575,32.573231715871,0 35.1764888851539,32.57100963049,0 35.1797445002085,32.5691492785164,0 35.20795983278,32.5463858097573,0 35.2103593540001,32.5418675630001,0 35.2086308190001,32.542640076,0 35.190750773,32.5417099000001,0 35.176798137,32.532692363,0 35.1516833910001,32.5079135130001,0 35.1206775310001,32.491325379,0 35.0907052000001,32.479233094,0 35.0643502190001,32.463135885,0 35.0447131750001,32.434119568,0 35.0327303009626,32.3822002611331,0 35.028796835,32.3651573690001,0</coordinates>
        </LinearRing>
      </outerBoundaryIs>
    </Polygon>
  </Placemark>
</Document>
</kml>
