<?xml version='1.0' encoding='UTF-8'?>
<kml xmlns="http://www.opengis.net/kml/2.2">
  <Document><name>Kentucky</name><Placemark id="5C7726A3FB0005B7">
						<name>Kentucky</name>
						<description>See: 2050-snapshot/domains/borders-geopolitics.md#kentucky</description>
						<styleUrl>#__managed_style_015FF290CA3F9977A24B</styleUrl>
						<Polygon>
							<outerBoundaryIs>
								<LinearRing>
									<coordinates>
										-89.52758300000001,36.581147,0 -89.558089,36.573514,0 -89.570071,36.544387,0 -89.539232,36.497934,0 -89.485427,36.497491,0 -89.46588800000001,36.529946,0 -89.473341,36.559918,0 -89.52758300000001,36.581147,0 
									</coordinates>
								</LinearRing>
							</outerBoundaryIs>
						</Polygon>
					</Placemark>
					<Placemark id="5C7726A3FB0005B8">
						<name>Kentucky</name>
						<description>See: 2050-snapshot/domains/borders-geopolitics.md#kentucky</description>
						<styleUrl>#__managed_style_015FF290CA3F9977A24B</styleUrl>
						<Polygon>
							<outerBoundaryIs>
								<LinearRing>
									<coordinates>
										-89.371002,36.62084,0 -89.417275,36.499011,0 -88.05320500000001,36.497129,0 -88.032489,36.540662,0 -88.07208199999999,36.687686,0 -87.84956699999999,36.663701,0 -87.85320400000001,36.633247,0 -86.589906,36.652486,0 -86.564143,36.633472,0 -86.50777100000001,36.652445,0 -85.677789,36.618157,0 -85.19537200000001,36.625498,0 -83.930761,36.587694,0 -83.92625200000001,36.606531,0 -83.95623399999999,36.645491,0 -83.877503,36.687259,0 -83.958534,36.727245,0 -83.968546,36.760923,0 -83.986383,36.758743,0 -83.97794500000001,36.796623,0 -84.027514,36.818644,0 -84.039508,36.848694,0 -84.06517700000001,36.853433,0 -84.09439999999999,36.953047,0 -84.032312,36.988628,0 -83.959138,36.977273,0 -83.93167800000001,36.99641,0 -83.922336,37.036413,0 -83.871315,37.054919,0 -83.887719,37.075119,0 -83.867817,37.083121,0 -83.865342,37.103884,0 -83.885673,37.118767,0 -83.925405,37.111768,0 -83.96899000000001,37.174794,0 -83.94096,37.202743,0 -83.940663,37.258641,0 -83.901574,37.25374,0 -83.88198,37.306932,0 -83.78202899999999,37.343204,0 -83.811966,37.370325,0 -83.84249800000001,37.439521,0 -83.88395300000001,37.477335,0 -83.885262,37.517688,0 -83.90557,37.542856,0 -83.864418,37.617313,0 -83.80812299999999,37.636035,0 -83.822121,37.665578,0 -83.7496,37.714846,0 -83.70797399999999,37.716463,0 -83.63106000000001,37.825372,0 -83.756367,37.899866,0 -83.77526899999999,37.939077,0 -83.774353,37.990127,0 -83.65929300000001,38.028261,0 -83.60982,38.007159,0 -83.58053,38.011702,0 -83.574989,38.058883,0 -83.50109399999999,38.049025,0 -83.464018,38.068121,0 -83.465817,38.08431,0 -83.505083,38.088215,0 -83.51415,38.069804,0 -83.53442,38.094693,0 -83.51992,38.115885,0 -83.55916499999999,38.116109,0 -83.548751,38.143074,0 -83.584087,38.146256,0 -83.60585399999999,38.124104,0 -83.62164300000001,38.148613,0 -83.59072999999999,38.171526,0 -83.63517299999999,38.190245,0 -83.564335,38.216606,0 -83.50716,38.269447,0 -83.514281,38.292054,0 -83.488086,38.324496,0 -83.49926600000001,38.349351,0 -83.461195,38.359716,0 -83.444193,38.387005,0 -83.40066400000001,38.389855,0 -83.356336,38.321869,0 -83.24723899999999,38.330705,0 -83.228888,38.344147,0 -83.23721,38.426472,0 -83.207514,38.441177,0 -83.213515,38.454524,0 -83.18641100000001,38.469428,0 -83.18850500000001,38.496071,0 -83.16531999999999,38.504595,0 -83.05156599999999,38.46524,0 -82.970648,38.393666,0 -82.912712,38.398949,0 -82.817454,38.373935,0 -82.77028799999999,38.432923,0 -82.665481,38.505737,0 -82.724846,38.5576,0 -82.789776,38.559951,0 -82.844306,38.590862,0 -82.87759200000001,38.690177,0 -82.871292,38.739376,0 -82.88919300000001,38.756076,0 -82.979395,38.725976,0 -83.030886,38.725568,0 -83.053104,38.695831,0 -83.11237199999999,38.671685,0 -83.153783,38.618827,0 -83.245664,38.628564,0 -83.29419300000001,38.596588,0 -83.35644499999999,38.654009,0 -83.468059,38.67547,0 -83.52095300000001,38.703045,0 -83.62692199999999,38.679387,0 -83.65714199999999,38.62791,0 -83.762445,38.652103,0 -83.78711300000001,38.699489,0 -83.836696,38.717857,0 -83.87316800000001,38.762418,0 -83.96212300000001,38.787384,0 -84.07149099999999,38.770475,0 -84.21290399999999,38.805707,0 -84.230422,38.827404,0 -84.234453,38.893226,0 -84.28816399999999,38.955789,0 -84.304698,39.006455,0 -84.346039,39.036963,0 -84.42573,39.053059,0 -84.449793,39.117754,0 -84.62011200000001,39.073457,0 -84.75444899999999,39.146658,0 -84.896911,39.057474,0 -84.829857,38.969385,0 -84.87702899999999,38.909016,0 -84.785234,38.880439,0 -84.829958,38.830632,0 -84.812877,38.786087,0 -84.88728500000001,38.794776,0 -84.943641,38.775427,0 -84.991927,38.778537,0 -85.17304799999999,38.688022,0 -85.213257,38.695446,0 -85.268495,38.740165,0 -85.43629900000001,38.728484,0 -85.456481,38.685069,0 -85.438742,38.659319,0 -85.417047,38.541726,0 -85.47512399999999,38.503689,0 -85.49886600000001,38.468242,0 -85.586033,38.450092,0 -85.618281,38.426353,0 -85.637861,38.380263,0 -85.651364,38.330742,0 -85.683561,38.295469,0 -85.74507699999999,38.26719,0 -85.78102699999999,38.288476,0 -85.829216,38.276508,0 -85.844381,38.231048,0 -85.903873,38.174142,0 -85.905266,38.088933,0 -85.92565399999999,38.021784,0 -85.947114,38.005085,0 -86.029509,37.99264,0 -86.03819,37.959588,0 -86.104167,38.012627,0 -86.176557,38.01023,0 -86.26720299999999,38.056798,0 -86.272847,38.140835,0 -86.35771699999999,38.198807,0 -86.37743399999999,38.171379,0 -86.323933,38.152374,0 -86.323847,38.138412,0 -86.379775,38.129274,0 -86.40187899999999,38.104329,0 -86.429541,38.125281,0 -86.46324799999999,38.119278,0 -86.463858,38.101177,0 -86.430091,38.078638,0 -86.452192,38.05049,0 -86.52182500000001,38.038327,0 -86.52517400000001,37.968228,0 -86.50662,37.930719,0 -86.534156,37.917007,0 -86.588581,37.921159,0 -86.598108,37.867382,0 -86.634271,37.843845,0 -86.661637,37.849714,0 -86.647081,37.908621,0 -86.68092900000001,37.91501,0 -86.73146,37.89434,0 -86.79550999999999,37.989453,0 -86.820071,37.999392,0 -86.91794899999999,37.93724,0 -87.034166,37.906265,0 -87.069675,37.801513,0 -87.111008,37.782354,0 -87.12962899999999,37.786608,0 -87.162319,37.840159,0 -87.220342,37.849081,0 -87.413325,37.944714,0 -87.450458,37.941451,0 -87.511499,37.906426,0 -87.556567,37.928606,0 -87.575729,37.967778,0 -87.596171,37.97486,0 -87.627892,37.922253,0 -87.58392499999999,37.872485,0 -87.612426,37.83384,0 -87.645858,37.825899,0 -87.679188,37.836321,0 -87.664331,37.88907,0 -87.679131,37.902951,0 -87.829773,37.876425,0 -87.87254,37.920999,0 -87.90478899999999,37.924892,0 -87.94102100000001,37.879168,0 -87.910276,37.843416,0 -87.90680999999999,37.807624,0 -87.95259,37.771742,0 -88.02803,37.799224,0 -88.05958800000001,37.742608,0 -88.122412,37.709685,0 -88.158207,37.664542,0 -88.140783,37.585217,0 -88.069018,37.525297,0 -88.06784399999999,37.485867,0 -88.085229,37.47154,0 -88.281667,37.452596,0 -88.33062200000001,37.429316,0 -88.354573,37.398573,0 -88.41310799999999,37.424468,0 -88.476592,37.386875,0 -88.515939,37.284043,0 -88.424403,37.152428,0 -88.460594,37.074298,0 -88.566475,37.075778,0 -88.625889,37.119458,0 -88.732105,37.143956,0 -88.80571999999999,37.188595,0 -88.91618,37.223991,0 -88.974711,37.229708,0 -89.02998100000001,37.211144,0 -89.08652600000001,37.165602,0 -89.181369,37.046305,0 -89.17112,37.008072,0 -89.098843,36.95785,0 -89.137969,36.847349,0 -89.178888,36.831368,0 -89.171069,36.798119,0 -89.123481,36.785258,0 -89.119198,36.759802,0 -89.179545,36.756132,0 -89.199798,36.734217,0 -89.15908,36.666352,0 -89.236542,36.566824,0 -89.27171,36.571387,0 -89.326731,36.632186,0 -89.371002,36.62084,0 
									</coordinates>
								</LinearRing>
							</outerBoundaryIs>
						</Polygon>
					</Placemark>
				</Document>
</kml>
