<?xml version="1.0" encoding="UTF-8"?>
<kml xmlns="http://www.opengis.net/kml/2.2">
  <Document>
    <Placemark>
      <name>La Réunion</name>
      <Polygon>
        <altitudeMode>clampToGround</altitudeMode>
        <outerBoundaryIs>
          <LinearRing>
            <coordinates>55.787852,-21.103448,0 55.801768,-21.111993,0 55.837576,-21.126153,0 55.849864,-21.137628,0 55.854503,-21.156996,0 55.849132,-21.173761,0 55.840587,-21.190525,0 55.824229,-21.264337,0 55.821951,-21.285089,0 55.822520,-21.303643,0 55.820811,-21.324965,0 55.812022,-21.342543,0 55.791270,-21.349867,0 55.755707,-21.348891,0 55.737966,-21.351658,0 55.706554,-21.367446,0 55.683116,-21.370782,0 55.659923,-21.369561,0 55.643809,-21.363539,0 55.626801,-21.369399,0 55.601573,-21.370375,0 55.575043,-21.367934,0 55.554454,-21.363539,0 55.537120,-21.355076,0 55.505626,-21.333673,0 55.475434,-21.326918,0 55.434337,-21.311619,0 55.417817,-21.302016,0 55.409841,-21.293390,0 55.404145,-21.284438,0 55.397797,-21.277602,0 55.387055,-21.274835,0 55.354503,-21.274591,0 55.349620,-21.271417,0 55.342296,-21.257501,0 55.307628,-21.219415,0 55.295584,-21.199640,0 55.291026,-21.176446,0 55.290782,-21.158868,0 55.288422,-21.143650,0 55.246349,-21.090916,0 55.233246,-21.069268,0 55.225434,-21.048272,0 55.225434,-21.029718,0 55.231212,-21.009698,0 55.241873,-20.993422,0 55.275401,-20.980239,0 55.287852,-20.964776,0 55.292328,-20.946710,0 55.287446,-20.932224,0 55.293468,-20.926365,0 55.295421,-20.921808,0 55.293468,-20.917250,0 55.287446,-20.911716,0 55.302989,-20.905206,0 55.335948,-20.905043,0 55.364024,-20.886163,0 55.407970,-20.863214,0 55.455821,-20.861423,0 55.472504,-20.863214,0 55.501313,-20.873224,0 55.514008,-20.875177,0 55.527110,-20.870050,0 55.542491,-20.875095,0 55.578380,-20.874770,0 55.592296,-20.880304,0 55.605805,-20.888279,0 55.650645,-20.898045,0 55.663829,-20.905206,0 55.673839,-20.913181,0 55.695323,-20.935235,0 55.702810,-20.949395,0 55.706554,-20.982110,0 55.712087,-20.993585,0 55.736583,-21.017836,0 55.740001,-21.024672,0 55.741466,-21.044529,0 55.743663,-21.054620,0 55.746837,-21.062595,0 55.753103,-21.066990,0 55.770518,-21.073826,0 55.774181,-21.079278,0 55.775890,-21.083917,0 55.787852,-21.103448,0</coordinates>
          </LinearRing>
        </outerBoundaryIs>
      </Polygon>
    </Placemark>
  </Document>
</kml>
