<?xml version='1.0' encoding='UTF-8'?>
<kml xmlns="http://www.opengis.net/kml/2.2">
  <Document>
    <name>Manitoba</name>
    <Placemark>
      <name>Manitoba</name>
      <Polygon>
        <outerBoundaryIs>
          <LinearRing>
            <coordinates>-97.226089,48.992670,0 -97.375189,48.992670,0 -97.594994,48.992670,0 -97.814800,48.992670,0 -98.034606,48.992670,0 -98.254437,48.992670,0 -98.474191,48.992670,0 -98.694049,48.992670,0 -98.913854,48.992670,0 -99.133660,48.992670,0 -99.353492,48.992670,0 -99.573297,48.992670,0 -99.793103,48.992670,0 -100.012883,48.992670,0 -100.232663,48.992670,0 -100.452494,48.992670,0 -100.672274,48.992670,0 -100.892106,48.992670,0 -101.111886,48.992670,0 -101.331691,48.992670,0 -101.364340,48.992670,0 -101.364376,48.993056,0 -101.381300,49.174208,0 -101.401273,49.388484,0 -101.421272,49.602735,0 -101.441270,49.817011,0 -101.461269,50.031262,0 -101.481242,50.245538,0 -101.501267,50.459814,0 -101.521214,50.674065,0 -101.541213,50.888341,0 -101.561211,51.102617,0 -101.581210,51.316868,0 -101.601183,51.531118,0 -101.621208,51.745421,0 -101.641181,51.959671,0 -101.661154,52.173922,0 -101.681178,52.388224,0 -101.701203,52.602474,0 -101.721176,52.816725,0 -101.741149,53.031027,0 -101.761173,53.245277,0 -101.781146,53.459528,0 -101.801119,53.673830,0 -101.821144,53.888081,0 -101.841117,54.102331,0 -101.861090,54.316633,0 -101.881114,54.530884,0 -101.901087,54.745134,0 -101.921060,54.959436,0 -101.941085,55.173687,0 -101.961058,55.387937,0 -101.981031,55.602239,0 -102.001055,55.816490,0 -102.001107,56.181016,0 -102.001133,56.545593,0 -102.001184,56.910170,0 -102.001262,57.274747,0 -102.001339,57.842465,0 -102.001417,58.410182,0 -102.001495,58.977951,0 -102.001572,59.545668,0 -102.001572,59.659253,0 -102.001572,59.772838,0 -102.001598,59.886422,0 -102.001598,60.000059,0 -101.551574,60.000059,0 -101.101498,60.000059,0 -100.651499,60.000059,0 -100.201398,60.000059,0 -99.751399,60.000059,0 -99.301349,60.000059,0 -98.851299,60.000059,0 -98.401249,60.000059,0 -97.951225,60.000059,0 -97.831639,60.000059,0 -97.501175,60.000059,0 -97.051151,60.000059,0 -96.601101,60.000059,0 -96.151025,60.000059,0 -95.701001,60.000059,0 -95.251002,60.000059,0 -94.803131,60.000067,0 -94.786936,59.991319,0 -94.801015,59.979926,0 -94.817006,59.962877,0 -94.821360,59.948106,0 -94.800608,59.943549,0 -94.809438,59.928046,0 -94.814280,59.923041,0 -94.809722,59.919501,0 -94.805247,59.912828,0 -94.800608,59.909410,0 -94.805287,59.884955,0 -94.779408,59.838690,0 -94.793121,59.820014,0 -94.775502,59.798041,0 -94.773305,59.789618,0 -94.775380,59.777818,0 -94.784779,59.757758,0 -94.786936,59.748358,0 -94.789662,59.741929,0 -94.802846,59.725816,0 -94.807444,59.717597,0 -94.796213,59.667914,0 -94.798492,59.659369,0 -94.810862,59.655504,0 -94.821889,59.650336,0 -94.819447,59.638658,0 -94.807444,59.617987,0 -94.807851,59.610663,0 -94.807444,59.604926,0 -94.803375,59.598090,0 -94.793121,59.587266,0 -94.784657,59.582465,0 -94.775380,59.580064,0 -94.766428,59.576117,0 -94.759023,59.566759,0 -94.781239,59.562201,0 -94.788075,59.550401,0 -94.788930,59.536485,0 -94.793121,59.525824,0 -94.786692,59.515937,0 -94.779897,59.513861,0 -94.772206,59.513373,0 -94.762766,59.508124,0 -94.757151,59.501776,0 -94.755930,59.497382,0 -94.755483,59.492540,0 -94.752187,59.484809,0 -94.755605,59.483588,0 -94.758860,59.475898,0 -94.757924,59.467231,0 -94.749094,59.463121,0 -94.741322,59.461249,0 -94.734283,59.456488,0 -94.728505,59.450263,0 -94.724233,59.443834,0 -94.732981,59.435981,0 -94.734690,59.429511,0 -94.729970,59.402533,0 -94.725901,59.398993,0 -94.721344,59.396186,0 -94.718007,59.388617,0 -94.716420,59.375352,0 -94.718414,59.366685,0 -94.725413,59.358751,0 -94.738515,59.347724,0 -94.722768,59.342271,0 -94.703277,59.347846,0 -94.683420,59.356676,0 -94.666493,59.361314,0 -94.660146,59.358751,0 -94.670969,59.353258,0 -94.685536,59.348456,0 -94.690745,59.347724,0 -94.707631,59.332017,0 -94.717030,59.326850,0 -94.731679,59.326524,0 -94.726877,59.316718,0 -94.724233,59.312934,0 -94.760325,59.304755,0 -94.772206,59.298041,0 -94.766469,59.285590,0 -94.775543,59.273627,0 -94.780385,59.268622,0 -94.786936,59.265082,0 -94.777008,59.259223,0 -94.774281,59.252631,0 -94.777821,59.245429,0 -94.786936,59.237860,0 -94.779693,59.230902,0 -94.777577,59.222886,0 -94.779449,59.203681,0 -94.781402,59.203477,0 -94.786000,59.200181,0 -94.790679,59.195054,0 -94.793121,59.189399,0 -94.790273,59.184516,0 -94.776601,59.174140,0 -94.773305,59.168891,0 -94.774892,59.161566,0 -94.783803,59.144721,0 -94.786936,59.134752,0 -94.791168,59.100043,0 -94.793121,59.093817,0 -94.842437,59.081122,0 -94.907786,59.086982,0 -94.967275,59.085924,0 -94.999176,59.052802,0 -94.968170,59.061510,0 -94.816477,59.068061,0 -94.804026,59.063056,0 -94.804189,59.059516,0 -94.807200,59.044623,0 -94.807444,59.038560,0 -94.804799,59.032782,0 -94.802113,59.029608,0 -94.802073,59.025743,0 -94.807444,59.018134,0 -94.764231,59.015001,0 -94.723704,59.004218,0 -94.694000,58.983466,0 -94.683258,58.950385,0 -94.686594,58.931098,0 -94.694081,58.916938,0 -94.718007,58.888373,0 -94.731028,58.880927,0 -94.735097,58.877794,0 -94.737172,58.873236,0 -94.731760,58.866563,0 -94.731679,58.861029,0 -94.737213,58.847846,0 -94.745961,58.833116,0 -94.682525,58.872504,0 -94.650014,58.884996,0 -94.608144,58.881537,0 -94.545155,58.856024,0 -94.511952,58.838324,0 -94.485260,58.820054,0 -94.469309,58.797349,0 -94.452138,58.743109,0 -94.436879,58.723822,0 -94.399485,58.712470,0 -94.362457,58.718940,0 -94.293528,58.744371,0 -94.296051,58.750922,0 -94.297515,58.753648,0 -94.300282,58.757392,0 -94.288197,58.765245,0 -94.275950,58.783149,0 -94.265533,58.792182,0 -94.252268,58.798163,0 -94.219635,58.805162,0 -94.204091,58.806464,0 -94.208404,58.798326,0 -94.214670,58.792222,0 -94.222646,58.788031,0 -94.232045,58.785346,0 -94.224110,58.774726,0 -94.227203,58.763983,0 -94.234283,58.751085,0 -94.238271,58.734117,0 -94.233306,58.719428,0 -94.222239,58.711534,0 -94.210561,58.705634,0 -94.204091,58.696601,0 -94.207997,58.683783,0 -94.220082,58.670396,0 -94.235260,58.659857,0 -94.263783,58.649237,0 -94.276438,58.634345,0 -94.296946,58.603746,0 -94.308502,58.575141,0 -94.287709,58.520819,0 -94.300649,58.481269,0 -94.287994,58.449286,0 -94.286610,58.436510,0 -94.297841,58.421007,0 -94.326324,58.399359,0 -94.334381,58.381415,0 -94.334340,58.376044,0 -94.329457,58.358832,0 -94.328236,58.350206,0 -94.330312,58.336900,0 -94.339223,58.314032,0 -94.344594,58.286811,0 -94.361480,58.243394,0 -94.368560,58.230414,0 -94.361724,58.223009,0 -94.339101,58.265937,0 -94.322377,58.288764,0 -94.303375,58.298692,0 -94.303131,58.304511,0 -94.286610,58.339667,0 -94.277008,58.346015,0 -94.265248,58.350775,0 -94.258941,58.356920,0 -94.265533,58.367621,0 -94.237945,58.391669,0 -94.232045,58.401109,0 -94.230946,58.410346,0 -94.232655,58.437120,0 -94.235178,58.442694,0 -94.241363,58.451158,0 -94.238271,58.514716,0 -94.234690,58.535834,0 -94.235178,58.545152,0 -94.241689,58.555732,0 -94.244862,58.563910,0 -94.246653,58.577135,0 -94.246734,58.590806,0 -94.245025,58.600328,0 -94.227691,58.623399,0 -94.180287,58.661078,0 -94.163157,58.682929,0 -94.169342,58.693671,0 -94.171010,58.709784,0 -94.166127,58.724311,0 -94.152577,58.730699,0 -94.142893,58.736802,0 -94.153228,58.750963,0 -94.169545,58.767076,0 -94.177398,58.779120,0 -94.145579,58.769761,0 -94.116770,58.768052,0 -94.056711,58.771674,0 -93.881947,58.757392,0 -93.865631,58.758043,0 -93.854848,58.761908,0 -93.834218,58.775377,0 -93.818674,58.779853,0 -93.804311,58.778022,0 -93.790273,58.773912,0 -93.775787,58.771674,0 -93.759999,58.774604,0 -93.733022,58.788072,0 -93.717437,58.792182,0 -93.690541,58.790351,0 -93.572743,58.765001,0 -93.555776,58.763251,0 -93.532582,58.771430,0 -93.496002,58.773505,0 -93.484731,58.771674,0 -93.473459,58.755235,0 -93.471913,58.734931,0 -93.464711,58.717515,0 -93.436350,58.710191,0 -93.421010,58.708197,0 -93.409088,58.705064,0 -93.398020,58.705268,0 -93.385121,58.713324,0 -93.357289,58.743354,0 -93.347524,58.751166,0 -93.326487,58.759955,0 -93.234446,58.767401,0 -93.211252,58.766547,0 -93.189524,58.759711,0 -93.170033,58.744371,0 -93.155751,58.744371,0 -93.153472,58.726020,0 -93.134104,58.683051,0 -93.131825,58.672349,0 -93.139312,58.658515,0 -93.140736,58.639757,0 -93.135325,58.600328,0 -93.131988,58.590888,0 -93.123362,58.573920,0 -93.121653,58.562486,0 -93.127431,58.538642,0 -93.128489,58.528388,0 -93.123443,58.512885,0 -93.098012,58.476264,0 -93.050771,58.422349,0 -93.041982,58.385932,0 -93.032582,58.367011,0 -93.021352,58.350694,0 -92.984039,58.313056,0 -92.974477,58.296942,0 -92.970815,58.274848,0 -92.962961,58.259874,0 -92.934682,58.233262,0 -92.937245,58.223009,0 -92.921051,58.203803,0 -92.912709,58.196397,0 -92.901926,58.189439,0 -92.874257,58.178453,0 -92.861684,58.171820,0 -92.854115,58.162095,0 -92.868316,58.153551,0 -92.866078,58.145941,0 -92.855946,58.137763,0 -92.846669,58.127387,0 -92.840321,58.101508,0 -92.835072,58.090806,0 -92.823638,58.086412,0 -92.807769,58.075751,0 -92.803863,58.050401,0 -92.805735,57.997667,0 -92.766103,57.910997,0 -92.756988,57.865912,0 -92.785797,57.839423,0 -92.771962,57.834784,0 -92.743316,57.832099,0 -92.730580,57.825751,0 -92.723622,57.816270,0 -92.714833,57.792914,0 -92.694692,57.766181,0 -92.669097,57.716498,0 -92.645009,57.695990,0 -92.615956,57.671251,0 -92.607737,57.658433,0 -92.601186,57.641669,0 -92.559234,57.586127,0 -92.558339,57.576483,0 -92.561350,57.553656,0 -92.559234,57.544542,0 -92.550201,57.538275,0 -92.519602,57.527167,0 -92.507721,57.520982,0 -92.502024,57.513983,0 -92.496653,57.504014,0 -92.492584,57.493883,0 -92.487294,57.474840,0 -92.478179,57.466498,0 -92.467030,57.458726,0 -92.456858,57.448961,0 -92.450836,57.432603,0 -92.442535,57.387641,0 -92.423573,57.354438,0 -92.422353,57.334174,0 -92.428944,57.291327,0 -92.439524,57.253282,0 -92.456776,57.222968,0 -92.542877,57.105780,0 -92.597157,57.048326,0 -92.665761,57.000556,0 -92.689320,56.970811,0 -92.704905,56.955390,0 -92.720693,56.948717,0 -92.761708,56.943590,0 -92.842641,56.920518,0 -92.881988,56.914537,0 -92.859771,56.907538,0 -92.725819,56.927436,0 -92.676584,56.941881,0 -92.538645,57.018907,0 -92.490956,57.038072,0 -92.278717,57.065375,0 -92.242421,57.074693,0 -92.230336,57.072821,0 -92.218129,57.062812,0 -92.223297,57.053900,0 -92.237172,57.047431,0 -92.251088,57.044908,0 -92.274281,57.037177,0 -92.340199,56.982856,0 -92.354807,56.976752,0 -92.371327,56.972480,0 -92.405670,56.969184,0 -92.423980,56.965440,0 -92.454335,56.947699,0 -92.470530,56.941881,0 -92.470530,56.935045,0 -92.418202,56.949530,0 -92.337392,56.959540,0 -92.313710,56.969591,0 -92.223500,57.021470,0 -92.112457,57.044135,0 -91.961659,57.060248,0 -91.766591,57.114691,0 -91.484975,57.169420,0 -91.210194,57.229071,0 -91.031117,57.264635,0 -90.853668,57.261094,0 -90.689117,57.229926,0 -90.609975,57.233222,0 -90.585520,57.229926,0 -90.515207,57.201646,0 -90.489898,57.195746,0 -90.435211,57.192613,0 -90.409291,57.187486,0 -90.387522,57.174628,0 -90.380605,57.154608,0 -90.315175,57.143622,0 -90.261301,57.115790,0 -90.168365,57.092719,0 -90.159291,57.082017,0 -90.154693,57.079047,0 -90.072255,57.060858,0 -90.057932,57.055162,0 -89.987782,57.013739,0 -89.962961,57.003974,0 -89.872711,56.997423,0 -89.827016,56.976020,0 -89.574696,56.944810,0 -89.512766,56.927069,0 -89.482533,56.921983,0 -89.393788,56.928168,0 -89.367014,56.922716,0 -89.315745,56.904242,0 -89.265614,56.896918,0 -89.188344,56.872992,0 -89.107289,56.869940,0 -89.088368,56.863349,0 -89.075063,56.854071,0 -89.056142,56.845526,0 -89.036244,56.842515,0 -89.020131,56.849677,0 -89.003489,56.853583,0 -88.947000,56.853217,0 -89.230310,56.681295,0 -89.480941,56.526679,0 -89.731210,56.371598,0 -89.980523,56.215070,0 -90.331302,55.992345,0 -90.681462,55.768586,0 -91.030640,55.543328,0 -91.378396,55.315978,0 -91.686259,55.110616,0 -91.992261,54.902179,0 -92.296738,54.691546,0 -92.600156,54.479647,0 -92.769345,54.360403,0 -92.937965,54.240359,0 -93.106275,54.119901,0 -93.274559,53.999262,0 -93.389462,53.914797,0 -93.503977,53.829583,0 -93.620171,53.746901,0 -93.740190,53.670006,0 -93.975473,53.530170,0 -94.210756,53.390411,0 -94.446064,53.250600,0 -94.681347,53.110789,0 -94.733463,53.079913,0 -94.785630,53.049165,0 -94.837642,53.018108,0 -94.889396,52.986637,0 -94.946550,52.951497,0 -95.003679,52.916305,0 -95.060859,52.881139,0 -95.118013,52.845948,0 -95.153773,52.821350,0 -95.153334,52.766624,0 -95.153618,52.373186,0 -95.153799,51.979670,0 -95.153928,51.586257,0 -95.154057,51.192819,0 -95.154057,50.892062,0 -95.154057,50.591176,0 -95.154057,50.290419,0 -95.154083,49.989559,0 -95.154083,49.879411,0 -95.154109,49.769236,0 -95.155401,49.696037,0 -95.156719,49.622811,0 -95.158398,49.533359,0 -95.160439,49.416777,0 -95.161195,49.373887,0 -95.160569,49.369494,0 -95.160337,49.313012,0 -95.160027,49.223353,0 -95.159665,49.109510,0 -95.159329,49.011790,0 -95.161887,49.001145,0 -95.168527,48.995047,0 -95.177106,48.992670,0 -95.396937,48.992670,0 -95.616717,48.992670,0 -95.836497,48.992670,0 -96.056328,48.992670,0 -96.276212,48.992670,0 -96.495992,48.992670,0 -96.715797,48.992670,0 -96.935603,48.992670,0 -97.155383,48.992670,0 -97.226089,48.992670,0</coordinates>
          </LinearRing>
        </outerBoundaryIs>
      </Polygon>
    </Placemark>
  </Document>
</kml>
