<?xml version='1.0' encoding='UTF-8'?>
<kml xmlns="http://www.opengis.net/kml/2.2">
  <Document>
    <name>Maritime Republic</name>
    <Placemark>
      <name>Maritime Republic</name>
      <Polygon>
        <outerBoundaryIs>
          <LinearRing>
            <coordinates>-65.559926,43.510810,0 -65.568674,43.494574,0 -65.574208,43.476711,0 -65.587148,43.463528,0 -65.597971,43.444729,0 -65.610585,43.428168,0 -65.628814,43.422065,0 -65.621409,43.435045,0 -65.626943,43.445136,0 -65.635365,43.453192,0 -65.645416,43.459174,0 -65.656117,43.463039,0 -65.646311,43.471747,0 -65.634511,43.476752,0 -65.607777,43.483466,0 -65.617055,43.507880,0 -65.605214,43.514106,0 -65.559926,43.510810,0</coordinates>
          </LinearRing>
        </outerBoundaryIs>
      </Polygon>
    </Placemark>
    <Placemark>
      <name>Maritime Republic</name>
      <Polygon>
        <outerBoundaryIs>
          <LinearRing>
            <coordinates>-66.217885,44.367377,0 -66.238678,44.338365,0 -66.298166,44.283271,0 -66.313466,44.250678,0 -66.327748,44.258124,0 -66.285797,44.324774,0 -66.257883,44.354641,0 -66.241770,44.377387,0 -66.231557,44.387193,0 -66.213002,44.395819,0 -66.203440,44.392239,0 -66.204457,44.381171,0 -66.217885,44.367377,0</coordinates>
          </LinearRing>
        </outerBoundaryIs>
      </Polygon>
    </Placemark>
    <Placemark>
      <name>Maritime Republic</name>
      <Polygon>
        <outerBoundaryIs>
          <LinearRing>
            <coordinates>-66.769453,44.795657,0 -66.756801,44.777563,0 -66.743160,44.782047,0 -66.732466,44.768824,0 -66.735491,44.759083,0 -66.752895,44.763855,0 -66.761486,44.754530,0 -66.753328,44.741761,0 -66.738637,44.710639,0 -66.728106,44.683535,0 -66.721134,44.662779,0 -66.707998,44.651334,0 -66.691784,44.642992,0 -66.687342,44.628857,0 -66.690391,44.620002,0 -66.708987,44.613741,0 -66.728313,44.622952,0 -66.732791,44.641068,0 -66.742829,44.653408,0 -66.754051,44.657342,0 -66.767701,44.653305,0 -66.783282,44.661205,0 -66.798173,44.659375,0 -66.809937,44.651802,0 -66.839091,44.650351,0 -66.858388,44.638007,0 -66.867014,44.629788,0 -66.876141,44.606331,0 -66.890291,44.602757,0 -66.905986,44.606169,0 -66.901438,44.630113,0 -66.891347,44.655585,0 -66.884592,44.688910,0 -66.865793,44.711249,0 -66.861480,44.726752,0 -66.851145,44.754706,0 -66.825754,44.787584,0 -66.791289,44.799104,0 -66.769453,44.795657,0</coordinates>
          </LinearRing>
        </outerBoundaryIs>
      </Polygon>
    </Placemark>
    <Placemark>
      <name>Maritime Republic</name>
      <Polygon>
        <outerBoundaryIs>
          <LinearRing>
            <coordinates>-66.919260,44.837307,0 -66.938791,44.838609,0 -66.955719,44.846422,0 -66.975250,44.860745,0 -66.981760,44.872463,0 -66.958323,44.877672,0 -66.954416,44.889390,0 -66.954416,44.899807,0 -66.946604,44.915432,0 -66.940094,44.925849,0 -66.933583,44.941474,0 -66.921864,44.947984,0 -66.904937,44.955797,0 -66.904937,44.946682,0 -66.903635,44.933661,0 -66.891916,44.921942,0 -66.893219,44.906317,0 -66.901031,44.889390,0 -66.916656,44.877672,0 -66.930979,44.869859,0 -66.920562,44.850328,0 -66.919260,44.837307,0</coordinates>
          </LinearRing>
        </outerBoundaryIs>
      </Polygon>
    </Placemark>
    <Placemark>
      <name>Maritime Republic</name>
      <Polygon>
        <outerBoundaryIs>
          <LinearRing>
            <coordinates>-67.014312,44.963609,0 -67.016916,44.979234,0 -67.005198,44.989651,0 -66.989573,45.001370,0 -66.973948,45.018297,0 -66.954416,45.027411,0 -66.938791,45.024807,0 -66.940094,45.011786,0 -66.945302,45.000067,0 -66.947906,44.983140,0 -66.963531,44.961005,0 -66.977854,44.936265,0 -66.985666,44.925849,0 -67.005198,44.947984,0 -67.014312,44.963609,0</coordinates>
          </LinearRing>
        </outerBoundaryIs>
      </Polygon>
    </Placemark>
    <Placemark>
      <name>Maritime Republic</name>
      <Polygon>
        <outerBoundaryIs>
          <LinearRing>
            <coordinates>-67.254986,45.205045,0 -67.267336,45.202513,0 -67.277207,45.195072,0 -67.279222,45.187372,0 -67.279584,45.179052,0 -67.284648,45.169699,0 -67.319220,45.153886,0 -67.356272,45.165926,0 -67.390533,45.193108,0 -67.427585,45.236568,0 -67.471303,45.266282,0 -67.475024,45.282353,0 -67.468668,45.301835,0 -67.459056,45.318424,0 -67.434561,45.350308,0 -67.428825,45.387050,0 -67.482310,45.455521,0 -67.493214,45.493142,0 -67.467531,45.508283,0 -67.443036,45.522184,0 -67.426190,45.533449,0 -67.422107,45.568796,0 -67.431306,45.597941,0 -67.449961,45.610809,0 -67.475799,45.612979,0 -67.506392,45.609827,0 -67.551867,45.610447,0 -67.607522,45.620059,0 -67.660336,45.637371,0 -67.690773,45.653804,0 -67.704829,45.664191,0 -67.710462,45.675404,0 -67.717386,45.685378,0 -67.727980,45.692251,0 -67.735525,45.690752,0 -67.740744,45.683621,0 -67.748031,45.677781,0 -67.761776,45.680107,0 -67.786116,45.691217,0 -67.800120,45.699847,0 -67.807045,45.712870,0 -67.811127,45.766510,0 -67.806270,45.781754,0 -67.794126,45.799169,0 -67.779863,45.815706,0 -67.772835,45.828057,0 -67.776091,45.840821,0 -67.792627,45.858907,0 -67.799242,45.875651,0 -67.787356,45.890017,0 -67.769425,45.903969,0 -67.757849,45.919472,0 -67.759658,45.928567,0 -67.767461,45.935957,0 -67.776556,45.942933,0 -67.782757,45.950530,0 -67.784566,45.960142,0 -67.787150,46.094552,0 -67.789733,46.229014,0 -67.792317,46.363476,0 -67.794849,46.497861,0 -67.797433,46.632297,0 -67.800017,46.766785,0 -67.802549,46.901247,0 -67.805185,47.035631,0 -67.808699,47.075138,0 -67.813556,47.081908,0 -67.854742,47.097850,0 -67.870607,47.107358,0 -67.899132,47.138778,0 -67.943419,47.164538,0 -67.949982,47.172936,0 -67.953703,47.186630,0 -67.962436,47.197689,0 -67.993184,47.223217,0 -68.039382,47.245231,0 -68.101446,47.286185,0 -68.115398,47.292282,0 -68.145061,47.301455,0 -68.156068,47.306674,0 -68.184335,47.333133,0 -68.197047,47.341401,0 -68.246450,47.360573,0 -68.299728,47.367833,0 -68.347839,47.358506,0 -68.382049,47.327810,0 -68.384839,47.315873,0 -68.383392,47.307139,0 -68.385614,47.301713,0 -68.410212,47.297424,0 -68.422563,47.293109,0 -68.435327,47.291275,0 -68.466746,47.305692,0 -68.492016,47.307553,0 -68.518009,47.304762,0 -68.539662,47.299853,0 -68.585240,47.282490,0 -68.607926,47.269829,0 -68.625600,47.255205,0 -68.644203,47.245283,0 -68.668801,47.243422,0 -68.717790,47.245231,0 -68.761819,47.237040,0 -68.889718,47.190609,0 -68.906229,47.190221,0 -69.040200,47.249055,0 -69.057486,47.269467,0 -69.063560,47.290809,0 -69.054384,47.294219,0 -68.983303,47.315200,0 -68.910000,47.329850,0 -68.836439,47.343777,0 -68.764634,47.362639,0 -68.719443,47.377574,0 -68.674252,47.392405,0 -68.629061,47.407288,0 -68.583844,47.422248,0 -68.552683,47.436872,0 -68.522324,47.457414,0 -68.493049,47.480100,0 -68.464989,47.501003,0 -68.436334,47.518392,0 -68.408093,47.536298,0 -68.386828,47.558286,0 -68.379154,47.587948,0 -68.377862,47.608076,0 -68.377862,47.629212,0 -68.377862,47.666574,0 -68.377862,47.703962,0 -68.377862,47.741376,0 -68.377862,47.778764,0 -68.377862,47.816151,0 -68.377862,47.853565,0 -68.377862,47.890927,0 -68.377862,47.928341,0 -68.344815,47.928341,0 -68.311768,47.928341,0 -68.278721,47.928341,0 -68.245674,47.928341,0 -68.212601,47.928341,0 -68.179554,47.928341,0 -68.146507,47.928341,0 -68.113460,47.928341,0 -68.113460,47.936997,0 -68.113460,47.945653,0 -68.113460,47.954283,0 -68.113460,47.962964,0 -68.113460,47.971594,0 -68.113460,47.980250,0 -68.113460,47.988906,0 -68.113460,47.997536,0 -68.052766,47.997536,0 -67.992098,47.997536,0 -67.931429,47.997536,0 -67.870761,47.997536,0 -67.810093,47.997536,0 -67.749425,47.997536,0 -67.688757,47.997536,0 -67.628115,47.997536,0 -67.612844,47.997536,0 -67.611501,47.992420,0 -67.609227,47.980948,0 -67.607005,47.968752,0 -67.605765,47.961750,0 -67.606772,47.950924,0 -67.608943,47.943327,0 -67.605971,47.938056,0 -67.591579,47.934335,0 -67.566904,47.930356,0 -67.543934,47.925705,0 -67.521196,47.919814,0 -67.497063,47.911934,0 -67.482723,47.906068,0 -67.468641,47.899557,0 -67.454482,47.893304,0 -67.439806,47.888395,0 -67.431357,47.886276,0 -67.422933,47.884106,0 -67.414872,47.881264,0 -67.407146,47.877130,0 -67.401720,47.870980,0 -67.398852,47.863280,0 -67.396165,47.855736,0 -67.391307,47.849896,0 -67.363712,47.839277,0 -67.350896,47.849586,0 -67.343843,47.869792,0 -67.333559,47.888938,0 -67.319891,47.896147,0 -67.304439,47.895836,0 -67.288368,47.892581,0 -67.272684,47.890927,0 -67.257724,47.892426,0 -67.246045,47.894054,0 -67.234211,47.893744,0 -67.218682,47.889377,0 -67.202869,47.885295,0 -67.188038,47.884984,0 -67.173259,47.887465,0 -67.157601,47.891599,0 -67.144139,47.896379,0 -67.133855,47.901676,0 -67.124502,47.907412,0 -67.113831,47.913406,0 -67.095176,47.920977,0 -67.073136,47.926636,0 -67.050372,47.929064,0 -67.029650,47.926997,0 -67.012312,47.917851,0 -66.987353,47.903407,0 -66.961644,47.894545,0 -66.941903,47.902296,0 -66.939242,47.917127,0 -66.945676,47.932113,0 -66.949396,47.948598,0 -66.938518,47.967822,0 -66.919140,47.981490,0 -66.894180,47.992084,0 -66.867696,47.997742,0 -66.843563,47.996735,0 -66.843007,47.996812,0 -66.834096,47.992906,0 -66.817535,47.991523,0 -66.786448,47.992174,0 -66.749908,47.985785,0 -66.731516,47.986518,0 -66.685780,48.007636,0 -66.613515,48.010850,0 -66.584381,48.023179,0 -66.557607,48.038194,0 -66.385894,48.075141,0 -66.355295,48.069281,0 -66.361928,48.040595,0 -66.345123,48.021430,0 -66.319000,48.011054,0 -66.289377,48.006659,0 -66.261952,48.005845,0 -66.254221,48.001085,0 -66.246734,47.991767,0 -66.238352,47.985175,0 -66.215932,47.993232,0 -66.202260,47.990180,0 -66.176910,47.979112,0 -65.970855,47.923896,0 -65.866119,47.916938,0 -65.817860,47.907416,0 -65.772206,47.882921,0 -65.741200,47.848578,0 -65.689687,47.724677,0 -65.677846,47.708686,0 -65.663645,47.695502,0 -65.628814,47.670640,0 -65.663645,47.657457,0 -65.669179,47.656358,0 -65.667104,47.645331,0 -65.658111,47.637641,0 -65.646311,47.630805,0 -65.635732,47.622260,0 -65.606068,47.656440,0 -65.591054,47.669176,0 -65.566762,47.677476,0 -65.499013,47.679267,0 -65.477406,47.683702,0 -65.437367,47.706244,0 -65.363637,47.762030,0 -65.284983,47.781684,0 -65.209340,47.819688,0 -65.025746,47.849595,0 -64.977773,47.841986,0 -65.054555,47.803046,0 -65.073354,47.779893,0 -65.060658,47.781317,0 -65.039662,47.786241,0 -64.990224,47.790635,0 -64.906117,47.810736,0 -64.856272,47.815863,0 -64.826283,47.815497,0 -64.800038,47.809272,0 -64.785959,47.793565,0 -64.789703,47.771308,0 -64.809438,47.761420,0 -64.860463,47.759385,0 -64.860463,47.752550,0 -64.842030,47.748114,0 -64.802642,47.745958,0 -64.785959,47.738959,0 -64.783355,47.733222,0 -64.782338,47.716620,0 -64.778472,47.711005,0 -64.763905,47.708075,0 -64.757680,47.714911,0 -64.756907,47.723090,0 -64.758656,47.724677,0 -64.757436,47.732245,0 -64.760813,47.745469,0 -64.758656,47.752550,0 -64.753000,47.757270,0 -64.735707,47.764472,0 -64.730784,47.765611,0 -64.718251,47.761583,0 -64.680165,47.741319,0 -64.668609,47.732123,0 -64.684885,47.722724,0 -64.739369,47.701402,0 -64.751210,47.700751,0 -64.757639,47.686387,0 -64.773346,47.683295,0 -64.793365,47.683051,0 -64.812611,47.677476,0 -64.809153,47.674547,0 -64.799631,47.663804,0 -64.808705,47.658637,0 -64.811757,47.653266,0 -64.808705,47.647935,0 -64.799631,47.642686,0 -64.814036,47.621568,0 -64.828847,47.605943,0 -64.867828,47.574449,0 -64.875844,47.570502,0 -64.884836,47.567206,0 -64.892161,47.561510,0 -64.895172,47.550238,0 -64.895497,47.542589,0 -64.897125,47.537055,0 -64.908844,47.519843,0 -64.874094,47.519843,0 -64.889556,47.499701,0 -64.924469,47.467475,0 -64.929311,47.450914,0 -64.915151,47.464789,0 -64.902008,47.471503,0 -64.887115,47.476549,0 -64.867828,47.485704,0 -64.893219,47.421861,0 -64.908844,47.355333,0 -64.912262,47.365790,0 -64.911692,47.375922,0 -64.907948,47.385972,0 -64.905873,47.394477,0 -64.908844,47.402533,0 -64.927887,47.393378,0 -64.939117,47.378770,0 -64.948150,47.361640,0 -64.960357,47.344794,0 -64.961741,47.331936,0 -64.958404,47.312323,0 -64.959625,47.294298,0 -64.973988,47.286444,0 -65.019928,47.282375,0 -65.042958,47.275214,0 -65.061269,47.251939,0 -65.098459,47.236436,0 -65.106842,47.221584,0 -65.122548,47.202745,0 -65.331451,47.100572,0 -65.367543,47.094631,0 -65.367543,47.087795,0 -65.284332,47.080878,0 -65.244781,47.081895,0 -65.203033,47.094631,0 -65.204579,47.080471,0 -65.210276,47.064765,0 -65.213206,47.052069,0 -65.206451,47.046780,0 -65.149037,47.053697,0 -65.063100,47.090562,0 -65.032338,47.094631,0 -65.015004,47.088528,0 -64.998280,47.065050,0 -64.984527,47.059882,0 -64.965240,47.063096,0 -64.954661,47.070787,0 -64.947092,47.080064,0 -64.936757,47.087795,0 -64.908559,47.092760,0 -64.825429,47.089097,0 -64.799631,47.081610,0 -64.825510,47.063544,0 -64.821116,47.041368,0 -64.807607,47.015245,0 -64.806467,46.985419,0 -64.816884,46.977118,0 -64.852651,46.962714,0 -64.895172,46.916490,0 -64.905832,46.886868,0 -64.904368,46.858751,0 -64.894887,46.832099,0 -64.881500,46.806627,0 -64.864898,46.783189,0 -64.844309,46.763170,0 -64.792144,46.724718,0 -64.818918,46.724758,0 -64.839426,46.716864,0 -64.851918,46.700832,0 -64.854237,46.676337,0 -64.847401,46.676337,0 -64.832672,46.699368,0 -64.801910,46.695624,0 -64.751210,46.670071,0 -64.757924,46.690294,0 -64.749176,46.699815,0 -64.732167,46.698798,0 -64.713612,46.687161,0 -64.706776,46.672268,0 -64.705393,46.651760,0 -64.710276,46.614854,0 -64.719838,46.576321,0 -64.717397,46.555976,0 -64.700307,46.547227,0 -64.690256,46.538642,0 -64.679758,46.519599,0 -64.677724,46.500556,0 -64.693186,46.492011,0 -64.702138,46.489814,0 -64.708730,46.485093,0 -64.711090,46.480455,0 -64.707143,46.478339,0 -64.701894,46.476467,0 -64.694203,46.467434,0 -64.689768,46.464016,0 -64.682200,46.463365,0 -64.676869,46.466457,0 -64.672760,46.470038,0 -64.668609,46.470852,0 -64.654652,46.463690,0 -64.636220,46.450792,0 -64.620229,46.435126,0 -64.613393,46.419298,0 -64.614613,46.382229,0 -64.618804,46.367987,0 -64.627675,46.354153,0 -64.645497,46.340399,0 -64.663564,46.336737,0 -64.682851,46.335110,0 -64.704010,46.327501,0 -64.683420,46.328518,0 -64.672597,46.327379,0 -64.665191,46.323798,0 -64.657216,46.321031,0 -64.647206,46.324368,0 -64.627675,46.333645,0 -64.588938,46.335354,0 -64.574941,46.338690,0 -64.579905,46.347968,0 -64.558502,46.369127,0 -64.536529,46.351467,0 -64.523427,46.321601,0 -64.528391,46.305732,0 -64.555328,46.298570,0 -64.563588,46.279690,0 -64.559397,46.223782,0 -64.535024,46.234971,0 -64.514027,46.239407,0 -64.405426,46.238105,0 -64.399159,46.236070,0 -64.387522,46.226671,0 -64.380605,46.223782,0 -64.370351,46.223741,0 -64.362620,46.226142,0 -64.355540,46.229153,0 -64.347157,46.231269,0 -64.253285,46.234442,0 -64.237294,46.231269,0 -64.185048,46.210191,0 -64.162750,46.195136,0 -64.169057,46.183458,0 -64.161285,46.170030,0 -64.151275,46.166327,0 -64.127431,46.169827,0 -64.126698,46.174140,0 -64.119293,46.182278,0 -64.110911,46.186835,0 -64.104115,46.173936,0 -64.097320,46.168524,0 -64.082672,46.159288,0 -64.078033,46.163479,0 -64.049672,46.178941,0 -64.037994,46.183458,0 -64.022572,46.185289,0 -63.973215,46.183458,0 -63.946278,46.178778,0 -63.894276,46.156643,0 -63.813059,46.140286,0 -63.790273,46.130968,0 -63.771108,46.115220,0 -63.791819,46.099514,0 -63.812978,46.093858,0 -63.860463,46.087266,0 -63.866526,46.082913,0 -63.885365,46.065741,0 -63.894643,46.059963,0 -63.905588,46.058010,0 -64.063791,46.061754,0 -64.072743,46.059963,0 -64.076487,46.053534,0 -64.076487,46.044582,0 -64.079701,46.036526,0 -64.093251,46.032620,0 -64.083852,46.022366,0 -64.052317,46.001370,0 -64.042725,45.991981,0 -64.041860,45.991116,0 -64.033559,45.995266,0 -64.024241,46.001817,0 -64.017568,46.005357,0 -64.007721,46.005032,0 -63.904856,45.980333,0 -63.870269,45.962470,0 -63.866689,45.936428,0 -63.844594,45.934231,0 -63.824859,45.925198,0 -63.810902,45.909776,0 -63.805898,45.888658,0 -63.786448,45.890733,0 -63.758941,45.885403,0 -63.732493,45.876614,0 -63.715891,45.868150,0 -63.727122,45.861721,0 -63.746490,45.853664,0 -63.757476,45.847032,0 -63.736155,45.841864,0 -63.690297,45.853095,0 -63.668691,45.847032,0 -63.674184,45.836412,0 -63.674184,45.827623,0 -63.669749,45.823391,0 -63.661855,45.826565,0 -63.652252,45.836819,0 -63.653391,45.842760,0 -63.658681,45.850084,0 -63.661855,45.864407,0 -63.659088,45.873847,0 -63.652577,45.874579,0 -63.644602,45.870347,0 -63.637685,45.864407,0 -63.628774,45.862291,0 -63.593007,45.875067,0 -63.491933,45.882636,0 -63.439117,45.875596,0 -63.408599,45.854478,0 -63.427846,45.853664,0 -63.463775,45.860419,0 -63.483144,45.860704,0 -63.470286,45.852362,0 -63.438059,45.838446,0 -63.428538,45.826565,0 -63.447581,45.821357,0 -63.483998,45.826158,0 -63.504262,45.826565,0 -63.522817,45.819444,0 -63.515940,45.810899,0 -63.496327,45.806952,0 -63.476918,45.813544,0 -63.468984,45.808417,0 -63.461049,45.806016,0 -63.452382,45.805487,0 -63.442209,45.806057,0 -63.438059,45.805284,0 -63.431264,45.800767,0 -63.428538,45.799872,0 -63.424957,45.802232,0 -63.418528,45.811428,0 -63.415435,45.813544,0 -63.399159,45.811754,0 -63.369537,45.802558,0 -63.353993,45.799872,0 -63.323964,45.803697,0 -63.291371,45.812079,0 -63.259104,45.815904,0 -63.229848,45.806057,0 -63.257965,45.791368,0 -63.301666,45.775539,0 -63.347239,45.766506,0 -63.380727,45.771959,0 -63.372792,45.757188,0 -63.355946,45.748114,0 -63.312408,45.737169,0 -63.303782,45.732245,0 -63.294789,45.725653,0 -63.287953,45.724189,0 -63.285146,45.734442,0 -63.281646,45.741116,0 -63.273590,45.747870,0 -63.257192,45.758897,0 -63.257436,45.753526,0 -63.256703,45.742499,0 -63.257192,45.737169,0 -63.211659,45.760077,0 -63.195709,45.765123,0 -63.195627,45.767483,0 -63.194488,45.772528,0 -63.192372,45.777248,0 -63.188873,45.778795,0 -63.183949,45.775865,0 -63.181711,45.771308,0 -63.182200,45.766262,0 -63.185170,45.762030,0 -63.199696,45.752997,0 -63.205230,45.745917,0 -63.202545,45.737169,0 -63.189809,45.736396,0 -63.134348,45.758897,0 -63.117299,45.763007,0 -63.100453,45.764635,0 -63.083363,45.763495,0 -63.065419,45.758897,0 -63.070465,45.778428,0 -63.084055,45.790269,0 -63.120676,45.806057,0 -63.100657,45.811347,0 -62.979970,45.795966,0 -62.924672,45.782620,0 -62.777415,45.765123,0 -62.750844,45.765530,0 -62.699574,45.772447,0 -62.674957,45.771959,0 -62.695953,45.760810,0 -62.717681,45.760403,0 -62.738596,45.762519,0 -62.756947,45.758897,0 -62.739003,45.748358,0 -62.728831,45.744371,0 -62.698883,45.744615,0 -62.682362,45.742092,0 -62.664540,45.735582,0 -62.647532,45.726711,0 -62.633412,45.717353,0 -62.702992,45.686916,0 -62.750966,45.681220,0 -62.770579,45.674425,0 -62.784291,45.661770,0 -62.791656,45.642239,0 -62.780670,45.652940,0 -62.765004,45.661729,0 -62.748769,45.664049,0 -62.736440,45.655260,0 -62.747548,45.627102,0 -62.749745,45.612860,0 -62.739858,45.618028,0 -62.719879,45.645413,0 -62.706614,45.655585,0 -62.691762,45.652167,0 -62.669097,45.630683,0 -62.656809,45.627753,0 -62.647043,45.642239,0 -62.664052,45.647040,0 -62.672353,45.656236,0 -62.672434,45.667833,0 -62.664703,45.679796,0 -62.655263,45.681952,0 -62.640370,45.681138,0 -62.624745,45.682278,0 -62.612904,45.690660,0 -62.600494,45.686184,0 -62.577463,45.685858,0 -62.565745,45.683173,0 -62.557525,45.677883,0 -62.550282,45.666856,0 -62.544667,45.662706,0 -62.526357,45.658271,0 -62.510569,45.659166,0 -62.494700,45.661851,0 -62.475738,45.662706,0 -62.502594,45.631008,0 -62.509145,45.614976,0 -62.493398,45.608059,0 -62.470448,45.614488,0 -62.435211,45.642686,0 -62.418040,45.649075,0 -62.399810,45.652899,0 -62.376943,45.662177,0 -62.361684,45.673326,0 -62.370961,45.682522,0 -62.383372,45.680080,0 -62.404693,45.675116,0 -62.441640,45.655260,0 -62.416127,45.679104,0 -62.270334,45.703721,0 -62.060048,45.807969,0 -61.988840,45.863023,0 -61.948801,45.881822,0 -61.924306,45.889146,0 -61.911488,45.888983,0 -61.900380,45.881822,0 -61.897369,45.871649,0 -61.905344,45.865546,0 -61.916086,45.859849,0 -61.921457,45.850735,0 -61.919993,45.829942,0 -61.909006,45.786933,0 -61.887847,45.737698,0 -61.886342,45.721055,0 -61.894154,45.703721,0 -61.876291,45.692694,0 -61.836497,45.681220,0 -61.821523,45.672675,0 -61.806630,45.659491,0 -61.794911,45.652899,0 -61.725901,45.627550,0 -61.707834,45.623277,0 -61.684397,45.621731,0 -61.668202,45.626614,0 -61.655141,45.635891,0 -61.642161,45.641506,0 -61.626047,45.635403,0 -61.632924,45.636054,0 -61.648508,45.634182,0 -61.648061,45.626817,0 -61.640370,45.621324,0 -61.619781,45.614325,0 -61.618804,45.622463,0 -61.615468,45.631659,0 -61.609934,45.639146,0 -61.602122,45.642239,0 -61.589019,45.645413,0 -61.583485,45.653225,0 -61.580556,45.663194,0 -61.575103,45.672675,0 -61.558013,45.683661,0 -61.537099,45.688870,0 -61.492543,45.690660,0 -61.470530,45.683092,0 -61.437245,45.649807,0 -61.417470,45.642239,0 -61.399973,45.632636,0 -61.384429,45.611477,0 -61.369740,45.580797,0 -61.358876,45.577704,0 -61.351389,45.570054,0 -61.338694,45.552843,0 -61.323720,45.542060,0 -61.262929,45.511868,0 -61.246897,45.507310,0 -61.239817,45.508368,0 -61.237213,45.505764,0 -61.234975,45.490790,0 -61.236806,45.468004,0 -61.248525,45.453111,0 -61.267323,45.443427,0 -61.352895,45.413398,0 -61.372792,45.408840,0 -61.374094,45.421251,0 -61.388092,45.418036,0 -61.405670,45.407538,0 -61.417470,45.398586,0 -61.429840,45.391995,0 -61.482655,45.374742,0 -61.461537,45.354844,0 -61.450754,45.349351,0 -61.136871,45.354234,0 -61.119618,45.352118,0 -61.081776,45.342678,0 -60.998647,45.333157,0 -60.982330,45.326321,0 -60.971181,45.313870,0 -60.970611,45.301744,0 -60.972564,45.288235,0 -60.968658,45.271633,0 -60.983062,45.271308,0 -60.987131,45.277004,0 -60.988759,45.285305,0 -60.996002,45.292141,0 -61.006947,45.294257,0 -61.017079,45.293687,0 -61.026967,45.294338,0 -61.036977,45.299628,0 -61.028554,45.285305,0 -61.023346,45.278469,0 -61.016469,45.271633,0 -61.024078,45.263007,0 -61.031321,45.260850,0 -61.038808,45.259833,0 -61.047231,45.254625,0 -61.053456,45.244534,0 -61.056630,45.235989,0 -61.062978,45.232530,0 -61.078521,45.237535,0 -61.071156,45.223944,0 -61.119740,45.213446,0 -61.139394,45.218004,0 -61.153066,45.237535,0 -61.142201,45.245022,0 -61.133453,45.252834,0 -61.126129,45.261623,0 -61.119537,45.271633,0 -61.164703,45.263658,0 -61.174794,45.258043,0 -61.179799,45.242499,0 -61.170725,45.215725,0 -61.174794,45.202786,0 -61.184234,45.208482,0 -61.188059,45.215440,0 -61.189931,45.223049,0 -61.196685,45.235256,0 -61.204254,45.245754,0 -61.212066,45.252997,0 -61.215728,45.247707,0 -61.246002,45.239488,0 -61.263051,45.239163,0 -61.262929,45.251125,0 -61.278554,45.254014,0 -61.298736,45.247911,0 -61.331776,45.230699,0 -61.350575,45.217353,0 -61.365061,45.201239,0 -61.364613,45.189602,0 -61.338694,45.189765,0 -61.354644,45.177639,0 -61.371002,45.168850,0 -61.389150,45.163560,0 -61.567860,45.147121,0 -61.610585,45.150621,0 -61.639638,45.175442,0 -61.647288,45.156846,0 -61.665883,45.163967,0 -61.687123,45.175360,0 -61.702382,45.169257,0 -61.685658,45.161933,0 -61.666168,45.149319,0 -61.649159,45.134630,0 -61.639638,45.120836,0 -61.649526,45.121568,0 -61.658193,45.120347,0 -61.674428,45.114651,0 -61.639638,45.093573,0 -61.639638,45.087307,0 -61.677235,45.088487,0 -61.694936,45.091417,0 -61.702382,45.097276,0 -61.704335,45.107042,0 -61.708648,45.107245,0 -61.715443,45.100979,0 -61.756418,45.100979,0 -61.754547,45.094143,0 -61.755035,45.088772,0 -61.756174,45.084296,0 -61.756418,45.079901,0 -61.781361,45.092353,0 -61.809722,45.100938,0 -61.825266,45.099026,0 -61.811635,45.079901,0 -61.822092,45.077948,0 -61.846018,45.080227,0 -61.859364,45.079901,0 -61.859364,45.073065,0 -61.850819,45.070461,0 -61.841624,45.064521,0 -61.836171,45.056138,0 -61.838938,45.046373,0 -61.847646,45.044786,0 -61.880483,45.053209,0 -61.886708,45.046373,0 -61.882395,45.034166,0 -61.896881,45.030666,0 -61.918446,45.036770,0 -61.935170,45.053209,0 -61.941518,45.033108,0 -61.941314,45.024644,0 -61.959462,45.036485,0 -61.975738,45.036038,0 -61.990549,45.026516,0 -62.004018,45.010972,0 -62.005727,45.016343,0 -62.007924,45.020738,0 -62.009755,45.025539,0 -62.010243,45.032131,0 -62.020253,45.026109,0 -62.029408,45.019355,0 -62.038971,45.013577,0 -62.050608,45.010972,0 -62.034657,45.004055,0 -61.976064,44.991116,0 -61.988840,44.984931,0 -62.003489,44.982815,0 -62.018219,44.984849,0 -62.031321,44.991116,0 -62.042144,44.982408,0 -62.057525,44.975491,0 -62.073394,44.972968,0 -62.085927,44.977444,0 -62.097808,44.973456,0 -62.118723,44.969713,0 -62.138539,44.968817,0 -62.147369,44.973782,0 -62.151519,44.975165,0 -62.173980,44.960435,0 -62.184926,44.956366,0 -62.233754,44.959296,0 -62.254547,44.952012,0 -62.270334,44.929063,0 -62.277740,44.936510,0 -62.290028,44.927232,0 -62.306142,44.920071,0 -62.321604,44.917548,0 -62.331776,44.922268,0 -62.339182,44.922268,0 -62.340240,44.917792,0 -62.341868,44.914944,0 -62.343861,44.912421,0 -62.346018,44.908596,0 -62.343007,44.905260,0 -62.342030,44.903306,0 -62.339182,44.894924,0 -62.361155,44.902167,0 -62.377349,44.909980,0 -62.393422,44.910264,0 -62.414906,44.894924,0 -62.410390,44.891913,0 -62.405670,44.885810,0 -62.400624,44.881252,0 -62.420400,44.878241,0 -62.437164,44.868516,0 -62.447662,44.853176,0 -62.448394,44.833482,0 -62.467152,44.841376,0 -62.472768,44.858995,0 -62.473134,44.880764,0 -62.475738,44.901109,0 -62.490468,44.881415,0 -62.507151,44.863389,0 -62.527089,44.855862,0 -62.551503,44.867580,0 -62.565745,44.840237,0 -62.555287,44.832750,0 -62.546620,44.825019,0 -62.530995,44.806220,0 -62.552724,44.800116,0 -62.577789,44.833401,0 -62.599233,44.826646,0 -62.606760,44.837144,0 -62.623199,44.830308,0 -62.661366,44.806220,0 -62.653920,44.792548,0 -62.687245,44.802110,0 -62.805328,44.785061,0 -62.798818,44.771837,0 -62.802602,44.761094,0 -62.812896,44.753974,0 -62.825836,44.751573,0 -62.821360,44.743638,0 -62.815175,44.737616,0 -62.807362,44.733018,0 -62.797922,44.729804,0 -62.819244,44.720608,0 -62.830434,44.717760,0 -62.842600,44.716783,0 -62.851471,44.722968,0 -62.857574,44.733751,0 -62.863840,44.737860,0 -62.873606,44.723619,0 -62.887441,44.731309,0 -62.908559,44.738023,0 -62.930247,44.740058,0 -62.945627,44.733507,0 -62.972564,44.717434,0 -62.989491,44.711005,0 -62.997141,44.713690,0 -62.997874,44.722317,0 -62.999623,44.727200,0 -63.001861,44.731269,0 -63.003977,44.737291,0 -63.002919,44.765286,0 -63.003977,44.771389,0 -63.018544,44.777981,0 -63.047027,44.766221,0 -63.058583,44.778225,0 -63.059316,44.763251,0 -63.050282,44.750474,0 -63.020985,44.726711,0 -63.014027,44.710598,0 -63.024322,44.696845,0 -63.058583,44.675198,0 -63.062856,44.688625,0 -63.061431,44.704657,0 -63.063059,44.718004,0 -63.075917,44.723619,0 -63.095611,44.729153,0 -63.101959,44.742662,0 -63.099517,44.774807,0 -63.102651,44.784003,0 -63.110219,44.789862,0 -63.119374,44.790676,0 -63.127431,44.785061,0 -63.125071,44.782131,0 -63.120676,44.751573,0 -63.123891,44.734849,0 -63.136790,44.706773,0 -63.140492,44.688870,0 -63.153920,44.695543,0 -63.160471,44.705675,0 -63.160553,44.717678,0 -63.154775,44.729804,0 -63.173248,44.721055,0 -63.183176,44.691636,0 -63.202545,44.682685,0 -63.213938,44.681220,0 -63.214101,44.683010,0 -63.211822,44.689805,0 -63.216217,44.703192,0 -63.232330,44.726671,0 -63.236684,44.737291,0 -63.249827,44.725938,0 -63.253245,44.711493,0 -63.248402,44.697659,0 -63.236684,44.688870,0 -63.249745,44.672675,0 -63.281321,44.643459,0 -63.285146,44.627427,0 -63.317128,44.636135,0 -63.389068,44.643134,0 -63.415435,44.655341,0 -63.402577,44.664618,0 -63.396555,44.667060,0 -63.387563,44.668362,0 -63.399037,44.682034,0 -63.416900,44.682929,0 -63.455800,44.668362,0 -63.434885,44.659288,0 -63.420644,44.648261,0 -63.415435,44.633612,0 -63.421702,44.613756,0 -63.438954,44.596340,0 -63.456370,44.600735,0 -63.476064,44.613389,0 -63.510162,44.624091,0 -63.538401,44.647854,0 -63.573638,44.665595,0 -63.632639,44.712958,0 -63.644114,44.717271,0 -63.661855,44.716783,0 -63.648997,44.687567,0 -63.640126,44.676174,0 -63.627756,44.668362,0 -63.620351,44.667060,0 -63.596425,44.668362,0 -63.587554,44.664171,0 -63.573964,44.645901,0 -63.568756,44.641710,0 -63.563547,44.634833,0 -63.548573,44.602932,0 -63.545155,44.593329,0 -63.545725,44.574205,0 -63.548085,44.561428,0 -63.546498,44.550116,0 -63.523264,44.518134,0 -63.523793,44.503241,0 -63.533315,44.488878,0 -63.548573,44.473212,0 -63.554067,44.470282,0 -63.573394,44.464179,0 -63.579335,44.463528,0 -63.586903,44.469062,0 -63.584625,44.474962,0 -63.579701,44.480333,0 -63.579335,44.484036,0 -63.596181,44.487372,0 -63.604644,44.476915,0 -63.609934,44.463039,0 -63.620717,44.452704,0 -63.625885,44.445868,0 -63.632802,44.440741,0 -63.641428,44.442450,0 -63.643707,44.449612,0 -63.638987,44.458401,0 -63.631988,44.466132,0 -63.627756,44.469794,0 -63.641591,44.475938,0 -63.658111,44.475206,0 -63.692860,44.469794,0 -63.700836,44.467597,0 -63.702748,44.462958,0 -63.705556,44.458238,0 -63.715891,44.456122,0 -63.720774,44.460679,0 -63.724110,44.469468,0 -63.728627,44.475002,0 -63.736928,44.469794,0 -63.749338,44.474270,0 -63.758372,44.481350,0 -63.763580,44.491360,0 -63.764882,44.504503,0 -63.774281,44.493557,0 -63.783315,44.477851,0 -63.793365,44.468411,0 -63.805898,44.476630,0 -63.809438,44.490139,0 -63.804026,44.503241,0 -63.784779,44.531846,0 -63.793080,44.526272,0 -63.805287,44.514553,0 -63.812123,44.511339,0 -63.819895,44.513780,0 -63.826039,44.520494,0 -63.833974,44.524482,0 -63.846832,44.518704,0 -63.844472,44.514879,0 -63.840077,44.504503,0 -63.853668,44.504299,0 -63.874013,44.498603,0 -63.887807,44.497056,0 -63.900543,44.498114,0 -63.912221,44.500963,0 -63.922027,44.505520,0 -63.929433,44.511339,0 -63.942494,44.534044,0 -63.941721,44.554307,0 -63.921986,44.593329,0 -63.928578,44.600002,0 -63.943023,44.620510,0 -63.924713,44.628811,0 -63.918609,44.634141,0 -63.915110,44.641710,0 -63.919545,44.642564,0 -63.929433,44.647854,0 -63.902170,44.666490,0 -63.890859,44.679796,0 -63.888417,44.696357,0 -63.906728,44.683661,0 -63.925852,44.674709,0 -63.989613,44.655829,0 -64.000803,44.655341,0 -64.056956,44.638821,0 -64.065989,44.634263,0 -64.060211,44.621243,0 -64.061920,44.586656,0 -64.052602,44.579657,0 -64.036692,44.570909,0 -64.024973,44.550686,0 -64.011342,44.511339,0 -64.041249,44.522610,0 -64.055572,44.508857,0 -64.063873,44.487616,0 -64.075836,44.476630,0 -64.097076,44.474718,0 -64.106191,44.477607,0 -64.117502,44.487454,0 -64.123647,44.515611,0 -64.124013,44.521877,0 -64.118764,44.537502,0 -64.128041,44.554918,0 -64.144846,44.570217,0 -64.162180,44.579657,0 -64.178090,44.582139,0 -64.197621,44.580308,0 -64.211497,44.571357,0 -64.210561,44.552314,0 -64.227366,44.537014,0 -64.252756,44.543769,0 -64.280832,44.558173,0 -64.305531,44.565985,0 -64.300689,44.560899,0 -64.292551,44.545478,0 -64.303863,44.542629,0 -64.304840,44.536038,0 -64.301259,44.526516,0 -64.298736,44.515041,0 -64.301340,44.502590,0 -64.308013,44.492296,0 -64.316884,44.483710,0 -64.326039,44.476630,0 -64.317738,44.476426,0 -64.298736,44.469794,0 -64.310414,44.464911,0 -64.353912,44.456122,0 -64.353668,44.445136,0 -64.343902,44.437608,0 -64.335601,44.429104,0 -64.339711,44.415147,0 -64.296864,44.417060,0 -64.275299,44.415432,0 -64.257721,44.408922,0 -64.275014,44.407131,0 -64.288238,44.400946,0 -64.299875,44.393297,0 -64.312367,44.387193,0 -64.312367,44.381008,0 -64.260650,44.380276,0 -64.235585,44.376614,0 -64.210561,44.367336,0 -64.227935,44.360500,0 -64.246205,44.361314,0 -64.281646,44.367336,0 -64.347157,44.367336,0 -64.347157,44.360500,0 -64.339711,44.356065,0 -64.335764,44.349840,0 -64.335683,44.341864,0 -64.339711,44.332587,0 -64.325836,44.330146,0 -64.315175,44.323798,0 -64.305043,44.320380,0 -64.292551,44.326321,0 -64.297719,44.329332,0 -64.307281,44.337022,0 -64.312367,44.339993,0 -64.301666,44.343126,0 -64.291127,44.341295,0 -64.264556,44.332587,0 -64.289703,44.303778,0 -64.288808,44.299140,0 -64.237294,44.299140,0 -64.269032,44.267076,0 -64.286610,44.258612,0 -64.305531,44.271796,0 -64.312367,44.264309,0 -64.330556,44.276353,0 -64.339223,44.283759,0 -64.347157,44.292222,0 -64.337514,44.297675,0 -64.333485,44.299140,0 -64.408925,44.328518,0 -64.429067,44.339993,0 -64.418528,44.326239,0 -64.401601,44.312974,0 -64.382151,44.303046,0 -64.363881,44.299140,0 -64.359039,44.295640,0 -64.357289,44.287665,0 -64.357900,44.278469,0 -64.360178,44.271796,0 -64.367502,44.264146,0 -64.425649,44.233873,0 -64.431223,44.225572,0 -64.434397,44.207750,0 -64.439605,44.199123,0 -64.448883,44.193101,0 -64.469228,44.187364,0 -64.477447,44.182359,0 -64.483022,44.174140,0 -64.497914,44.140774,0 -64.513905,44.149400,0 -64.522613,44.152493,0 -64.531484,44.154446,0 -64.535715,44.155992,0 -64.543528,44.160793,0 -64.549184,44.161933,0 -64.552154,44.159654,0 -64.555084,44.149970,0 -64.559397,44.148261,0 -64.594350,44.157945,0 -64.606191,44.158596,0 -64.600413,44.148261,0 -64.605824,44.145413,0 -64.609527,44.142890,0 -64.613840,44.141099,0 -64.620839,44.140774,0 -64.599517,44.135077,0 -64.574818,44.133775,0 -64.554270,44.130032,0 -64.545766,44.117255,0 -64.549916,44.099840,0 -64.560943,44.079983,0 -64.576487,44.069241,0 -64.594146,44.079413,0 -64.621449,44.064765,0 -64.649159,44.058946,0 -64.717030,44.058824,0 -64.705393,44.045722,0 -64.686635,44.041856,0 -64.669423,44.035468,0 -64.661773,44.014472,0 -64.666982,43.997870,0 -64.679921,43.992987,0 -64.696685,43.990139,0 -64.713612,43.980048,0 -64.731191,43.963487,0 -64.744537,43.957831,0 -64.806508,43.956773,0 -64.815663,43.954088,0 -64.819447,43.945868,0 -64.821929,43.936672,0 -64.828440,43.930976,0 -64.837473,43.928534,0 -64.847401,43.929104,0 -64.833323,43.913886,0 -64.797109,43.894884,0 -64.785959,43.874498,0 -64.801829,43.876329,0 -64.813954,43.874091,0 -64.818837,43.866563,0 -64.812611,43.852851,0 -64.829579,43.844957,0 -64.834584,43.834296,0 -64.838979,43.829657,0 -64.854237,43.839748,0 -64.859202,43.845689,0 -64.868031,43.860663,0 -64.874094,43.867051,0 -64.883412,43.872870,0 -64.893300,43.876817,0 -64.903920,43.879299,0 -64.915028,43.880723,0 -64.909983,43.870917,0 -64.895090,43.855536,0 -64.888336,43.846584,0 -64.885732,43.838853,0 -64.884592,43.822130,0 -64.881500,43.811835,0 -64.906606,43.804999,0 -64.924306,43.822821,0 -64.937652,43.849026,0 -64.949818,43.867051,0 -64.966786,43.873643,0 -64.963938,43.860500,0 -64.935129,43.812649,0 -64.932485,43.806260,0 -64.935129,43.799180,0 -64.948964,43.775255,0 -64.958241,43.765774,0 -64.970082,43.758938,0 -64.983957,43.757880,0 -64.997141,43.769599,0 -65.020416,43.816962,0 -65.039174,43.832343,0 -65.037750,43.815985,0 -65.018707,43.770860,0 -65.015981,43.758409,0 -65.014475,43.742540,0 -65.016591,43.727159,0 -65.024973,43.716213,0 -65.034413,43.712307,0 -65.036773,43.715399,0 -65.037668,43.720811,0 -65.042877,43.723700,0 -65.052846,43.720526,0 -65.058583,43.713487,0 -65.060658,43.706407,0 -65.059682,43.703192,0 -65.076975,43.710761,0 -65.073069,43.744981,0 -65.086985,43.757880,0 -65.096303,43.736192,0 -65.123158,43.696763,0 -65.128570,43.674669,0 -65.151235,43.689114,0 -65.146840,43.706529,0 -65.136586,43.727118,0 -65.141591,43.751044,0 -65.161244,43.715644,0 -65.169545,43.709377,0 -65.178456,43.710069,0 -65.187082,43.715888,0 -65.193674,43.724473,0 -65.200754,43.751044,0 -65.211741,43.772040,0 -65.225250,43.791815,0 -65.237864,43.805569,0 -65.240305,43.798245,0 -65.242340,43.795233,0 -65.242096,43.792141,0 -65.237864,43.784491,0 -65.254709,43.775702,0 -65.249135,43.754706,0 -65.224599,43.718817,0 -65.240102,43.694688,0 -65.250356,43.673407,0 -65.263539,43.670803,0 -65.289296,43.674669,0 -65.327219,43.696397,0 -65.327789,43.709540,0 -65.316029,43.732815,0 -65.313547,43.743557,0 -65.317250,43.760484,0 -65.322987,43.765448,0 -65.330881,43.763048,0 -65.340810,43.757880,0 -65.345041,43.750800,0 -65.346303,43.741523,0 -65.351471,43.736802,0 -65.367543,43.743557,0 -65.354970,43.716051,0 -65.341461,43.693468,0 -65.334299,43.670315,0 -65.340810,43.641181,0 -65.341420,43.634345,0 -65.340484,43.625149,0 -65.340647,43.617255,0 -65.344228,43.613837,0 -65.354482,43.610663,0 -65.358062,43.603583,0 -65.356557,43.596503,0 -65.351064,43.593329,0 -65.346059,43.587388,0 -65.340810,43.544908,0 -65.362538,43.574937,0 -65.371246,43.579088,0 -65.381500,43.576565,0 -65.391916,43.566555,0 -65.401682,43.565416,0 -65.415883,43.571357,0 -65.442209,43.592922,0 -65.456899,43.599514,0 -65.456899,43.593329,0 -65.412953,43.538804,0 -65.409739,43.529161,0 -65.407786,43.518785,0 -65.401682,43.503974,0 -65.416168,43.500067,0 -65.422434,43.511298,0 -65.428944,43.544908,0 -65.439524,43.557237,0 -65.450103,43.560452,0 -65.455637,43.555976,0 -65.450673,43.544908,0 -65.455434,43.534735,0 -65.462636,43.527574,0 -65.472320,43.523993,0 -65.484242,43.524482,0 -65.474110,43.503770,0 -65.471425,43.493801,0 -65.470570,43.480048,0 -65.474843,43.470933,0 -65.484242,43.471910,0 -65.493642,43.480333,0 -65.497914,43.493394,0 -65.504018,43.502834,0 -65.542551,43.527899,0 -65.546783,43.532294,0 -65.550364,43.537502,0 -65.551666,43.543036,0 -65.545644,43.555976,0 -65.549875,43.561347,0 -65.556508,43.565334,0 -65.559926,43.569159,0 -65.565989,43.574042,0 -65.579498,43.565416,0 -65.612945,43.536200,0 -65.648671,43.517646,0 -65.652699,43.512803,0 -65.654205,43.507148,0 -65.657948,43.501573,0 -65.669179,43.497138,0 -65.667714,43.500108,0 -65.674469,43.504543,0 -65.689687,43.510810,0 -65.719309,43.508897,0 -65.729563,43.513495,0 -65.738108,43.531317,0 -65.730540,43.546780,0 -65.731597,43.562730,0 -65.739573,43.576728,0 -65.752349,43.586534,0 -65.752512,43.576321,0 -65.751780,43.569159,0 -65.749420,43.563707,0 -65.744944,43.558580,0 -65.747711,43.554836,0 -65.750844,43.552802,0 -65.754384,43.551663,0 -65.758534,43.551134,0 -65.778147,43.568183,0 -65.781850,43.587388,0 -65.772206,43.641181,0 -65.771555,43.668809,0 -65.773752,43.680813,0 -65.779042,43.688951,0 -65.788808,43.691067,0 -65.794911,43.682603,0 -65.800120,43.668687,0 -65.806996,43.654771,0 -65.796376,43.646348,0 -65.792348,43.633938,0 -65.793813,43.619940,0 -65.799550,43.606350,0 -65.814809,43.631578,0 -65.817006,43.656968,0 -65.815663,43.682725,0 -65.819976,43.709377,0 -65.825103,43.718411,0 -65.840647,43.738674,0 -65.847971,43.751044,0 -65.852895,43.764228,0 -65.861643,43.805569,0 -65.868479,43.805569,0 -65.868235,43.787095,0 -65.866200,43.779039,0 -65.861643,43.770860,0 -65.877187,43.769599,0 -65.888905,43.783759,0 -65.898997,43.803453,0 -65.909413,43.819241,0 -65.924387,43.826809,0 -65.937164,43.825995,0 -65.941274,43.819892,0 -65.929921,43.811835,0 -65.929921,43.805569,0 -65.956695,43.785386,0 -65.971344,43.780097,0 -65.977651,43.794786,0 -65.978831,43.802110,0 -65.983957,43.819444,0 -65.987213,43.839219,0 -65.991933,43.849026,0 -65.996653,43.854071,0 -65.998769,43.849677,0 -66.004018,43.831692,0 -66.004994,43.825507,0 -66.004750,43.816311,0 -66.003651,43.809719,0 -66.001698,43.804185,0 -65.974355,43.750637,0 -65.963368,43.737291,0 -65.973215,43.714260,0 -65.979604,43.705959,0 -65.991322,43.703192,0 -65.983144,43.719468,0 -65.983795,43.729315,0 -65.991607,43.731106,0 -66.004994,43.723700,0 -66.006907,43.716946,0 -66.005483,43.707831,0 -66.006418,43.699856,0 -66.015248,43.696397,0 -66.023793,43.698065,0 -66.028147,43.702297,0 -66.028717,43.708645,0 -66.026112,43.716213,0 -66.032297,43.716213,0 -66.030873,43.736680,0 -66.042144,43.746405,0 -66.055531,43.740871,0 -66.060211,43.716213,0 -66.074208,43.729315,0 -66.077301,43.740587,0 -66.073232,43.767727,0 -66.079416,43.772366,0 -66.093088,43.766466,0 -66.107289,43.755032,0 -66.114858,43.743557,0 -66.121693,43.743557,0 -66.133656,43.809719,0 -66.119781,43.824530,0 -66.113393,43.836005,0 -66.111155,43.847520,0 -66.118276,43.852851,0 -66.128489,43.849514,0 -66.135854,43.841946,0 -66.142323,43.832872,0 -66.149566,43.825507,0 -66.147817,43.840074,0 -66.149241,43.852444,0 -66.155914,43.859971,0 -66.170074,43.860256,0 -66.166168,43.870429,0 -66.167144,43.879462,0 -66.169667,43.887356,0 -66.170074,43.894395,0 -66.165598,43.903795,0 -66.152333,43.924140,0 -66.149566,43.932237,0 -66.153676,43.947170,0 -66.160715,43.960924,0 -66.162913,43.975653,0 -66.148752,44.002550,0 -66.150258,44.010403,0 -66.155832,44.021633,0 -66.157826,44.023546,0 -66.183420,44.084052,0 -66.194325,44.092597,0 -66.210439,44.085557,0 -66.210317,44.105699,0 -66.194651,44.142727,0 -66.190582,44.165351,0 -66.187652,44.171210,0 -66.158681,44.200548,0 -66.152577,44.209052,0 -66.142161,44.230780,0 -66.113678,44.343370,0 -66.094960,44.374172,0 -66.062896,44.393459,0 -66.046742,44.406643,0 -66.039703,44.425401,0 -66.032541,44.436754,0 -65.965972,44.489244,0 -65.927724,44.506171,0 -65.888783,44.532457,0 -65.866770,44.543362,0 -65.847890,44.556505,0 -65.840484,44.573391,0 -65.849110,44.586819,0 -65.868479,44.587551,0 -65.913157,44.579657,0 -65.923695,44.581285,0 -65.932973,44.583808,0 -65.942535,44.583401,0 -66.028432,44.520616,0 -66.187245,44.394599,0 -66.196767,44.390937,0 -66.192291,44.417467,0 -66.180328,44.434434,0 -65.998769,44.579657,0 -65.888905,44.630764,0 -65.874664,44.643134,0 -65.785878,44.696357,0 -65.772694,44.685777,0 -65.763051,44.672349,0 -65.756337,44.657294,0 -65.752349,44.641710,0 -65.753733,44.631985,0 -65.756988,44.620510,0 -65.757069,44.610907,0 -65.748647,44.606920,0 -65.729604,44.609198,0 -65.710194,44.613756,0 -65.692291,44.620714,0 -65.680043,44.628648,0 -65.656117,44.647854,0 -65.624989,44.666490,0 -65.612416,44.677802,0 -65.601552,44.696357,0 -65.594106,44.688870,0 -65.536733,44.736640,0 -65.522369,44.744045,0 -65.494130,44.748684,0 -65.450917,44.770616,0 -65.428944,44.778225,0 -65.447255,44.781073,0 -65.492543,44.758124,0 -65.535146,44.746975,0 -65.615346,44.709133,0 -65.653961,44.698065,0 -65.676340,44.696357,0 -65.717275,44.674425,0 -65.741770,44.667833,0 -65.758534,44.682685,0 -65.723459,44.727444,0 -65.621246,44.778876,0 -65.456899,44.854600,0 -65.397613,44.894884,0 -65.378407,44.901109,0 -65.358266,44.904364,0 -65.231679,44.955186,0 -65.213287,44.966905,0 -65.180531,44.993232,0 -65.022125,45.060167,0 -64.863189,45.139553,0 -64.714019,45.192369,0 -64.644114,45.200832,0 -64.575510,45.219631,0 -64.510650,45.228583,0 -64.474965,45.240302,0 -64.441151,45.255764,0 -64.415395,45.271633,0 -64.395334,45.301622,0 -64.417551,45.319648,0 -64.459340,45.329169,0 -64.497914,45.333808,0 -64.477773,45.341132,0 -64.456166,45.338731,0 -64.415395,45.326321,0 -64.348704,45.319444,0 -64.329742,45.309556,0 -64.318430,45.294908,0 -64.320465,45.282945,0 -64.330556,45.272284,0 -64.343373,45.261461,0 -64.351552,45.248114,0 -64.359120,45.213365,0 -64.367543,45.196601,0 -64.352447,45.185207,0 -64.357004,45.170762,0 -64.371938,45.157294,0 -64.388051,45.148790,0 -64.367340,45.126125,0 -64.362416,45.116116,0 -64.367543,45.107815,0 -64.356597,45.103990,0 -64.345530,45.105862,0 -64.336903,45.112942,0 -64.333485,45.124579,0 -64.331614,45.135891,0 -64.326039,45.141995,0 -64.317250,45.145575,0 -64.305531,45.148790,0 -64.223459,45.108385,0 -64.151601,45.049791,0 -64.149078,45.038723,0 -64.155344,44.983710,0 -64.147288,44.997707,0 -64.135854,45.003241,0 -64.122060,45.002550,0 -64.106923,44.997952,0 -64.116322,45.011379,0 -64.119049,45.029893,0 -64.114166,45.046210,0 -64.100697,45.053209,0 -64.100697,45.059394,0 -64.119496,45.062079,0 -64.136545,45.072903,0 -64.183827,45.114325,0 -64.197418,45.132554,0 -64.199330,45.148668,0 -64.165883,45.159410,0 -64.163971,45.168280,0 -64.166331,45.178371,0 -64.165598,45.186021,0 -64.157704,45.191881,0 -64.139272,45.200019,0 -64.130767,45.206529,0 -64.115061,45.216051,0 -64.024322,45.241441,0 -63.962880,45.251125,0 -63.905832,45.275784,0 -63.884674,45.279120,0 -63.846506,45.277167,0 -63.825307,45.279608,0 -63.808990,45.288723,0 -63.804026,45.298814,0 -63.804107,45.306301,0 -63.801422,45.311021,0 -63.788197,45.312649,0 -63.760406,45.311265,0 -63.748280,45.307440,0 -63.736928,45.299628,0 -63.730336,45.305487,0 -63.719797,45.322130,0 -63.715891,45.326321,0 -63.708119,45.326402,0 -63.674916,45.320136,0 -63.578725,45.322333,0 -63.543080,45.331692,0 -63.524078,45.333808,0 -63.504506,45.328681,0 -63.492584,45.316962,0 -63.482777,45.303290,0 -63.469472,45.292141,0 -63.460927,45.325019,0 -63.433095,45.344875,0 -63.396148,45.355618,0 -63.360219,45.361070,0 -63.391672,45.371649,0 -63.507314,45.374742,0 -63.528676,45.377834,0 -63.571156,45.391669,0 -63.593007,45.395168,0 -63.815785,45.395168,0 -63.833852,45.392076,0 -63.848866,45.384589,0 -63.874135,45.367296,0 -63.880483,45.361884,0 -63.884918,45.356269,0 -63.890859,45.352891,0 -63.901479,45.354234,0 -63.910471,45.358873,0 -63.914622,45.365220,0 -63.913930,45.372870,0 -63.908315,45.381496,0 -63.936635,45.398505,0 -64.013783,45.390448,0 -64.052317,45.395168,0 -64.042307,45.400539,0 -64.037994,45.402004,0 -64.065989,45.412991,0 -64.105336,45.415147,0 -64.182607,45.408840,0 -64.243886,45.394680,0 -64.275868,45.392076,0 -64.312367,45.402004,0 -64.314524,45.381944,0 -64.322174,45.379991,0 -64.333648,45.385810,0 -64.347157,45.388983,0 -64.358957,45.386339,0 -64.369740,45.381496,0 -64.379465,45.374986,0 -64.388051,45.367296,0 -64.399810,45.372870,0 -64.435902,45.381496,0 -64.445709,45.388048,0 -64.451405,45.394680,0 -64.458811,45.399970,0 -64.576161,45.415635,0 -64.619985,45.408515,0 -64.672515,45.389024,0 -64.707021,45.360582,0 -64.696604,45.326321,0 -64.717437,45.324612,0 -64.732533,45.316148,0 -64.745107,45.306138,0 -64.758656,45.299628,0 -64.768178,45.297268,0 -64.768422,45.297919,0 -64.767079,45.302598,0 -64.771637,45.312649,0 -64.772857,45.317776,0 -64.766591,45.325100,0 -64.768219,45.329983,0 -64.773997,45.333157,0 -64.786366,45.332099,0 -64.792144,45.333808,0 -64.822743,45.347968,0 -64.859853,45.353013,0 -64.897450,45.346503,0 -64.929311,45.326321,0 -64.935699,45.351223,0 -64.928700,45.383043,0 -64.915191,45.412421,0 -64.902008,45.429999,0 -64.853912,45.457261,0 -64.838979,45.459052,0 -64.814931,45.467597,0 -64.799631,45.470852,0 -64.833119,45.483995,0 -64.706410,45.536851,0 -64.680898,45.542548,0 -64.663319,45.556505,0 -64.648793,45.559068,0 -64.645375,45.586330,0 -64.613596,45.602688,0 -64.572825,45.615343,0 -64.542348,45.631659,0 -64.513336,45.656846,0 -64.484283,45.676378,0 -64.476715,45.679104,0 -64.462514,45.681057,0 -64.457021,45.683173,0 -64.448598,45.690579,0 -64.437652,45.704250,0 -64.429067,45.709866,0 -64.436757,45.725206,0 -64.439076,45.738511,0 -64.432118,45.747870,0 -64.411977,45.751532,0 -64.398101,45.756252,0 -64.385894,45.767646,0 -64.378896,45.781155,0 -64.380605,45.792385,0 -64.305531,45.826565,0 -64.293040,45.815782,0 -64.294423,45.805040,0 -64.312367,45.785631,0 -64.319081,45.781317,0 -64.326039,45.779934,0 -64.331370,45.777167,0 -64.333485,45.768541,0 -64.331532,45.763251,0 -64.328277,45.759589,0 -64.327707,45.754462,0 -64.333485,45.744615,0 -64.316721,45.755683,0 -64.303090,45.761868,0 -64.287465,45.764512,0 -64.264556,45.765123,0 -64.269521,45.774156,0 -64.278920,45.778632,0 -64.291412,45.779608,0 -64.305531,45.778795,0 -64.293853,45.784003,0 -64.282826,45.793524,0 -64.274526,45.804511,0 -64.270741,45.813544,0 -64.271108,45.830634,0 -64.273423,45.835670,0 -64.276235,45.841783,0 -64.321604,45.877834,0 -64.334706,45.885118,0 -64.347157,45.888658,0 -64.361480,45.885077,0 -64.365956,45.875963,0 -64.359120,45.868069,0 -64.339711,45.868150,0 -64.339711,45.860704,0 -64.369008,45.846747,0 -64.419545,45.791164,0 -64.446401,45.778795,0 -64.464182,45.772773,0 -64.471506,45.758450,0 -64.474843,45.741604,0 -64.480865,45.727891,0 -64.494985,45.721015,0 -64.513905,45.720608,0 -64.532541,45.724840,0 -64.545766,45.731594,0 -64.526275,45.742540,0 -64.508534,45.766181,0 -64.495513,45.793687,0 -64.490549,45.816718,0 -64.496205,45.824774,0 -64.523020,45.839748,0 -64.531484,45.847032,0 -64.536204,45.861477,0 -64.535756,45.873847,0 -64.531484,45.902248,0 -64.548411,45.883612,0 -64.560902,45.878730,0 -64.572418,45.885606,0 -64.629791,45.954495,0 -64.648793,45.970567,0 -64.670033,45.983140,0 -64.678782,45.990953,0 -64.682281,46.001614,0 -64.683013,46.025458,0 -64.685211,46.036200,0 -64.689768,46.046291,0 -64.703969,46.062161,0 -64.726064,46.079088,0 -64.748687,46.089911,0 -64.764882,46.087266,0 -64.710276,46.049628,0 -64.696604,46.032620,0 -64.705678,46.017890,0 -64.707997,46.008043,0 -64.703725,45.999376,0 -64.693186,45.988267,0 -64.668609,45.970567,0 -64.664052,45.964911,0 -64.656565,45.952948,0 -64.652211,45.950751,0 -64.635406,45.945217,0 -64.626088,45.931993,0 -64.613393,45.902248,0 -64.601633,45.890611,0 -64.578684,45.872707,0 -64.572418,45.860704,0 -64.585439,45.825914,0 -64.613189,45.800360,0 -64.646474,45.777655,0 -64.676096,45.751532,0 -64.666493,45.745917,0 -64.649892,45.730373,0 -64.641347,45.724189,0 -64.653432,45.720567,0 -64.676178,45.726182,0 -64.689768,45.724189,0 -64.696767,45.715806,0 -64.707753,45.688951,0 -64.713612,45.683173,0 -64.729156,45.673326,0 -64.756256,45.627794,0 -64.771637,45.614325,0 -64.784779,45.613186,0 -64.790273,45.618720,0 -64.795155,45.627305,0 -64.806467,45.635403,0 -64.817616,45.637437,0 -64.882802,45.633612,0 -64.904775,45.628241,0 -64.924428,45.619696,0 -64.942983,45.608059,0 -64.994496,45.559068,0 -65.015289,45.552843,0 -65.035227,45.550442,0 -65.184316,45.510403,0 -65.315053,45.459215,0 -65.489166,45.371649,0 -65.519399,45.364610,0 -65.529164,45.357733,0 -65.536204,45.348009,0 -65.538808,45.337144,0 -65.544993,45.329576,0 -65.559153,45.324815,0 -65.618560,45.315660,0 -65.628814,45.312649,0 -65.660715,45.294542,0 -65.697499,45.285224,0 -65.732981,45.253282,0 -65.752349,45.244371,0 -65.761342,45.247178,0 -65.782541,45.261868,0 -65.793324,45.264879,0 -65.804067,45.260118,0 -65.826568,45.241685,0 -65.852895,45.233018,0 -65.888295,45.213853,0 -65.909413,45.210273,0 -65.929311,45.213039,0 -65.960561,45.221991,0 -65.981435,45.223944,0 -65.995595,45.230292,0 -66.005930,45.244940,0 -66.018625,45.271633,0 -66.039622,45.285142,0 -66.135976,45.312649,0 -66.033559,45.370429,0 -66.001861,45.398586,0 -65.998362,45.406806,0 -65.997629,45.418036,0 -65.998769,45.439561,0 -66.000844,45.449815,0 -66.005279,45.459377,0 -66.009755,45.464342,0 -66.011830,45.460354,0 -66.020416,45.449286,0 -66.058420,45.422675,0 -66.069732,45.400295,0 -66.087514,45.374742,0 -66.089426,45.370022,0 -66.088979,45.364651,0 -66.089670,45.359239,0 -66.094960,45.354234,0 -66.100575,45.354112,0 -66.114329,45.360256,0 -66.121693,45.361070,0 -66.164133,45.351874,0 -66.185414,45.344143,0 -66.196767,45.333808,0 -66.193186,45.330552,0 -66.176910,45.306464,0 -66.166371,45.297268,0 -66.154408,45.289618,0 -66.141591,45.283433,0 -66.128489,45.279120,0 -66.106516,45.277330,0 -66.086781,45.278306,0 -66.070912,45.274482,0 -66.060211,45.258043,0 -66.083608,45.252305,0 -66.115956,45.236721,0 -66.140981,45.218085,0 -66.142161,45.202786,0 -66.189361,45.177802,0 -66.196767,45.172349,0 -66.202138,45.159491,0 -66.214101,45.169582,0 -66.231557,45.196601,0 -66.249379,45.204657,0 -66.279775,45.208604,0 -66.310048,45.204820,0 -66.327748,45.189765,0 -66.303822,45.187161,0 -66.270497,45.189765,0 -66.248606,45.185289,0 -66.258901,45.161770,0 -66.283803,45.149970,0 -66.342844,45.144395,0 -66.354400,45.131415,0 -66.358022,45.116604,0 -66.367177,45.114895,0 -66.379547,45.116523,0 -66.392934,45.111233,0 -66.414906,45.092841,0 -66.428822,45.083726,0 -66.440663,45.079901,0 -66.454213,45.077053,0 -66.461293,45.077745,0 -66.464263,45.083604,0 -66.464915,45.098009,0 -66.464019,45.104885,0 -66.460846,45.107815,0 -66.460276,45.114732,0 -66.490956,45.155626,0 -66.505483,45.148017,0 -66.519928,45.143948,0 -66.543121,45.141995,0 -66.550038,45.140286,0 -66.660064,45.084621,0 -66.692535,45.074612,0 -66.718129,45.079901,0 -66.710683,45.087307,0 -66.717885,45.090928,0 -66.724965,45.093573,0 -66.731068,45.074774,0 -66.745839,45.064521,0 -66.766347,45.060289,0 -66.789540,45.059394,0 -66.797027,45.065823,0 -66.786936,45.080634,0 -66.780751,45.096829,0 -66.800120,45.107815,0 -66.803375,45.093411,0 -66.813303,45.089423,0 -66.827016,45.089423,0 -66.841664,45.087307,0 -66.872141,45.065579,0 -66.888905,45.060696,0 -66.908681,45.098700,0 -66.911041,45.113918,0 -66.899403,45.120836,0 -66.885243,45.122301,0 -66.862294,45.127997,0 -66.847890,45.128323,0 -66.855702,45.137600,0 -66.869740,45.143948,0 -66.885650,45.147610,0 -66.899403,45.148790,0 -66.916005,45.154690,0 -66.927398,45.168199,0 -66.935862,45.182034,0 -66.943471,45.189765,0 -66.957021,45.189073,0 -66.970774,45.181993,0 -66.981435,45.171007,0 -66.985707,45.158759,0 -66.991444,45.161770,0 -67.005198,45.166653,0 -67.021148,45.168362,0 -67.040069,45.143826,0 -67.038808,45.134263,0 -67.045522,45.117174,0 -67.049509,45.096422,0 -67.040069,45.075629,0 -67.065663,45.082546,0 -67.086374,45.097642,0 -67.124786,45.143785,0 -67.131093,45.153835,0 -67.134145,45.165066,0 -67.136261,45.196519,0 -67.140655,45.204617,0 -67.149159,45.205512,0 -67.162953,45.198513,0 -67.163035,45.212755,0 -67.167958,45.222602,0 -67.177195,45.228990,0 -67.190297,45.233181,0 -67.190623,45.217393,0 -67.187734,45.201443,0 -67.182566,45.187934,0 -67.176015,45.178656,0 -67.206166,45.189401,0 -67.219071,45.192126,0 -67.242428,45.202565,0 -67.254986,45.205045,0</coordinates>
          </LinearRing>
        </outerBoundaryIs>
      </Polygon>
    </Placemark>
    <Placemark>
      <name>Maritime Republic</name>
      <Polygon>
        <outerBoundaryIs>
          <LinearRing>
            <coordinates>-64.477040,47.937812,0 -64.478668,47.933173,0 -64.492340,47.910631,0 -64.498891,47.892768,0 -64.503245,47.874172,0 -64.504750,47.858710,0 -64.509023,47.844550,0 -64.518910,47.829291,0 -64.538930,47.807196,0 -64.593495,47.765367,0 -64.648793,47.732123,0 -64.654205,47.747056,0 -64.666005,47.752834,0 -64.681060,47.755032,0 -64.696604,47.759426,0 -64.655019,47.782904,0 -64.648793,47.790473,0 -64.654205,47.801907,0 -64.666656,47.802639,0 -64.680409,47.798000,0 -64.689768,47.793606,0 -64.687164,47.802639,0 -64.682851,47.810045,0 -64.676747,47.816067,0 -64.668609,47.820868,0 -64.686269,47.819281,0 -64.696645,47.821031,0 -64.700063,47.827948,0 -64.696604,47.841986,0 -64.690989,47.850287,0 -64.680531,47.861396,0 -64.668691,47.871283,0 -64.658681,47.875474,0 -64.595530,47.885484,0 -64.567983,47.883043,0 -64.579905,47.862454,0 -64.558949,47.869574,0 -64.538645,47.870103,0 -64.520131,47.873603,0 -64.504750,47.889797,0 -64.511952,47.902533,0 -64.504058,47.916693,0 -64.477447,47.944403,0 -64.477040,47.937812,0</coordinates>
          </LinearRing>
        </outerBoundaryIs>
      </Polygon>
    </Placemark>
    <Placemark>
      <name>Maritime Republic</name>
      <Polygon>
        <outerBoundaryIs>
          <LinearRing>
            <coordinates>-64.480051,47.998358,0 -64.473012,47.980943,0 -64.472401,47.963365,0 -64.487416,47.941230,0 -64.507802,47.928290,0 -64.568267,47.906968,0 -64.590443,47.903469,0 -64.594106,47.914374,0 -64.577138,47.938422,0 -64.545766,47.971666,0 -64.525787,48.020697,0 -64.510813,48.033596,0 -64.484283,48.020087,0 -64.480051,47.998358,0</coordinates>
          </LinearRing>
        </outerBoundaryIs>
      </Polygon>
    </Placemark>
    <Placemark>
      <name>Maritime Republic</name>
      <Polygon>
        <outerBoundaryIs>
          <LinearRing>
            <coordinates>-59.808162,43.940226,0 -59.858371,43.923598,0 -59.907780,43.916175,0 -59.963220,43.914069,0 -60.018758,43.913771,0 -60.075118,43.927222,0 -60.116954,43.942939,0 -60.130161,43.960473,0 -60.117953,43.959475,0 -60.104860,43.954362,0 -60.091160,43.949728,0 -60.073883,43.942450,0 -59.997814,43.937868,0 -59.871550,43.942078,0 -59.840664,43.949874,0 -59.819801,43.954156,0 -59.793511,43.964571,0 -59.740829,43.996438,0 -59.707184,44.014416,0 -59.757119,43.966064,0 -59.808162,43.940226,0</coordinates>
          </LinearRing>
        </outerBoundaryIs>
      </Polygon>
    </Placemark>
    <Placemark>
      <name>Maritime Republic</name>
      <Polygon>
        <outerBoundaryIs>
          <LinearRing>
            <coordinates>-60.879303,45.566555,0 -60.884267,45.557603,0 -60.892201,45.552802,0 -60.902415,45.551459,0 -60.914133,45.552883,0 -60.952626,45.531643,0 -60.961822,45.517279,0 -60.947621,45.498236,0 -60.967844,45.486802,0 -60.985707,45.470160,0 -61.003529,45.460761,0 -61.023915,45.470893,0 -61.013051,45.476630,0 -61.003896,45.485826,0 -61.002105,45.494452,0 -61.013092,45.498236,0 -61.040028,45.498725,0 -61.052805,45.500556,0 -61.064931,45.504462,0 -61.075185,45.510932,0 -61.089345,45.523342,0 -61.105092,45.527086,0 -61.106109,45.530992,0 -61.106068,45.536444,0 -61.111724,45.548774,0 -61.105824,45.551337,0 -61.091624,45.552883,0 -61.075022,45.562730,0 -61.053863,45.571112,0 -61.031117,45.577338,0 -61.009674,45.580797,0 -60.958567,45.581448,0 -60.931956,45.576850,0 -60.914133,45.566555,0 -60.908070,45.577379,0 -60.899281,45.578681,0 -60.889231,45.573920,0 -60.879303,45.566555,0</coordinates>
          </LinearRing>
        </outerBoundaryIs>
      </Polygon>
    </Placemark>
    <Placemark>
      <name>Maritime Republic</name>
      <Polygon>
        <outerBoundaryIs>
          <LinearRing>
            <coordinates>-62.511179,45.823347,0 -62.512357,45.814360,0 -62.526446,45.809612,0 -62.549733,45.803547,0 -62.555844,45.799247,0 -62.566911,45.802204,0 -62.577982,45.805588,0 -62.594546,45.803815,0 -62.603144,45.804211,0 -62.603188,45.810629,0 -62.594009,45.815371,0 -62.574416,45.824000,0 -62.564592,45.824034,0 -62.554154,45.824069,0 -62.544962,45.826666,0 -62.532699,45.829271,0 -62.517955,45.827605,0 -62.506908,45.828065,0 -62.511179,45.823347,0</coordinates>
          </LinearRing>
        </outerBoundaryIs>
      </Polygon>
    </Placemark>
    <Placemark>
      <name>Maritime Republic</name>
      <Polygon>
        <outerBoundaryIs>
          <LinearRing>
            <coordinates>-59.780995,46.004381,0 -59.778147,46.012437,0 -59.723744,46.028876,0 -59.695180,46.034003,0 -59.688629,46.030260,0 -59.702870,46.022895,0 -59.706044,46.010972,0 -59.705678,45.999091,0 -59.708079,45.994696,0 -59.714101,45.997504,0 -59.725901,46.000434,0 -59.760406,46.000067,0 -59.780995,46.004381,0</coordinates>
          </LinearRing>
        </outerBoundaryIs>
      </Polygon>
    </Placemark>
    <Placemark>
      <name>Maritime Republic</name>
      <Polygon>
        <outerBoundaryIs>
          <LinearRing>
            <coordinates>-60.207753,45.740912,0 -60.215647,45.719428,0 -60.234975,45.706855,0 -60.259674,45.700181,0 -60.283518,45.696845,0 -60.322865,45.683661,0 -60.395375,45.642524,0 -60.441151,45.635443,0 -60.462636,45.635728,0 -60.470082,45.639472,0 -60.475250,45.649115,0 -60.499867,45.632392,0 -60.511830,45.626410,0 -60.629791,45.594957,0 -60.662343,45.577582,0 -60.671783,45.573676,0 -60.704254,45.573310,0 -60.711537,45.571601,0 -60.718861,45.568183,0 -60.726877,45.565619,0 -60.735951,45.566555,0 -60.741567,45.572740,0 -60.742502,45.581936,0 -60.744252,45.590277,0 -60.752431,45.593899,0 -60.828440,45.600653,0 -60.844350,45.604560,0 -60.848744,45.614325,0 -60.849721,45.626776,0 -60.855458,45.638821,0 -60.871083,45.645657,0 -60.883941,45.637397,0 -60.895579,45.623725,0 -60.907297,45.614325,0 -60.915761,45.621283,0 -60.925404,45.625800,0 -60.936025,45.627997,0 -60.947621,45.627997,0 -60.946156,45.612250,0 -60.969960,45.608100,0 -61.023915,45.614325,0 -61.009674,45.608100,0 -61.016225,45.595282,0 -61.025014,45.591539,0 -61.047231,45.593899,0 -61.057607,45.591498,0 -61.085439,45.573310,0 -61.131418,45.559882,0 -61.156728,45.556586,0 -61.174794,45.559068,0 -61.157216,45.565131,0 -61.151112,45.571479,0 -61.155019,45.578559,0 -61.167348,45.586982,0 -61.182037,45.590318,0 -61.195872,45.589545,0 -61.205637,45.592719,0 -61.208323,45.608100,0 -61.215484,45.600287,0 -61.220326,45.589504,0 -61.224965,45.581936,0 -61.231923,45.583930,0 -61.241200,45.585395,0 -61.253651,45.579495,0 -61.266469,45.571479,0 -61.277211,45.566555,0 -61.270172,45.548326,0 -61.284576,45.547675,0 -61.321889,45.559068,0 -61.334869,45.566230,0 -61.362864,45.611233,0 -61.419260,45.656887,0 -61.442047,45.681789,0 -61.455312,45.709906,0 -61.465077,45.776272,0 -61.475413,45.811347,0 -61.492543,45.826606,0 -61.497304,45.835150,0 -61.488881,45.888658,0 -61.500111,45.906073,0 -61.514394,45.919379,0 -61.522613,45.932807,0 -61.516184,45.950751,0 -61.521230,45.961005,0 -61.521230,45.980780,0 -61.523590,45.991685,0 -61.528920,45.996527,0 -61.538442,46.003119,0 -61.547515,46.011623,0 -61.551503,46.021796,0 -61.541127,46.040473,0 -61.517323,46.053127,0 -61.491607,46.063056,0 -61.475209,46.073635,0 -61.470082,46.092597,0 -61.466054,46.120307,0 -61.458974,46.145331,0 -61.444732,46.156195,0 -61.431264,46.162787,0 -61.384389,46.194281,0 -61.288808,46.242621,0 -61.280629,46.245551,0 -61.277943,46.255194,0 -61.212514,46.331000,0 -61.191558,46.367011,0 -61.177887,46.385565,0 -61.094838,46.453925,0 -61.086171,46.466498,0 -61.080556,46.480536,0 -61.075266,46.513251,0 -61.066518,46.526842,0 -61.040395,46.550360,0 -61.030385,46.568020,0 -61.037221,46.581610,0 -61.049916,46.592271,0 -61.057485,46.601264,0 -61.053822,46.612250,0 -61.043080,46.625312,0 -61.029286,46.636542,0 -61.016469,46.642157,0 -61.030181,46.611558,0 -61.030181,46.601264,0 -61.023793,46.593207,0 -61.017079,46.600409,0 -61.011830,46.614081,0 -61.009674,46.625434,0 -61.004791,46.633287,0 -60.972076,46.652737,0 -60.964996,46.662014,0 -60.947621,46.697414,0 -60.899241,46.768785,0 -60.869211,46.800035,0 -60.832143,46.820950,0 -60.788401,46.834662,0 -60.769602,46.843736,0 -60.701324,46.904690,0 -60.651479,46.981635,0 -60.642079,47.003730,0 -60.633168,47.010688,0 -60.623036,47.016832,0 -60.603261,47.033637,0 -60.593617,47.034817,0 -60.571441,47.026353,0 -60.534169,47.021959,0 -60.523061,47.018948,0 -60.514231,47.013007,0 -60.508778,47.006415,0 -60.501129,47.001207,0 -60.485829,46.999091,0 -60.461578,47.003363,0 -60.420318,47.022162,0 -60.396108,47.026353,0 -60.383372,47.016791,0 -60.398427,46.995551,0 -60.434316,46.964301,0 -60.464711,46.927069,0 -60.490387,46.905219,0 -60.495758,46.895453,0 -60.473866,46.897162,0 -60.452219,46.892524,0 -60.442047,46.884426,0 -60.454742,46.875556,0 -60.454742,46.868109,0 -60.430409,46.864203,0 -60.393544,46.862982,0 -60.358306,46.866156,0 -60.338735,46.875556,0 -60.330719,46.871649,0 -60.323354,46.866889,0 -60.316721,46.861151,0 -60.310780,46.854438,0 -60.305531,46.833889,0 -60.308990,46.803371,0 -60.324452,46.745185,0 -60.342356,46.708482,0 -60.344879,46.693996,0 -60.352122,46.686469,0 -60.399526,46.670111,0 -60.391469,46.661200,0 -60.381500,46.655992,0 -60.370107,46.654283,0 -60.357981,46.655829,0 -60.357981,46.649604,0 -60.365224,46.648098,0 -60.377919,46.643459,0 -60.385894,46.642157,0 -60.374013,46.629625,0 -60.360097,46.623114,0 -60.350494,46.615871,0 -60.351796,46.601264,0 -60.357045,46.594631,0 -60.379709,46.580756,0 -60.421051,46.524807,0 -60.461578,46.423082,0 -60.472646,46.406928,0 -60.509389,46.368476,0 -60.516347,46.356147,0 -60.530385,46.323635,0 -60.577870,46.264146,0 -60.605784,46.211330,0 -60.600331,46.201158,0 -60.598744,46.197170,0 -60.552358,46.262274,0 -60.540435,46.272284,0 -60.524403,46.278388,0 -60.475250,46.320014,0 -60.442616,46.332465,0 -60.434316,46.333686,0 -60.418853,46.329779,0 -60.415679,46.323920,0 -60.418324,46.315172,0 -60.420644,46.302680,0 -60.426910,46.284003,0 -60.441965,46.270575,0 -60.475250,46.251776,0 -60.612416,46.128241,0 -60.632232,46.117987,0 -60.675404,46.101630,0 -60.690989,46.091010,0 -60.700836,46.088039,0 -60.714915,46.107367,0 -60.725413,46.104682,0 -60.747792,46.085273,0 -60.755849,46.080471,0 -60.773020,46.073391,0 -60.816396,46.061916,0 -60.873158,46.053168,0 -60.879506,46.061754,0 -60.874135,46.068345,0 -60.862904,46.072455,0 -60.852040,46.073635,0 -60.874135,46.079169,0 -60.912506,46.051825,0 -60.975575,45.991685,0 -60.993235,45.982123,0 -61.014801,45.974677,0 -61.101877,45.958157,0 -61.118642,45.949408,0 -61.126373,45.929633,0 -61.033559,45.936469,0 -61.009918,45.941392,0 -60.995269,45.953925,0 -60.983551,45.969672,0 -60.968658,45.984931,0 -60.902740,46.010199,0 -60.883941,46.034654,0 -60.862660,46.038235,0 -60.817860,46.038804,0 -60.773508,46.059272,0 -60.747467,46.066230,0 -60.735951,46.056586,0 -60.743153,46.037299,0 -60.760243,46.022284,0 -60.780629,46.008124,0 -60.797434,45.991685,0 -60.802968,45.974799,0 -60.806549,45.954169,0 -60.815053,45.936957,0 -60.835276,45.929633,0 -60.846669,45.928412,0 -60.857777,45.924872,0 -60.867828,45.919623,0 -60.876291,45.912828,0 -60.886545,45.908352,0 -60.898427,45.909898,0 -60.920277,45.915961,0 -60.961659,45.915188,0 -60.981028,45.910224,0 -60.989247,45.898871,0 -61.001088,45.896959,0 -61.055735,45.897650,0 -61.071156,45.895494,0 -61.052235,45.888861,0 -61.043813,45.888658,0 -61.057281,45.879584,0 -61.073476,45.874701,0 -61.088612,45.868232,0 -61.098459,45.854478,0 -61.083892,45.853827,0 -61.060862,45.857123,0 -61.039540,45.863471,0 -61.030181,45.871649,0 -61.019439,45.875718,0 -60.998158,45.875067,0 -60.982655,45.876899,0 -60.989247,45.888658,0 -60.968577,45.886217,0 -60.914133,45.854478,0 -60.926340,45.847724,0 -60.937327,45.850775,0 -60.949452,45.857123,0 -60.964955,45.860745,0 -60.966664,45.856513,0 -60.942128,45.835273,0 -60.934560,45.826606,0 -60.952952,45.826850,0 -60.960764,45.829088,0 -60.968658,45.834052,0 -60.981923,45.820746,0 -60.994862,45.819973,0 -61.005727,45.823472,0 -61.013092,45.823188,0 -61.024403,45.813666,0 -61.102854,45.778876,0 -61.123158,45.763577,0 -61.133778,45.744615,0 -61.129018,45.746812,0 -61.112050,45.751532,0 -61.111236,45.744615,0 -61.111440,45.735541,0 -61.112782,45.727607,0 -61.115834,45.724189,0 -61.125844,45.721910,0 -61.133860,45.717027,0 -61.139719,45.712144,0 -61.147613,45.707913,0 -61.142934,45.703437,0 -61.133372,45.698879,0 -61.082021,45.690660,0 -61.049428,45.698472,0 -60.947621,45.751532,0 -60.912831,45.756171,0 -60.873199,45.752387,0 -60.835683,45.740465,0 -60.807362,45.720771,0 -60.799224,45.703315,0 -60.807688,45.690660,0 -60.823638,45.678534,0 -60.844879,45.655341,0 -60.850168,45.651190,0 -60.849477,45.647650,0 -60.838368,45.642279,0 -60.828928,45.640570,0 -60.826039,45.644232,0 -60.827789,45.650214,0 -60.832143,45.655260,0 -60.810414,45.662746,0 -60.817860,45.668931,0 -60.784047,45.668931,0 -60.777333,45.673774,0 -60.765736,45.692939,0 -60.759511,45.693793,0 -60.743886,45.684882,0 -60.732493,45.684394,0 -60.730133,45.690985,0 -60.742177,45.703762,0 -60.730051,45.713935,0 -60.733510,45.724555,0 -60.742991,45.735012,0 -60.749013,45.744615,0 -60.746409,45.760159,0 -60.737213,45.773749,0 -60.725453,45.784735,0 -60.714833,45.792426,0 -60.700063,45.799872,0 -60.669545,45.810289,0 -60.653432,45.819770,0 -60.643707,45.830552,0 -60.634389,45.844184,0 -60.623402,45.855780,0 -60.609039,45.860745,0 -60.599273,45.866156,0 -60.568959,45.890082,0 -60.541086,45.900865,0 -60.520985,45.924262,0 -60.477773,45.936591,0 -60.445180,45.953925,0 -60.416371,45.976223,0 -60.399526,45.997952,0 -60.420277,45.993150,0 -60.463490,45.977362,0 -60.497222,45.956610,0 -60.564036,45.943915,0 -60.621409,45.919867,0 -60.645985,45.912787,0 -60.664906,45.898668,0 -60.699127,45.890937,0 -60.709706,45.890326,0 -60.722279,45.895494,0 -60.731516,45.904608,0 -60.739980,45.922675,0 -60.749013,45.929633,0 -60.762034,45.930976,0 -60.775787,45.929023,0 -60.786733,45.930080,0 -60.791168,45.940172,0 -60.781646,45.954291,0 -60.714833,45.984931,0 -60.684397,46.006822,0 -60.665761,46.015123,0 -60.642568,46.018378,0 -60.622548,46.024359,0 -60.564036,46.066799,0 -60.507883,46.090725,0 -60.489573,46.101549,0 -60.431630,46.149359,0 -60.416900,46.156195,0 -60.405385,46.163764,0 -60.374908,46.197008,0 -60.354848,46.204576,0 -60.333852,46.205146,0 -60.314605,46.208808,0 -60.301015,46.218695,0 -60.297109,46.238105,0 -60.317942,46.230211,0 -60.338450,46.226020,0 -60.382802,46.223822,0 -60.400706,46.218166,0 -60.447336,46.176663,0 -60.607045,46.076483,0 -60.630279,46.068061,0 -60.639068,46.066799,0 -60.652699,46.072211,0 -60.655100,46.081692,0 -60.650461,46.090725,0 -60.642568,46.094713,0 -60.621327,46.101020,0 -60.601430,46.115912,0 -60.571441,46.149359,0 -60.502553,46.200873,0 -60.494496,46.217963,0 -60.475413,46.233466,0 -60.350982,46.312079,0 -60.283518,46.327541,0 -60.279612,46.317288,0 -60.259592,46.279120,0 -60.204661,46.241848,0 -60.211985,46.223944,0 -60.290273,46.156195,0 -60.278228,46.159084,0 -60.268544,46.165961,0 -60.261220,46.173082,0 -60.256174,46.176663,0 -60.243723,46.176337,0 -60.235341,46.172797,0 -60.221425,46.162421,0 -60.212148,46.145209,0 -60.204986,46.142279,0 -60.194081,46.156195,0 -60.192047,46.166164,0 -60.194976,46.174872,0 -60.199330,46.183743,0 -60.201568,46.193752,0 -60.193227,46.211737,0 -60.173940,46.230699,0 -60.152089,46.245673,0 -60.136098,46.251776,0 -60.109446,46.250556,0 -60.083160,46.246243,0 -60.058665,46.237616,0 -60.037099,46.223822,0 -60.091054,46.210842,0 -59.991363,46.206936,0 -59.944163,46.196234,0 -59.947662,46.162421,0 -59.933827,46.158515,0 -59.901357,46.172431,0 -59.882192,46.176663,0 -59.810536,46.169867,0 -59.836537,46.155911,0 -59.863352,46.136420,0 -59.882436,46.111274,0 -59.885610,46.080471,0 -59.871449,46.094143,0 -59.851064,46.104438,0 -59.829172,46.111477,0 -59.810536,46.115220,0 -59.810536,46.107815,0 -59.871938,46.073635,0 -59.895904,46.050198,0 -59.909250,46.041978,0 -59.954213,46.035793,0 -59.957916,46.027493,0 -59.949696,46.015570,0 -59.937123,46.001654,0 -59.920725,45.994574,0 -59.898264,45.996894,0 -59.858306,46.005357,0 -59.839752,46.005072,0 -59.832102,46.003119,0 -59.824127,45.997952,0 -59.830312,45.999335,0 -59.831899,45.992011,0 -59.830393,45.978013,0 -59.823801,45.971015,0 -59.806956,45.960435,0 -59.803090,45.956936,0 -59.802235,45.945217,0 -59.805287,45.935533,0 -59.812489,45.930609,0 -59.823842,45.933051,0 -59.862050,45.935696,0 -59.939280,45.904364,0 -59.968170,45.909735,0 -59.974924,45.905422,0 -59.980295,45.900865,0 -59.984731,45.895575,0 -59.988637,45.888658,0 -59.984283,45.885810,0 -59.980214,45.879706,0 -59.975657,45.875067,0 -60.127349,45.869452,0 -60.153147,45.847073,0 -60.155588,45.837958,0 -60.154408,45.837144,0 -60.147532,45.838080,0 -60.132680,45.834052,0 -60.111684,45.824042,0 -60.101186,45.820950,0 -60.087636,45.819770,0 -60.075429,45.815497,0 -60.071889,45.806098,0 -60.074574,45.796780,0 -60.080881,45.792426,0 -60.093251,45.790839,0 -60.177724,45.766547,0 -60.198842,45.755683,0 -60.207753,45.740912,0</coordinates>
          </LinearRing>
        </outerBoundaryIs>
      </Polygon>
    </Placemark>
    <Placemark>
      <name>Maritime Republic</name>
      <Polygon>
        <outerBoundaryIs>
          <LinearRing>
            <coordinates>-62.031321,46.414944,0 -62.165639,46.358385,0 -62.212554,46.347561,0 -62.227610,46.345893,0 -62.239858,46.351060,0 -62.250478,46.360053,0 -62.283925,46.382148,0 -62.270904,46.354153,0 -62.273752,46.344916,0 -62.291412,46.341132,0 -62.306874,46.344631,0 -62.339426,46.359442,0 -62.359690,46.361029,0 -62.359690,46.354193,0 -62.348012,46.345608,0 -62.346059,46.324286,0 -62.331776,46.313218,0 -62.367299,46.306220,0 -62.384511,46.305732,0 -62.400624,46.313218,0 -62.367787,46.284410,0 -62.365712,46.271430,0 -62.390370,46.266059,0 -62.471262,46.280463,0 -62.496897,46.272284,0 -62.446929,46.259101,0 -62.423736,46.245063,0 -62.421132,46.223822,0 -62.437327,46.216254,0 -62.466176,46.214911,0 -62.513905,46.217678,0 -62.555002,46.234198,0 -62.576405,46.239000,0 -62.585601,46.227525,0 -62.543284,46.214911,0 -62.513010,46.201606,0 -62.496897,46.183498,0 -62.524403,46.186754,0 -62.573069,46.207424,0 -62.599233,46.210842,0 -62.594838,46.202826,0 -62.589752,46.198391,0 -62.582631,46.196682,0 -62.571929,46.197170,0 -62.571929,46.190334,0 -62.582021,46.190741,0 -62.590443,46.189643,0 -62.606760,46.183498,0 -62.587026,46.177395,0 -62.546742,46.175238,0 -62.530995,46.169867,0 -62.538197,46.159654,0 -62.542226,46.145819,0 -62.543284,46.133490,0 -62.541575,46.128241,0 -62.492055,46.125637,0 -62.475738,46.121405,0 -62.480702,46.135199,0 -62.490590,46.141547,0 -62.517323,46.149359,0 -62.486440,46.152655,0 -62.464223,46.135199,0 -62.453236,46.107611,0 -62.455922,46.080471,0 -62.457590,46.079820,0 -62.472646,46.063422,0 -62.479319,46.060004,0 -62.488596,46.059068,0 -62.506744,46.060004,0 -62.527496,46.057318,0 -62.554555,46.043931,0 -62.571929,46.038804,0 -62.571929,46.032660,0 -62.554270,46.030707,0 -62.510487,46.018378,0 -62.496327,46.018988,0 -62.470570,46.025133,0 -62.455922,46.025214,0 -62.485585,45.989895,0 -62.545237,45.971829,0 -62.683949,45.965644,0 -62.714670,45.970404,0 -62.728993,45.970608,0 -62.736684,45.967027,0 -62.745107,45.954047,0 -62.750722,45.950751,0 -62.756703,45.952460,0 -62.771840,45.961737,0 -62.777415,45.964342,0 -62.829457,45.972724,0 -62.846303,45.978013,0 -62.894114,46.005357,0 -62.879994,46.010972,0 -62.873606,46.011542,0 -62.873606,46.018378,0 -62.889150,46.020697,0 -62.904775,46.025295,0 -62.919301,46.032416,0 -62.931630,46.042629,0 -62.934641,46.052965,0 -62.921213,46.055243,0 -62.887278,46.053168,0 -62.909047,46.071926,0 -62.996653,46.061957,0 -63.030629,46.066799,0 -63.009267,46.071763,0 -62.986562,46.073635,0 -62.973622,46.076890,0 -62.950307,46.091457,0 -62.917551,46.101264,0 -62.886952,46.129625,0 -62.866119,46.135688,0 -62.878245,46.155585,0 -62.895497,46.157457,0 -62.914459,46.147650,0 -62.931630,46.131985,0 -62.947865,46.127997,0 -62.956532,46.144843,0 -62.951975,46.166409,0 -62.928212,46.176663,0 -62.935455,46.187201,0 -62.947174,46.193427,0 -62.975982,46.204576,0 -62.989654,46.197170,0 -62.985015,46.192084,0 -62.983144,46.188707,0 -62.981109,46.186103,0 -62.975982,46.183498,0 -62.997385,46.179267,0 -63.025258,46.186103,0 -63.054311,46.196926,0 -63.106272,46.210150,0 -63.116811,46.215766,0 -63.112131,46.224189,0 -63.093332,46.238105,0 -63.087758,46.241034,0 -63.077707,46.243557,0 -63.072865,46.245551,0 -63.067983,46.250800,0 -63.067128,46.256415,0 -63.067291,46.261786,0 -63.065419,46.266059,0 -63.061147,46.266913,0 -63.049062,46.265041,0 -63.044911,46.266059,0 -63.043324,46.270575,0 -63.043813,46.276313,0 -63.043202,46.281928,0 -63.038075,46.286566,0 -62.980336,46.305487,0 -62.963002,46.320014,0 -62.981028,46.319403,0 -63.011708,46.308539,0 -63.043609,46.301581,0 -63.069651,46.283271,0 -63.082509,46.279120,0 -63.096791,46.272650,0 -63.120432,46.244330,0 -63.134348,46.238105,0 -63.140452,46.241034,0 -63.161610,46.259223,0 -63.195709,46.272284,0 -63.173695,46.238227,0 -63.174713,46.227729,0 -63.199127,46.223822,0 -63.207631,46.220771,0 -63.224029,46.207587,0 -63.233266,46.204576,0 -63.270863,46.204576,0 -63.270863,46.197170,0 -63.214915,46.191107,0 -63.189117,46.195299,0 -63.175282,46.217678,0 -63.147694,46.206285,0 -63.141916,46.198432,0 -63.147328,46.183498,0 -63.177642,46.171942,0 -63.208160,46.165229,0 -63.233388,46.145453,0 -63.257192,46.141913,0 -63.284291,46.147040,0 -63.335561,46.165717,0 -63.372629,46.171942,0 -63.399892,46.181342,0 -63.412017,46.183498,0 -63.418365,46.185614,0 -63.422841,46.195014,0 -63.428822,46.197170,0 -63.450266,46.195990,0 -63.455800,46.197170,0 -63.465688,46.204576,0 -63.480580,46.219916,0 -63.490590,46.223822,0 -63.499176,46.222480,0 -63.521148,46.213080,0 -63.534983,46.210842,0 -63.545318,46.213690,0 -63.556386,46.219306,0 -63.566965,46.223090,0 -63.575917,46.220771,0 -63.587310,46.216254,0 -63.602122,46.216864,0 -63.627756,46.223822,0 -63.675649,46.242580,0 -63.694569,46.256537,0 -63.702260,46.275702,0 -63.713043,46.289781,0 -63.737904,46.302395,0 -63.784779,46.320014,0 -63.800038,46.331855,0 -63.805898,46.343573,0 -63.801178,46.348782,0 -63.784779,46.341132,0 -63.805898,46.374701,0 -63.739329,46.356676,0 -63.715891,46.354193,0 -63.764882,46.382148,0 -63.752065,46.387274,0 -63.745513,46.389065,0 -63.736928,46.388983,0 -63.736928,46.396430,0 -63.766835,46.399359,0 -63.839915,46.396959,0 -63.871449,46.409369,0 -63.880483,46.408149,0 -63.887318,46.404934,0 -63.888417,46.402574,0 -63.895334,46.405951,0 -63.904652,46.413398,0 -63.908315,46.415595,0 -63.926625,46.421942,0 -63.934478,46.423041,0 -63.956125,46.409410,0 -63.987172,46.399604,0 -64.082672,46.409410,0 -64.110260,46.408108,0 -64.124501,46.409654,0 -64.134267,46.415595,0 -64.137522,46.429023,0 -64.133453,46.442613,0 -64.124867,46.449693,0 -64.114369,46.443549,0 -64.110707,46.473822,0 -64.114613,46.512641,0 -64.108022,46.544379,0 -64.072743,46.553412,0 -64.076894,46.562934,0 -64.078969,46.566474,0 -64.061920,46.569973,0 -64.063832,46.578762,0 -64.073313,46.589260,0 -64.078969,46.597805,0 -64.078928,46.618883,0 -64.077138,46.628241,0 -64.072743,46.642157,0 -64.131012,46.599107,0 -64.144765,46.597805,0 -64.153310,46.604071,0 -64.165517,46.609565,0 -64.178456,46.613471,0 -64.189443,46.614895,0 -64.196889,46.617825,0 -64.218414,46.631415,0 -64.230458,46.635321,0 -64.322621,46.635321,0 -64.364329,46.626939,0 -64.383046,46.627834,0 -64.402415,46.642157,0 -64.416819,46.682766,0 -64.401519,46.722968,0 -64.369456,46.758775,0 -64.333485,46.786200,0 -64.290924,46.809556,0 -64.272328,46.825019,0 -64.264556,46.844550,0 -64.259429,46.866400,0 -64.246938,46.886298,0 -64.231313,46.903306,0 -64.162668,46.956204,0 -64.052724,47.021470,0 -63.997060,47.067328,0 -63.988515,47.054267,0 -63.985341,47.047187,0 -63.983388,47.040025,0 -63.995920,47.009711,0 -63.997792,46.971015,0 -63.990061,46.933336,0 -63.973215,46.905951,0 -63.974843,46.893988,0 -64.024973,46.848293,0 -64.028432,46.842271,0 -64.034901,46.826483,0 -64.037994,46.820950,0 -64.042307,46.820868,0 -64.048940,46.822252,0 -64.055531,46.819322,0 -64.059722,46.806627,0 -64.063954,46.808539,0 -64.074818,46.811510,0 -64.078969,46.813463,0 -64.079010,46.802720,0 -64.081370,46.794013,0 -64.085927,46.786689,0 -64.093251,46.779975,0 -64.071929,46.757758,0 -64.056060,46.748847,0 -64.034901,46.745185,0 -64.014516,46.748196,0 -63.999338,46.753119,0 -63.985585,46.754136,0 -63.969797,46.745185,0 -63.974721,46.738593,0 -63.983388,46.717271,0 -63.960194,46.707668,0 -63.939036,46.695258,0 -63.919545,46.680243,0 -63.901479,46.662665,0 -63.886586,46.651190,0 -63.881418,46.642890,0 -63.880971,46.629136,0 -63.885813,46.617825,0 -63.894032,46.615383,0 -63.904286,46.619778,0 -63.915110,46.629136,0 -63.912465,46.616645,0 -63.906646,46.607978,0 -63.897450,46.602932,0 -63.884674,46.601264,0 -63.871205,46.603176,0 -63.867055,46.608140,0 -63.865590,46.614691,0 -63.860463,46.621731,0 -63.862864,46.623440,0 -63.861155,46.629706,0 -63.854848,46.632880,0 -63.843414,46.625434,0 -63.836903,46.618232,0 -63.833648,46.612372,0 -63.836171,46.607001,0 -63.846832,46.601264,0 -63.843658,46.597235,0 -63.841949,46.593655,0 -63.839263,46.590481,0 -63.833160,46.587592,0 -63.833160,46.580756,0 -63.845286,46.578192,0 -63.851715,46.573676,0 -63.880971,46.522406,0 -63.894521,46.516669,0 -63.921620,46.511176,0 -63.942047,46.500312,0 -63.935618,46.478339,0 -63.919789,46.492662,0 -63.902008,46.498765,0 -63.860463,46.506293,0 -63.844065,46.515692,0 -63.835032,46.519721,0 -63.825754,46.519273,0 -63.818512,46.512437,0 -63.812978,46.500678,0 -63.812978,46.489488,0 -63.822621,46.484565,0 -63.832997,46.481920,0 -63.833648,46.475653,0 -63.828847,46.467841,0 -63.822621,46.460639,0 -63.813385,46.455878,0 -63.729563,46.443345,0 -63.708892,46.444159,0 -63.696645,46.457221,0 -63.713206,46.477607,0 -63.731801,46.496039,0 -63.734242,46.510688,0 -63.702260,46.519273,0 -63.702260,46.525458,0 -63.721995,46.531806,0 -63.730133,46.532945,0 -63.710805,46.558417,0 -63.676869,46.568061,0 -63.638905,46.567043,0 -63.536733,46.544664,0 -63.520985,46.536322,0 -63.517323,46.533637,0 -63.513254,46.532701,0 -63.503977,46.532945,0 -63.494740,46.531155,0 -63.493764,46.526923,0 -63.496205,46.522366,0 -63.497426,46.519273,0 -63.496327,46.512844,0 -63.498931,46.506496,0 -63.500803,46.499661,0 -63.497426,46.492011,0 -63.481923,46.492621,0 -63.456614,46.467434,0 -63.445546,46.467475,0 -63.432607,46.483710,0 -63.428944,46.497463,0 -63.438100,46.505845,0 -63.463246,46.506293,0 -63.436513,46.512519,0 -63.399037,46.512112,0 -63.360911,46.506903,0 -63.332346,46.498847,0 -63.317779,46.489000,0 -63.313588,46.478339,0 -63.312082,46.465969,0 -63.305572,46.450995,0 -63.302154,46.450995,0 -63.280344,46.439276,0 -63.263539,46.425971,0 -63.257192,46.423082,0 -63.250356,46.429877,0 -63.245025,46.412543,0 -63.238108,46.407416,0 -63.228749,46.409980,0 -63.216217,46.415595,0 -63.214223,46.417914,0 -63.212554,46.421820,0 -63.209340,46.426215,0 -63.202545,46.429877,0 -63.194732,46.431138,0 -63.081125,46.420885,0 -62.953196,46.424058,0 -62.849721,46.437405,0 -62.841868,46.430854,0 -62.833404,46.419501,0 -62.823801,46.415107,0 -62.812123,46.429877,0 -62.819569,46.437405,0 -62.764516,46.449042,0 -62.585601,46.429877,0 -62.585601,46.437405,0 -62.677235,46.447659,0 -62.702260,46.457221,0 -62.674143,46.464423,0 -62.611684,46.467597,0 -62.585601,46.478339,0 -62.565785,46.470893,0 -62.542063,46.471666,0 -62.516916,46.475816,0 -62.357289,46.479315,0 -62.264556,46.473782,0 -62.185170,46.487006,0 -62.099110,46.483710,0 -62.004018,46.464057,0 -61.976959,46.454657,0 -61.977406,46.448188,0 -61.993520,46.440334,0 -62.031321,46.414944,0</coordinates>
          </LinearRing>
        </outerBoundaryIs>
      </Polygon>
    </Placemark>
  </Document>
</kml>
