<?xml version="1.0" encoding="UTF-8"?>
<kml xmlns="http://www.opengis.net/kml/2.2">
  <Document>
    <Placemark>
      <name>Mayotte - Grande-Terre</name>
      <Polygon>
        <altitudeMode>clampToGround</altitudeMode>
        <outerBoundaryIs>
          <LinearRing>
            <coordinates>45.200694,-12.722914,0 45.217621,-12.734063,0 45.224783,-12.745701,0 45.224946,-12.759535,0 45.220551,-12.777520,0 45.196951,-12.811700,0 45.188162,-12.817071,0 45.188731,-12.828790,0 45.195160,-12.840509,0 45.213145,-12.851821,0 45.210948,-12.865330,0 45.204356,-12.878513,0 45.200694,-12.883966,0 45.191661,-12.904962,0 45.175304,-12.924005,0 45.168224,-12.944268,0 45.186371,-12.968845,0 45.182302,-12.975763,0 45.178071,-12.981052,0 45.173025,-12.985040,0 45.165863,-12.989190,0 45.159923,-12.978611,0 45.153087,-12.979669,0 45.144298,-12.985772,0 45.131847,-12.989190,0 45.120616,-12.986261,0 45.113292,-12.981052,0 45.106700,-12.978123,0 45.097179,-12.982354,0 45.098481,-12.967869,0 45.094493,-12.958185,0 45.084972,-12.953709,0 45.070323,-12.955011,0 45.070323,-12.948907,0 45.088390,-12.940362,0 45.090180,-12.924005,0 45.081228,-12.908298,0 45.062511,-12.898533,0 45.065278,-12.893162,0 45.072927,-12.888360,0 45.083995,-12.887384,0 45.090099,-12.891046,0 45.107921,-12.911716,0 45.124766,-12.921482,0 45.134125,-12.916925,0 45.136485,-12.903904,0 45.131847,-12.887384,0 45.123871,-12.875095,0 45.113292,-12.863377,0 45.083995,-12.839044,0 45.097992,-12.833429,0 45.104503,-12.832778,0 45.104503,-12.825942,0 45.098643,-12.817478,0 45.094249,-12.802830,0 45.090831,-12.773858,0 45.087169,-12.759698,0 45.078380,-12.753595,0 45.067149,-12.750095,0 45.056651,-12.743422,0 45.049490,-12.734308,0 45.045177,-12.725193,0 45.042979,-12.713962,0 45.042491,-12.698419,0 45.090831,-12.647231,0 45.094737,-12.653578,0 45.095958,-12.656508,0 45.097179,-12.660821,0 45.092784,-12.661879,0 45.090180,-12.663263,0 45.083995,-12.667657,0 45.090505,-12.667087,0 45.093516,-12.669041,0 45.094981,-12.672052,0 45.097179,-12.674493,0 45.110606,-12.685805,0 45.128917,-12.707452,0 45.138682,-12.714939,0 45.152599,-12.718194,0 45.183767,-12.717950,0 45.200694,-12.722914,0</coordinates>
          </LinearRing>
        </outerBoundaryIs>
      </Polygon>
    </Placemark>
    <Placemark>
      <name>Mayotte - Petite-Terre</name>
      <Polygon>
        <altitudeMode>clampToGround</altitudeMode>
        <outerBoundaryIs>
          <LinearRing>
            <coordinates>45.262218,-12.763360,0 45.277110,-12.747491,0 45.282563,-12.743422,0 45.289317,-12.759861,0 45.290863,-12.774021,0 45.288422,-12.788344,0 45.282563,-12.804864,0 45.275727,-12.804864,0 45.262218,-12.763360,0</coordinates>
          </LinearRing>
        </outerBoundaryIs>
      </Polygon>
    </Placemark>
  </Document>
</kml>
