<?xml version='1.0' encoding='UTF-8'?>
<kml xmlns="http://www.opengis.net/kml/2.2">
  <Document>
    <name>Mexico</name>
    <Folder xmlns:gx="http://www.google.com/kml/ext/2.2" xmlns:atom="http://www.w3.org/2005/Atom" id="5C6AF8749B0001B6">
					<name>Mexico</name>
					<styleUrl>#__managed_style_2D1A677FEA3F8CDEB5E0</styleUrl>
					<Placemark id="5C6AF8749B0001B7">
						<name>Mexico</name>
						<description>See: 2050-snapshot/domains/borders-geopolitics.md#mexico</description>
						<styleUrl>#__managed_style_4D39E5F87A3F8CDEB5E0</styleUrl>
						<Polygon>
							<outerBoundaryIs>
								<LinearRing>
									<coordinates>
										-111.692317,24.373939,0 -111.724208,24.396167,0 -111.753489,24.446967,0 -111.818232,24.467621,0 -111.837343,24.512756,0 -111.988974,24.527654,0 -112.006844,24.5144,0 -111.871583,24.439099,0 -111.758561,24.356101,0 -111.708111,24.299854,0 -111.692317,24.373939,0 
									</coordinates>
								</LinearRing>
							</outerBoundaryIs>
						</Polygon>
					</Placemark>
					<Placemark id="5C6AF8749B0001B8">
						<name>Mexico</name>
						<description>See: 2050-snapshot/domains/borders-geopolitics.md#mexico</description>
						<styleUrl>#__managed_style_4D39E5F87A3F8CDEB5E0</styleUrl>
						<Polygon>
							<outerBoundaryIs>
								<LinearRing>
									<coordinates>
										-112.304596,24.792182,0 -112.259413,24.749407,0 -112.260932,24.776582,0 -112.237785,24.789228,0 -112.189533,24.773923,0 -112.155764,24.743385,0 -112.138381,24.680297,0 -112.176344,24.653562,0 -112.113862,24.599166,0 -112.102478,24.559152,0 -112.059907,24.540603,0 -112.078085,24.584837,0 -112.136464,24.632882,0 -112.140029,24.659288,0 -112.115623,24.689301,0 -112.213715,24.847527,0 -112.20431,24.866861,0 -112.176865,24.872388,0 -112.19593,24.915301,0 -112.186964,24.961331,0 -112.161827,24.974397,0 -112.179304,25.044986,0 -112.120224,25.220521,0 -112.125326,25.265833,0 -112.137846,25.265261,0 -112.206302,25.01766,0 -112.304596,24.792182,0 
									</coordinates>
								</LinearRing>
							</outerBoundaryIs>
						</Polygon>
					</Placemark>
					<Placemark id="5C6AF8749B0001B9">
						<name>Mexico</name>
						<description>See: 2050-snapshot/domains/borders-geopolitics.md#mexico</description>
						<styleUrl>#__managed_style_4D39E5F87A3F8CDEB5E0</styleUrl>
						<Polygon>
							<outerBoundaryIs>
								<LinearRing>
									<coordinates>
										-112.138051,25.297347,0 -112.122754,25.282136,0 -112.104347,25.342348,0 -112.098136,25.485822,0 -112.138051,25.297347,0 
									</coordinates>
								</LinearRing>
							</outerBoundaryIs>
						</Polygon>
					</Placemark>
					<Placemark id="5C6AF8749B0001BA">
						<name>Mexico</name>
						<description>See: 2050-snapshot/domains/borders-geopolitics.md#mexico</description>
						<styleUrl>#__managed_style_4D39E5F87A3F8CDEB5E0</styleUrl>
						<Polygon>
							<outerBoundaryIs>
								<LinearRing>
									<coordinates>
										-113.195139,26.713853,0 -113.228993,26.732896,0 -113.264556,26.70893,0 -113.138051,26.665107,0 -113.174428,26.720445,0 -113.195139,26.713853,0 
									</coordinates>
								</LinearRing>
							</outerBoundaryIs>
						</Polygon>
					</Placemark>
					<Placemark id="5C6AF8749B0001BB">
						<name>Mexico</name>
						<description>See: 2050-snapshot/domains/borders-geopolitics.md#mexico</description>
						<styleUrl>#__managed_style_4D39E5F87A3F8CDEB5E0</styleUrl>
						<Polygon>
							<outerBoundaryIs>
								<LinearRing>
									<coordinates>
										-112.09009,27.259978,0 -112.108812,27.236915,0 -112.087448,27.182942,0 -112.066279,27.178965,0 -112.045253,27.216644,0 -112.09009,27.259978,0 
									</coordinates>
								</LinearRing>
							</outerBoundaryIs>
						</Polygon>
					</Placemark>
					<Placemark id="5C6AF8749B0001BC">
						<name>Mexico</name>
						<description>See: 2050-snapshot/domains/borders-geopolitics.md#mexico</description>
						<styleUrl>#__managed_style_4D39E5F87A3F8CDEB5E0</styleUrl>
						<Polygon>
							<outerBoundaryIs>
								<LinearRing>
									<coordinates>
										-115.239756,28.23360600000001,0 -115.352157,28.11642,0 -115.34661,28.071051,0 -115.303545,28.094699,0 -115.261845,28.070143,0 -115.253995,28.040304,0 -115.181697,28.027582,0 -115.185777,28.10617299999999,0 -115.155829,28.14078,0 -115.172268,28.212645,0 -115.162715,28.261342,0 -115.191995,28.360836,0 -115.214867,28.378279,0 -115.248642,28.359315,0 -115.262453,28.298756,0 -115.239756,28.23360600000001,0 
									</coordinates>
								</LinearRing>
							</outerBoundaryIs>
						</Polygon>
					</Placemark>
					<Placemark id="5C6AF8749B0001BD">
						<name>Mexico</name>
						<description>See: 2050-snapshot/domains/borders-geopolitics.md#mexico</description>
						<styleUrl>#__managed_style_4D39E5F87A3F8CDEB5E0</styleUrl>
						<Polygon>
							<outerBoundaryIs>
								<LinearRing>
									<coordinates>
										-112.867798,28.643278,0 -112.797926,28.60992,0 -112.773919,28.575782,0 -112.752401,28.591081,0 -112.804956,28.636537,0 -112.893769,28.677696,0 -112.867798,28.643278,0 
									</coordinates>
								</LinearRing>
							</outerBoundaryIs>
						</Polygon>
					</Placemark>
					<Placemark id="5C6AF8749B0001BE">
						<name>Mexico</name>
						<description>See: 2050-snapshot/domains/borders-geopolitics.md#mexico</description>
						<styleUrl>#__managed_style_4D39E5F87A3F8CDEB5E0</styleUrl>
						<Polygon>
							<outerBoundaryIs>
								<LinearRing>
									<coordinates>
										-112.541402,28.712268,0 -112.557451,28.733809,0 -112.61315,28.725763,0 -112.604349,28.669434,0 -112.553939,28.672288,0 -112.541402,28.712268,0 
									</coordinates>
								</LinearRing>
							</outerBoundaryIs>
						</Polygon>
					</Placemark>
					<Placemark id="5C6AF8749B0001BF">
						<name>Mexico</name>
						<description>See: 2050-snapshot/domains/borders-geopolitics.md#mexico</description>
						<styleUrl>#__managed_style_4D39E5F87A3F8CDEB5E0</styleUrl>
						<Polygon>
							<outerBoundaryIs>
								<LinearRing>
									<coordinates>
										-112.464711,29.18183,0 -112.500356,29.075629,0 -112.500152,28.990424,0 -112.485911,28.971625,0 -112.526104,28.908842,0 -112.583033,28.875363,0 -112.467216,28.819406,0 -112.466536,28.80557,0 -112.412819,28.800128,0 -112.359055,28.758236,0 -112.326175,28.762722,0 -112.30966,28.74636,0 -112.253187,28.76905,0 -112.276229,28.805451,0 -112.237684,28.876342,0 -112.195606,29.02133,0 -112.272747,29.137675,0 -112.263567,29.192841,0 -112.281569,29.225471,0 -112.264337,29.24689,0 -112.299565,29.222823,0 -112.362748,29.217736,0 -112.401452,29.189441,0 -112.43871,29.202094,0 -112.464711,29.18183,0 
									</coordinates>
								</LinearRing>
							</outerBoundaryIs>
						</Polygon>
					</Placemark>
					<Placemark id="5C6AF8749B0001C0">
						<name>Mexico</name>
						<description>See: 2050-snapshot/domains/borders-geopolitics.md#mexico</description>
						<styleUrl>#__managed_style_4D39E5F87A3F8CDEB5E0</styleUrl>
						<Polygon>
							<outerBoundaryIs>
								<LinearRing>
									<coordinates>
										-118.286176,29.13644,0 -118.255895,29.180932,0 -118.296346,29.186159,0 -118.356778,29.14948100000001,0 -118.368804,29.114401,0 -118.355518,29.067004,0 -118.304343,28.998019,0 -118.31599,28.981687,0 -118.294043,28.948117,0 -118.288782,28.868083,0 -118.225804,28.915052,0 -118.229589,29.06172,0 -118.286176,29.13644,0 
									</coordinates>
								</LinearRing>
							</outerBoundaryIs>
						</Polygon>
					</Placemark>
					<Placemark id="5C6AF8749B0001C1">
						<name>Mexico</name>
						<description>See: 2050-snapshot/domains/borders-geopolitics.md#mexico</description>
						<styleUrl>#__managed_style_4D39E5F87A3F8CDEB5E0</styleUrl>
						<Polygon>
							<outerBoundaryIs>
								<LinearRing>
									<coordinates>
										-113.571144,29.53995,0 -113.564595,29.507679,0 -113.588401,29.456846,0 -113.589104,29.409599,0 -113.511685,29.326409,0 -113.49608,29.285201,0 -113.450128,29.279715,0 -113.405533,29.211975,0 -113.300654,29.145095,0 -113.243628,29.06947,0 -113.114792,28.984478,0 -113.102084,29.053106,0 -113.14823,29.066267,0 -113.174315,29.129248,0 -113.168525,29.276118,0 -113.18276,29.289693,0 -113.297415,29.280457,0 -113.370287,29.310009,0 -113.373138,29.36120500000001,0 -113.349779,29.384066,0 -113.39516,29.459318,0 -113.510876,29.549338,0 -113.549117,29.53313899999999,0 -113.571144,29.53995,0 
									</coordinates>
								</LinearRing>
							</outerBoundaryIs>
						</Polygon>
					</Placemark>
					<Placemark id="5C6AF8749B0001C2">
						<name>Mexico</name>
						<description>See: 2050-snapshot/domains/borders-geopolitics.md#mexico</description>
						<styleUrl>#__managed_style_4D39E5F87A3F8CDEB5E0</styleUrl>
						<Polygon>
							<outerBoundaryIs>
								<LinearRing>
									<coordinates>
										-114.715566,31.695217,0 -114.693674,31.710273,0 -114.652699,31.689765,0 -114.710072,31.763739,0 -114.786122,31.803046,0 -114.798207,31.756659,0 -114.762563,31.715644,0 -114.715566,31.695217,0 
									</coordinates>
								</LinearRing>
							</outerBoundaryIs>
						</Polygon>
					</Placemark>
					<Placemark id="5C6AF8749B0001C3">
						<name>Mexico</name>
						<description>See: 2050-snapshot/domains/borders-geopolitics.md#mexico</description>
						<styleUrl>#__managed_style_4D39E5F87A3F8CDEB5E0</styleUrl>
						<Polygon>
							<outerBoundaryIs>
								<LinearRing>
									<coordinates>
										-111.06725,18.768744,0 -110.979482,18.716783,0 -110.924306,18.727362,0 -110.911204,18.762519,0 -110.956166,18.843695,0 -111.000559,18.868232,0 -111.05309,18.815985,0 -111.06725,18.768744,0 
									</coordinates>
								</LinearRing>
							</outerBoundaryIs>
						</Polygon>
					</Placemark>
					<Placemark id="5C6AF8749B0001C4">
						<name>Mexico</name>
						<description>See: 2050-snapshot/domains/borders-geopolitics.md#mexico</description>
						<styleUrl>#__managed_style_4D39E5F87A3F8CDEB5E0</styleUrl>
						<Polygon>
							<outerBoundaryIs>
								<LinearRing>
									<coordinates>
										-106.478747,21.451402,0 -106.387098,21.420636,0 -106.380654,21.446987,0 -106.362644,21.455074,0 -106.372728,21.482046,0 -106.459587,21.494885,0 -106.492614,21.469005,0 -106.478747,21.451402,0 
									</coordinates>
								</LinearRing>
							</outerBoundaryIs>
						</Polygon>
					</Placemark>
					<Placemark id="5C6AF8749B0001C5">
						<name>Mexico</name>
						<description>See: 2050-snapshot/domains/borders-geopolitics.md#mexico</description>
						<styleUrl>#__managed_style_4D39E5F87A3F8CDEB5E0</styleUrl>
						<Polygon>
							<outerBoundaryIs>
								<LinearRing>
									<coordinates>
										-106.545065,21.561892,0 -106.541794,21.543459,0 -106.511664,21.571896,0 -106.504782,21.602859,0 -106.539426,21.636398,0 -106.534458,21.657571,0 -106.600013,21.691452,0 -106.660848,21.693064,0 -106.631156,21.600861,0 -106.545065,21.561892,0 
									</coordinates>
								</LinearRing>
							</outerBoundaryIs>
						</Polygon>
					</Placemark>
					<Placemark id="5C6AF8749B0001C6">
						<name>Mexico</name>
						<description>See: 2050-snapshot/domains/borders-geopolitics.md#mexico</description>
						<styleUrl>#__managed_style_4D39E5F87A3F8CDEB5E0</styleUrl>
						<Polygon>
							<outerBoundaryIs>
								<LinearRing>
									<coordinates>
										-109.802865,24.137062,0 -109.808563,24.182222,0 -109.93322,24.37441400000001,0 -109.923875,24.266638,0 -109.873927,24.151703,0 -109.802865,24.137062,0 
									</coordinates>
								</LinearRing>
							</outerBoundaryIs>
						</Polygon>
					</Placemark>
					<Placemark id="5C6AF8749B0001C7">
						<name>Mexico</name>
						<description>See: 2050-snapshot/domains/borders-geopolitics.md#mexico</description>
						<styleUrl>#__managed_style_4D39E5F87A3F8CDEB5E0</styleUrl>
						<Polygon>
							<outerBoundaryIs>
								<LinearRing>
									<coordinates>
										-111.561635,24.378079,0 -111.657778,24.375217,0 -111.673254,24.358401,0 -111.561253,24.362367,0 -111.462958,24.329771,0 -111.509633,24.363959,0 -111.561635,24.378079,0 
									</coordinates>
								</LinearRing>
							</outerBoundaryIs>
						</Polygon>
					</Placemark>
					<Placemark id="5C6AF8749B0001C8">
						<name>Mexico</name>
						<description>See: 2050-snapshot/domains/borders-geopolitics.md#mexico</description>
						<styleUrl>#__managed_style_4D39E5F87A3F8CDEB5E0</styleUrl>
						<Polygon>
							<outerBoundaryIs>
								<LinearRing>
									<coordinates>
										-110.405571,24.543804,0 -110.376232,24.530767,0 -110.39677,24.511183,0 -110.38464,24.473656,0 -110.360162,24.457546,0 -110.375659,24.446832,0 -110.370426,24.429678,0 -110.348837,24.429575,0 -110.34804,24.402451,0 -110.326505,24.400749,0 -110.312734,24.446682,0 -110.292346,24.458185,0 -110.305002,24.50316,0 -110.363989,24.532489,0 -110.386497,24.58686399999999,0 -110.415745,24.569601,0 -110.405571,24.543804,0 
									</coordinates>
								</LinearRing>
							</outerBoundaryIs>
						</Polygon>
					</Placemark>
					<Placemark id="5C6AF8749B0001C9">
						<name>Mexico</name>
						<description>See: 2050-snapshot/domains/borders-geopolitics.md#mexico</description>
						<styleUrl>#__managed_style_4D39E5F87A3F8CDEB5E0</styleUrl>
						<Polygon>
							<outerBoundaryIs>
								<LinearRing>
									<coordinates>
										-110.675838,25.011198,0 -110.642313,24.914498,0 -110.620302,24.916724,0 -110.57388,24.887455,0 -110.579153,24.863662,0 -110.524929,24.880001,0 -110.570692,24.955493,0 -110.574916,25.015727,0 -110.593092,25.034447,0 -110.668625,25.05277299999999,0 -110.70202,25.103375,0 -110.713282,25.029215,0 -110.675838,25.011198,0 
									</coordinates>
								</LinearRing>
							</outerBoundaryIs>
						</Polygon>
					</Placemark>
					<Placemark id="5C6AF8749B0001CA">
						<name>Mexico</name>
						<description>See: 2050-snapshot/domains/borders-geopolitics.md#mexico</description>
						<styleUrl>#__managed_style_4D39E5F87A3F8CDEB5E0</styleUrl>
						<Polygon>
							<outerBoundaryIs>
								<LinearRing>
									<coordinates>
										-109.013092,25.446926,0 -108.994008,25.426744,0 -108.916086,25.424465,0 -108.803944,25.374579,0 -108.786529,25.385443,0 -108.831614,25.426418,0 -108.90099,25.446519,0 -109.013092,25.446926,0 
									</coordinates>
								</LinearRing>
							</outerBoundaryIs>
						</Polygon>
					</Placemark>
					<Placemark id="5C6AF8749B0001CB">
						<name>Mexico</name>
						<description>See: 2050-snapshot/domains/borders-geopolitics.md#mexico</description>
						<styleUrl>#__managed_style_4D39E5F87A3F8CDEB5E0</styleUrl>
						<Polygon>
							<outerBoundaryIs>
								<LinearRing>
									<coordinates>
										-110.753187,25.598096,0 -110.773414,25.712795,0 -110.803561,25.674933,0 -110.785886,25.604369,0 -110.753187,25.598096,0 
									</coordinates>
								</LinearRing>
							</outerBoundaryIs>
						</Polygon>
					</Placemark>
					<Placemark id="5C6AF8749B0001CC">
						<name>Mexico</name>
						<description>See: 2050-snapshot/domains/borders-geopolitics.md#mexico</description>
						<styleUrl>#__managed_style_4D39E5F87A3F8CDEB5E0</styleUrl>
						<Polygon>
							<outerBoundaryIs>
								<LinearRing>
									<coordinates>
										-111.103414,26.053817,0 -111.12752,26.068313,0 -111.133813,26.052844,0 -111.176027,26.043342,0 -111.169255,25.987594,0 -111.211072,25.928869,0 -111.230345,25.823612,0 -111.204991,25.803754,0 -111.180803,25.902525,0 -111.11233,25.99666,0 -111.067386,25.965818,0 -111.081986,26.02869400000001,0 -111.056369,26.071817,0 -111.103414,26.053817,0 
									</coordinates>
								</LinearRing>
							</outerBoundaryIs>
						</Polygon>
					</Placemark>
					<Placemark id="5C6AF8749B0001CD">
						<name>Mexico</name>
						<description>See: 2050-snapshot/domains/borders-geopolitics.md#mexico</description>
						<styleUrl>#__managed_style_4D39E5F87A3F8CDEB5E0</styleUrl>
						<Polygon>
							<outerBoundaryIs>
								<LinearRing>
									<coordinates>
										-91.688873,18.66942,0 -91.62083899999999,18.744696,0 -91.52456600000001,18.752143,0 -91.538889,18.793118,0 -91.812164,18.679755,0 -91.84268100000001,18.65119,0 -91.78595900000002,18.654364,0 -91.702748,18.697496,0 -91.723215,18.662787,0 -91.688873,18.66942,0 
									</coordinates>
								</LinearRing>
							</outerBoundaryIs>
						</Polygon>
					</Placemark>
					<Placemark id="5C6AF8749B0001CE">
						<name>Mexico</name>
						<description>See: 2050-snapshot/domains/borders-geopolitics.md#mexico</description>
						<styleUrl>#__managed_style_4D39E5F87A3F8CDEB5E0</styleUrl>
						<Polygon>
							<outerBoundaryIs>
								<LinearRing>
									<coordinates>
										-86.742177,20.595893,0 -86.771311,20.566107,0 -86.837148,20.547187,0 -86.90542600000001,20.567694,0 -86.968129,20.506252,0 -87.019683,20.397447,0 -87.01887000000001,20.332465,0 -86.99526899999999,20.26081,0 -86.88980100000001,20.353664,0 -86.73534100000001,20.585354,0 -86.742177,20.595893,0 
									</coordinates>
								</LinearRing>
							</outerBoundaryIs>
						</Polygon>
					</Placemark>
					<Placemark id="5C6AF8749B0001CF">
						<name>Mexico</name>
						<description>See: 2050-snapshot/domains/borders-geopolitics.md#mexico</description>
						<styleUrl>#__managed_style_4D39E5F87A3F8CDEB5E0</styleUrl>
						<Polygon>
							<outerBoundaryIs>
								<LinearRing>
									<coordinates>
										-89.650575,22.367576,0 -89.634276,22.378891,0 -89.610152,22.461081,0 -89.658248,22.54067,0 -89.729725,22.582869,0 -89.77075600000001,22.533241,0 -89.738769,22.549388,0 -89.714017,22.541046,0 -89.655165,22.472001,0 -89.657104,22.446689,0 -89.69797199999999,22.417544,0 -89.691726,22.387599,0 -89.650575,22.367576,0 
									</coordinates>
								</LinearRing>
							</outerBoundaryIs>
						</Polygon>
					</Placemark>
					<Placemark id="5C6AF8749B0001D0">
						<name>Mexico</name>
						<description>See: 2050-snapshot/domains/borders-geopolitics.md#mexico</description>
						<styleUrl>#__managed_style_4D39E5F87A3F8CDEB5E0</styleUrl>
						<Polygon>
							<outerBoundaryIs>
								<LinearRing>
									<coordinates>
										-97.733306,23.774807,0 -97.76060999999999,23.651923,0 -97.75886,23.769029,0 -97.822092,23.788398,0 -97.75096600000001,23.781928,0 -97.72520900000002,23.80565,0 -97.71666399999999,24.008124,0 -97.651438,24.515855,0 -97.458974,25.179389,0 -97.261545,25.499457,0 -97.16515099999999,25.723334,0 -97.16746999999999,25.828599,0 -97.13927200000001,25.965806,0 -97.14966200000001,26.064136,0 -97.19567499999999,26.046559,0 -97.18969300000001,26.071582,0 -97.26942200000001,26.086082,0 -97.31253800000002,26.120344,0 -97.293015,26.130192,0 -97.282753,26.11909,0 -97.303635,26.166219,0 -97.29724300000001,26.203341,0 -97.316733,26.224025,0 -97.299858,26.267406,0 -97.32433899999999,26.277316,0 -97.30983999999999,26.288291,0 -97.286191,26.267513,0 -97.2812,26.280513,0 -97.38054999999999,26.480559,0 -97.413112,26.48119700000001,0 -97.41537,26.552763,0 -97.445708,26.609362,0 -97.468135,26.710199,0 -97.478605,26.80667499999999,0 -97.464806,26.823964,0 -97.41267399999998,26.817402,0 -97.460284,26.847287,0 -97.4576,26.872897,0 -97.410223,26.874354,0 -97.4569,26.882577,0 -97.453166,26.910467,0 -97.43729600000002,26.913069,0 -97.453283,26.917335,0 -97.43916299999999,27.070705,0 -97.41792500000001,27.070913,0 -97.439396,27.076524,0 -97.430994,27.160861,0 -97.441565,27.163833,0 -97.42259300000001,27.262045,0 -97.54291000000001,27.229213,0 -97.631123,27.24223,0 -97.64734300000001,27.276359,0 -97.74011400000001,27.267542,0 -97.66367999999999,27.286419,0 -97.654877,27.305103,0 -97.68444,27.319878,0 -97.70880200000001,27.385638,0 -97.661266,27.360099,0 -97.658418,27.329696,0 -97.63322000000001,27.32463,0 -97.636904,27.300977,0 -97.613017,27.285241,0 -97.533734,27.340039,0 -97.493583,27.390597,0 -97.48146199999998,27.340465,0 -97.501189,27.328219,0 -97.500595,27.306574,0 -97.544437,27.284175,0 -97.508304,27.275014,0 -97.41443599999999,27.321568,0 -97.36939599999998,27.410433,0 -97.322191,27.569058,0 -97.29464499999999,27.592688,0 -97.26921400000001,27.67744,0 -97.243544,27.689227,0 -97.36835499999998,27.741683,0 -97.393291,27.782905,0 -97.37886399999999,27.835919,0 -97.47207299999999,27.824154,0 -97.515095,27.85117,0 -97.516622,27.871425,0 -97.493239,27.884076,0 -97.481224,27.860092,0 -97.458664,27.878882,0 -97.418358,27.870388,0 -97.337784,27.883624,0 -97.330714,27.873816,0 -97.354949,27.851081,0 -97.26356599999998,27.88081499999999,0 -97.22085,27.850262,0 -97.22488599999998,27.826676,0 -97.201044,27.821279,0 -97.07963999999998,27.975539,0 -97.07507700000001,27.919354,0 -97.064429,27.992834,0 -97.04373900000002,28.028056,0 -97.0252,28.032147,0 -97.03684600000001,28.07588,0 -97.020565,28.104816,0 -97.05336500000001,28.118338,0 -97.054197,28.092761,0 -97.135246,28.04788,0 -97.10589200000001,28.038021,0 -97.12193499999999,28.020922,0 -97.22283,28.077348,0 -97.169185,28.130512,0 -97.031941,28.188712,0 -97.01754300000002,28.202865,0 -97.028507,28.203225,0 -97.00879999999999,28.20268,0 -97.007255,28.193987,0 -97.018901,28.176494,0 -97.00883399999999,28.158263,0 -97.025384,28.14963,0 -96.97968399999999,28.125361,0 -96.97240099999999,28.173059,0 -96.94593399999999,28.196501,0 -96.968513,28.21996,0 -96.91800600000002,28.269373,0 -96.942487,28.217656,0 -96.92537400000002,28.193149,0 -96.967384,28.123249,0 -96.93155399999999,28.123893,0 -96.90718,28.14691699999999,0 -96.926075,28.114324,0 -96.91305099999998,28.120445,0 -96.77678900000001,28.244826,0 -96.80957299999999,28.290287,0 -96.792609,28.310564,0 -96.791881,28.360341,0 -96.85962000000001,28.413348,0 -96.83811,28.432788,0 -96.780948,28.401118,0 -96.76463800000001,28.425502,0 -96.79354499999999,28.458389,0 -96.826835,28.446416,0 -96.88021300000001,28.50435,0 -96.90229600000001,28.508812,0 -96.91844500000001,28.487234,0 -97.02022900000001,28.509329,0 -97.03427600000001,28.534177,0 -97.05095900000002,28.53503,0 -97.04517800000001,28.550051,0 -97.079628,28.545564,0 -97.08209899999999,28.532237,0 -97.10456100000002,28.554761,0 -97.15562199999999,28.547914,0 -97.191006,28.63533,0 -97.21490100000001,28.602715,0 -97.242074,28.609321,0 -97.251205,28.640619,0 -97.26525700000002,28.634976,0 -97.28061099999998,28.65529799999999,0 -97.31063599999999,28.623666,0 -97.30546200000001,28.642261,0 -97.33239799999998,28.6343,0 -97.388772,28.661467,0 -97.419078,28.632918,0 -97.435513,28.656386,0 -97.452254,28.641317,0 -97.52652200000001,28.639978,0 -97.540487,28.67406,0 -97.561258,28.666244,0 -97.56194000000001,28.680817,0 -97.60939399999999,28.696757,0 -97.611096,28.716453,0 -97.637197,28.716667,0 -97.65742899999999,28.761178,0 -97.689724,28.751274,0 -97.72588399999999,28.811903,0 -97.722032,28.84063,0 -97.73510600000002,28.854882,0 -97.75161799999999,28.847843,0 -97.756816,28.880525,0 -97.77364900000001,28.874439,0 -97.812597,28.935086,0 -97.82305500000001,28.928069,0 -97.852582,28.953193,0 -97.94638399999999,28.930639,0 -98.00506899999999,28.979604,0 -98.06821100000001,28.939896,0 -98.06546099999998,28.952817,0 -98.09396700000002,28.963526,0 -98.083406,28.985057,0 -98.10077899999999,28.990189,0 -98.111796,29.032111,0 -98.166079,29.058799,0 -98.155682,29.111444,0 -98.183002,29.114527,0 -98.17317,29.127683,0 -98.195447,29.144912,0 -98.20556000000001,29.188972,0 -98.27074900000001,29.223618,0 -98.28910999999999,29.208686,0 -98.327163,29.209858,0 -98.25104,29.301523,0 -98.11690200000001,29.463884,0 -98.12820600000001,29.482596,0 -98.164638,29.478091,0 -98.17023000000002,29.497864,0 -98.185085,29.486089,0 -98.22311200000001,29.549236,0 -98.257518,29.555248,0 -98.255377,29.540491,0 -98.29802100000001,29.561102,0 -98.31222200000001,29.601802,0 -98.345252,29.618297,0 -98.342733,29.653442,0 -98.38434100000001,29.676534,0 -98.38048700000002,29.703464,0 -98.344689,29.707239,0 -98.34135000000001,29.70965,0 -98.34036699999999,29.711795,0 -98.338618,29.721786,0 -98.35258899999999,29.734365,0 -98.37521,29.719975,0 -98.403871,29.749,0 -98.43092599999999,29.715754,0 -98.445978,29.735884,0 -98.52678099999999,29.740445,0 -98.55048899999998,29.760713,0 -98.582849,29.741137,0 -98.643545,29.740357,0 -98.65093800000001,29.754002,0 -98.734126,29.729451,0 -98.73815999999999,29.716576,0 -98.77878200000001,29.720167,0 -98.927161,29.56225,0 -98.97138300000002,29.551842,0 -98.985944,29.567048,0 -98.98378700000001,29.62345,0 -100.699932,29.623897,0 -101.038989,29.46039499999999,0 -101.164404,29.501532,0 -101.22356,29.540961,0 -101.219824,29.610468,0 -101.259619,29.620429,0 -101.312988,29.59809,0 -101.301929,29.649726,0 -101.365161,29.676874,0 -101.371254,29.688781,0 -101.338232,29.71308,0 -101.33042,29.7633,0 -101.338965,29.796503,0 -101.406299,29.813422,0 -101.37168,29.856879,0 -101.440527,29.89411,0 -101.519385,29.897895,0 -101.52207,29.914814,0 -101.468506,29.948798,0 -101.458911,29.971015,0 -101.510986,30.032099,0 -101.463184,30.053168,0 -101.48833,30.07287,0 -101.491699,30.121161,0 -101.546387,30.13703,0 -101.583545,30.199482,0 -101.631201,30.213251,0 -101.652832,30.244208,0 -101.708911,30.274042,0 -101.726978,30.320746,0 -101.724707,30.338886,0 -101.67334,30.359442,0 -101.715625,30.431952,0 -101.72478,30.479438,0 -101.712402,30.514228,0 -101.660986,30.544379,0 -101.660571,30.606513,0 -101.698901,30.677436,0 -101.821338,30.717157,0 -101.830811,30.80836800000001,0 -101.89707,30.943232,0 -101.951221,30.961786,0 -101.991309,31.005194,0 -102.090186,31.000434,0 -102.172949,31.018817,0 -102.200928,31.045526,0 -102.266895,31.045673,0 -102.322607,31.076288,0 -102.390534,31.085451,0 -102.36658,31.086889,0 -102.400073,31.11037,0 -102.426807,31.216815,0 -102.480151,31.259345,0 -102.565112,31.277216,0 -102.636816,31.327997,0 -102.681812,31.32807,0 -102.735352,31.285102,0 -102.748877,31.295966,0 -102.811035,31.278266,0 -102.878174,31.334345,0 -103.006836,31.393573,0 -103.143848,31.37287,0 -103.221924,31.402411,0 -103.2396,31.436591,0 -103.433203,31.446796,0 -103.496094,31.541083,0 -103.510596,31.621283,0 -103.527686,31.639716,0 -103.601074,31.67768,0 -103.60625,31.714423,0 -103.68125,31.758661,0 -103.736133,31.762323,0 -103.778491,31.797431,0 -103.814697,31.902118,0 -103.852539,31.88161,0 -103.956485,32.000129,0 -103.064509,32.000424,0 -103.041698,36.500541,0 -103.002434,36.50052,0 -103.002199,37.000104,0 -107.420913,37.000005,0 -107.430623,36.970109,0 -107.457159,36.954964,0 -107.445692,36.915369,0 -107.456967,36.898075,0 -107.522919,36.875468,0 -107.529846,36.854354,0 -107.561675,36.855753,0 -107.599874,36.832525,0 -107.591754,36.81331,0 -107.603445,36.799002,0 -107.618181,36.804267,0 -107.626511,36.000288,0 -107.308667,35.998556,0 -107.309386,35.305687,0 -107.23889,35.305507,0 -107.197244,35.219459,0 -107.134751,35.219418,0 -107.196763,35.219458,0 -107.066816,34.957191,0 -107.202882,34.957572,0 -107.201743,34.578757,0 -109.046156,34.579291,0 -109.046946,33.777409,0 -109.348581,33.778123,0 -109.364752,33.739804,0 -109.352975,33.724911,0 -109.448757,33.711027,0 -109.4837,33.686346,0 -109.482539,33.654184,0 -109.519505,33.645804,0 -109.525184,33.618643,0 -109.5618,33.626288,0 -109.602881,33.612875,0 -109.619631,33.584058,0 -109.675528,33.573238,0 -109.665227,33.555317,0 -109.731461,33.521057,0 -109.746184,33.485332,0 -109.812054,33.48358,0 -109.80443,33.503921,0 -109.881647,33.571322,0 -110.000649,33.57693,0 -110.00066,34.000046,0 -110.750672,34.000048,0 -110.750678,34.263314,0 -110.766962,34.259001,0 -110.757886,34.279336,0 -110.781377,34.307677,0 -110.802812,34.298053,0 -110.805978,34.31083,0 -110.811029,34.295692,0 -110.845909,34.307136,0 -110.821712,34.292074,0 -110.837571,34.280754,0 -110.825661,34.276403,0 -110.865035,34.270989,0 -110.896921,34.302447,0 -110.958863,34.314469,0 -111.020147,34.373156,0 -111.033176,34.340934,0 -111.057766,34.355726,0 -111.040597,34.377765,0 -111.053422,34.37074,0 -111.087504,34.394996,0 -111.147094,34.375185,0 -111.160984,34.403815,0 -111.209571,34.408357,0 -111.250774,34.453339,0 -111.324303,34.422594,0 -111.354063,34.424608,0 -111.351881,34.440997,0 -111.398158,34.428029,0 -111.411252,34.408001,0 -111.384175,34.390423,0 -111.407145,34.376888,0 -111.428142,34.386776,0 -111.428483,34.413535,0 -111.425002,34.435505,0 -111.406962,34.427371,0 -111.3987,34.443827,0 -111.435634,34.446103,0 -111.464275,34.409235,0 -111.481502,34.42279,0 -111.467466,34.437759,0 -111.494971,34.433888,0 -111.493889,34.418405,0 -111.550328,34.419057,0 -111.471448,34.457301,0 -111.540442,34.455094,0 -111.512426,34.46803,0 -111.502415,34.498057,0 -111.52082,34.499312,0 -111.528458,34.470403,0 -111.548785,34.460872,0 -111.55454,34.471597,0 -111.552106,34.8025,0 -111.778265,34.803304,0 -111.777623,34.981001,0 -112.334536,34.973024,0 -112.335791,35.148234,0 -112.442289,35.149238,0 -112.442389,35.25917,0 -112.47286,35.238188,0 -112.54177,35.236418,0 -112.577399,35.243394,0 -112.630767,35.30004,0 -112.75487,35.306204,0 -112.953209,35.352902,0 -112.974421,35.391216,0 -113.147041,35.478522,0 -113.174711,35.506699,0 -113.267256,35.530982,0 -113.334144,35.528217,0 -113.333109,35.822081,0 -113.309214,35.887325,0 -113.33485,35.913859,0 -113.317259,35.968611,0 -113.339777,35.98515,0 -113.352039,36.047528,0 -113.319971,36.096769,0 -113.224919,36.091144,0 -113.196751,36.152949,0 -113.154764,36.174539,0 -113.128005,36.169476,0 -113.019111,36.236705,0 -112.935314,36.242781,0 -112.869234,36.282304,0 -112.793761,36.284398,0 -112.754629,36.324862,0 -112.722872,36.31997,0 -112.723991,36.345992,0 -112.692851,36.355163,0 -112.679924,36.341807,0 -112.656626,36.357229,0 -112.624134,36.410027,0 -112.647526,36.447071,0 -112.622373,36.485407,0 -112.640165,36.488172,0 -112.660326,36.539631,0 -112.620946,36.595942,0 -112.638529,36.674115,0 -112.612234,36.736854,0 -112.619728,36.782744,0 -112.529299,36.952437,0 -112.538583,37.000674,0 -114.0506,37.000396,0 -114.043944,36.19335,0 -114.068222,36.177687,0 -114.096994,36.120823,0 -114.121284,36.109519,0 -114.1119,36.095845,0 -114.145907,36.027229,0 -114.242139,36.015187,0 -114.270862,36.045523,0 -114.313591,36.059048,0 -114.306939,36.082487,0 -114.370181,36.142624,0 -114.40914,36.147,0 -114.443736,36.125593,0 -114.463637,36.139695,0 -114.504715,36.127188,0 -114.500236,36.143226,0 -114.51428,36.150795,0 -114.57109,36.151099,0 -114.615455,36.129653,0 -114.630474,36.142218,0 -114.679775,36.109874,0 -114.736165,36.104367,0 -114.754798,36.084704,0 -114.736253,36.05847,0 -114.742105,36.039792,0 -114.722096,36.028952,0 -114.742779,36.009963,0 -114.740595,35.975656,0 -114.708516,35.912313,0 -114.661636,35.871067,0 -114.706532,35.849027,0 -114.695249,35.832285,0 -114.71211,35.806185,0 -114.695709,35.755986,0 -114.705409,35.708287,0 -114.680631,35.684046,0 -114.689001,35.65028,0 -114.653406,35.610789,0 -114.675751,35.579459,0 -114.657163,35.532301,0 -114.678715,35.49875,0 -114.663541,35.447797,0 -114.626765,35.409644,0 -114.605748,35.358454,0 -114.569238,35.18348,0 -114.578263,35.12881,0 -114.646759,35.101872,0 -114.602908,35.068588,0 -114.636893,35.028367,0 -114.635176,34.875003,0 -114.586842,34.835672,0 -114.552682,34.766871,0 -114.470477,34.711368,0 -114.458182,34.657885,0 -114.424202,34.610453,0 -114.436466,34.5954,0 -114.380838,34.529724,0 -114.386699,34.457911,0 -114.335372,34.450038,0 -114.226107,34.365916,0 -114.176909,34.349306,0 -114.138282,34.30323,0 -114.131211,34.26273,0 -114.164628,34.258999,0 -114.229715,34.186928,0 -114.411681,34.110031,0 -114.434181,34.087379,0 -114.438266,34.022609,0 -114.535478,33.934651,0 -114.50792,33.903807,0 -114.525872,33.901008,0 -114.503017,33.867998,0 -114.530607,33.85544,0 -114.52805,33.814963,0 -114.494197,33.707922,0 -114.531523,33.675108,0 -114.514057,33.660179,0 -114.533194,33.65166,0 -114.522071,33.611277,0 -114.540617,33.591412,0 -114.524599,33.552231,0 -114.591554,33.499443,0 -114.643302,33.416745,0 -114.725282,33.405048,0 -114.698035,33.352442,0 -114.731223,33.302434,0 -114.672088,33.258499,0 -114.689541,33.246428,0 -114.673626,33.223121,0 -114.67536,33.185489,0 -114.706488,33.08816,0 -114.68902,33.084036,0 -114.66506,33.033908,0 -114.64598,33.048903,0 -114.618788,33.027202,0 -114.52013,33.029984,0 -114.492938,32.971781,0 -114.469039,32.972295,0 -114.48092,32.935252,0 -114.462929,32.907944,0 -114.468971,32.845155,0 -114.528849,32.796307,0 -114.526856,32.757094,0 -114.618373,32.728245,0 -114.701918,32.745548,0 -114.725237,32.710094,0 -117.125121,32.531669,0 -117.118398,32.454535,0 -117.024973,32.276923,0 -116.948313,32.247016,0 -116.922678,32.219387,0 -116.886871,32.132025,0 -116.865387,32.013007,0 -116.842275,31.986518,0 -116.769887,31.977769,0 -116.754768,31.909641,0 -116.611819,31.84288,0 -116.619627,31.771738,0 -116.643625,31.73428,0 -116.661285,31.723375,0 -116.750381,31.75236,0 -116.715323,31.710984,0 -116.668528,31.697008,0 -116.648061,31.659166,0 -116.664174,31.601142,0 -116.644521,31.579535,0 -116.68106,31.577297,0 -116.675608,31.552639,0 -116.508209,31.419338,0 -116.45414,31.338544,0 -116.341542,31.21955,0 -116.309438,31.148505,0 -116.335446,30.95634,0 -116.249745,30.956773,0 -116.175774,30.860147,0 -116.057932,30.802476,0 -116.031117,30.627143,0 -116.049254,30.479593,0 -116.004549,30.359165,0 -115.979785,30.35935599999999,0 -116.015126,30.434475,0 -116.002675,30.449652,0 -115.982998,30.43199,0 -115.961741,30.442206,0 -115.989084,30.497463,0 -115.933827,30.449652,0 -115.975413,30.401272,0 -115.898327,30.386662,0 -115.837303,30.346467,0 -115.807281,30.284125,0 -115.804067,30.151435,0 -115.783272,30.092638,0 -115.811187,29.968004,0 -115.807485,29.956204,0 -115.744293,29.947496,0 -115.699899,29.898014,0 -115.685767,29.830641,0 -115.697564,29.755826,0 -115.498583,29.611401,0 -115.477447,29.626451,0 -115.451964,29.620106,0 -115.371449,29.556952,0 -115.285722,29.529885,0 -115.232289,29.490058,0 -115.187123,29.428616,0 -114.972035,29.377753,0 -114.785313,29.19416,0 -114.743804,29.187567,0 -114.704927,29.096113,0 -114.689036,29.113135,0 -114.631418,29.094468,0 -114.591633,28.965404,0 -114.561215,28.9804,0 -114.542832,28.934394,0 -114.476633,28.929145,0 -114.437582,28.877507,0 -114.419299,28.87848,0 -114.391646,28.806779,0 -114.37092,28.813178,0 -114.36205,28.795111,0 -114.346923,28.730755,0 -114.31406,28.726333,0 -114.275342,28.696241,0 -114.271751,28.658801,0 -114.174916,28.657701,0 -114.15727,28.625672,0 -114.160126,28.566187,0 -114.110422,28.561835,0 -114.068227,28.518012,0 -114.071496,28.486944,0 -114.042592,28.458441,0 -114.124883,28.255725,0 -114.098783,28.238653,0 -114.078196,28.246772,0 -114.057485,28.206285,0 -114.113121,28.120413,0 -114.099667,28.055064,0 -114.070031,28.055065,0 -114.039736,28.02772999999999,0 -114.068036,27.99566,0 -114.094287,28.024176,0 -114.121224,28.022985,0 -114.091603,27.976062,0 -114.106402,27.927952,0 -114.150836,28.004566,0 -114.117184,28.04318,0 -114.119868,28.08595,0 -114.134389,28.08393,0 -114.261708,27.944159,0 -114.276452,27.901148,0 -114.267694,27.886901,0 -114.168324,27.950832,0 -114.153432,27.945014,0 -114.158355,27.930121,0 -114.135243,27.911933,0 -114.15095,27.898668,0 -114.131093,27.888821,0 -114.174916,27.816067,0 -114.140981,27.730862,0 -114.104604,27.707709,0 -114.051747,27.72012,0 -114.038482,27.739163,0 -114.069081,27.799506,0 -114.059153,27.801174,0 -114.025258,27.749905,0 -113.983062,27.75731,0 -113.918568,27.719306,0 -113.917795,27.696967,0 -113.953277,27.655666,0 -114.074859,27.690375,0 -114.078196,27.680406,0 -114.043446,27.668036,0 -114.047597,27.653144,0 -114.102935,27.601874,0 -114.102935,27.620917,0 -114.15095,27.669664,0 -114.282379,27.735826,0 -114.312164,27.77969,0 -114.290639,27.833401,0 -114.298085,27.868109,0 -114.316274,27.874701,0 -114.499057,27.774071,0 -114.530646,27.78764,0 -114.604457,27.774409,0 -114.708985,27.791793,0 -114.723568,27.806801,0 -114.840016,27.812303,0 -114.868641,27.830554,0 -115.014257,27.830347,0 -115.04147,27.856782,0 -115.083823,27.851054,0 -115.052887,27.822089,0 -115.022684,27.740291,0 -115.001726,27.715931,0 -114.988709,27.726854,0 -114.950964,27.716259,0 -114.932195,27.676193,0 -114.899805,27.664122,0 -114.886586,27.694892,0 -114.861562,27.689887,0 -114.848878,27.640565,0 -114.875819,27.643824,0 -114.844866,27.616064,0 -114.830386,27.631132,0 -114.78173,27.602757,0 -114.734229,27.521252,0 -114.596586,27.477189,0 -114.581078,27.450845,0 -114.506461,27.406184,0 -114.484446,27.324286,0 -114.487542,27.238098,0 -114.475894,27.217654,0 -114.429799,27.20893,0 -114.435143,27.176367,0 -114.421405,27.166457,0 -114.395149,27.182914,0 -114.293999,27.125462,0 -114.290296,27.14654,0 -114.274083,27.148898,0 -114.181956,27.139635,0 -114.114369,27.105455,0 -114.005198,26.977444,0 -113.973519,26.980216,0 -113.959767,26.997984,0 -113.909901,26.992336,0 -113.816388,26.948969,0 -113.725209,26.799994,0 -113.665842,26.769436,0 -113.637138,26.725531,0 -113.574149,26.705039,0 -113.542966,26.719196,0 -113.542307,26.742092,0 -113.503887,26.793416,0 -113.470986,26.804554,0 -113.363971,26.795068,0 -113.270544,26.752474,0 -113.257965,26.824652,0 -113.204221,26.853463,0 -113.192544,26.94506,0 -113.179351,26.966946,0 -113.145741,26.97012,0 -113.12621,26.937893,0 -113.124582,26.886298,0 -113.18106,26.814765,0 -113.238149,26.786607,0 -113.21581,26.744452,0 -113.192616,26.743638,0 -113.195953,26.760199,0 -113.170318,26.765123,0 -113.163686,26.78913,0 -113.119049,26.794094,0 -113.140533,26.781684,0 -113.143056,26.757717,0 -113.057037,26.650214,0 -113.060716,26.599118,0 -112.728363,26.370227,0 -112.689117,26.32274,0 -112.617096,26.319729,0 -112.590168,26.287845,0 -112.559967,26.301093,0 -112.556793,26.272366,0 -112.49828,26.235012,0 -112.452952,26.262926,0 -112.402699,26.24022,0 -112.343495,26.178127,0 -112.308746,26.06976999999999,0 -112.292873,26.049712,0 -112.238515,26.040839,0 -112.178942,25.955175,0 -112.108712,25.784145,0 -112.10409,25.504154,0 -112.08145,25.720682,0 -112.063133,25.625334,0 -112.062571,25.494696,0 -112.08445,25.481021,0 -112.030778,25.473615,0 -112.083098,25.443995,0 -112.070697,25.441318,0 -112.086932,25.390585,0 -112.074228,25.372747,0 -112.077871,25.258735,0 -112.130621,25.172028,0 -112.142525,25.08597899999999,0 -112.122176,25.073402,0 -112.123363,25.038267,0 -112.141756,24.970367,0 -112.165803,24.953935,0 -112.153862,24.931819,0 -112.160872,24.893257,0 -112.144931,24.874094,0 -112.123023,24.909327,0 -112.137278,24.946112,0 -112.110374,25.00261100000001,0 -112.096921,24.999609,0 -112.082387,24.960273,0 -112.103505,24.940416,0 -112.09024,24.90119,0 -112.124215,24.874046,0 -112.097727,24.846625,0 -112.088043,24.773383,0 -112.043054,24.753466,0 -112.054514,24.817125,0 -112.035634,24.840399,0 -112.029286,24.820217,0 -112.04308,24.80565,0 -112.025258,24.755561,0 -112.011627,24.739447,0 -111.9947,24.75788,0 -111.966705,24.744208,0 -111.988433,24.764716,0 -111.966705,24.778306,0 -111.98766,24.796698,0 -112.008372,24.874579,0 -111.968129,24.79442,0 -111.91222,24.736583,0 -111.941597,24.744225,0 -111.848924,24.653686,0 -111.814884,24.569867,0 -111.812908,24.50588,0 -111.761715,24.515249,0 -111.803145,24.546451,0 -111.698781,24.535562,0 -111.685928,24.556889,0 -111.695627,24.587144,0 -111.67903,24.586334,0 -111.634251,24.547823,0 -111.6535,24.552219,0 -111.595578,24.442235,0 -111.522592,24.404639,0 -111.460705,24.343196,0 -111.359749,24.290322,0 -111.444445,24.32439099999999,0 -111.039714,24.104185,0 -110.815788,23.908746,0 -110.647518,23.733901,0 -110.577343,23.68156,0 -110.353907,23.580786,0 -110.307362,23.541032,0 -110.16726,23.321086,0 -110.09838,23.017562,0 -110.060018,22.950816,0 -109.954496,22.872155,0 -109.895378,22.874203,0 -109.901739,22.889677,0 -109.851064,22.89997,0 -109.80601,22.93607,0 -109.803377,22.956122,0 -109.731519,22.987543,0 -109.713176,23.03105,0 -109.607599,23.081166,0 -109.577144,23.081714,0 -109.494203,23.151731,0 -109.437652,23.240383,0 -109.428556,23.374433,0 -109.413625,23.391697,0 -109.426316,23.458513,0 -109.477949,23.525435,0 -109.468016,23.555138,0 -109.696321,23.66552,0 -109.711322,23.74897,0 -109.698443,23.798428,0 -109.823964,23.910386,0 -109.837322,23.938087,0 -109.833104,23.985722,0 -109.803444,24.02206,0 -109.828288,24.0628,0 -109.931409,24.029305,0 -109.987652,24.046319,0 -110.006985,24.158826,0 -110.17276,24.252976,0 -110.192156,24.290354,0 -110.236384,24.320184,0 -110.232613,24.343206,0 -110.296997,24.351932,0 -110.33247,24.328795,0 -110.321219,24.320587,0 -110.33928,24.31586,0 -110.336259,24.255892,0 -110.322139,24.265456,0 -110.324568,24.245048,0 -110.300811,24.217042,0 -110.306134,24.176716,0 -110.360857,24.111083,0 -110.416837,24.108576,0 -110.432429,24.173617,0 -110.36931,24.149693,0 -110.325195,24.175709,0 -110.511586,24.195746,0 -110.562359,24.212503,0 -110.60989,24.253725,0 -110.638426,24.314866,0 -110.681849,24.36066,0 -110.6872,24.466039,0 -110.728855,24.515989,0 -110.738585,24.554572,0 -110.723528,24.681178,0 -110.688438,24.710239,0 -110.656972,24.806918,0 -110.683868,24.882959,0 -110.747241,24.96379,0 -110.757791,25.012239,0 -110.790454,25.03679500000001,0 -110.814232,25.03319,0 -110.904451,25.143013,0 -110.906093,25.18216200000001,0 -110.947316,25.261814,0 -110.934262,25.291141,0 -110.979545,25.342369,0 -111.025389,25.447153,0 -111.019256,25.51525,0 -111.123896,25.530322,0 -111.191744,25.614829,0 -111.225005,25.724353,0 -111.244282,25.723303,0 -111.307116,25.779207,0 -111.315394,25.820034,0 -111.291923,25.812266,0 -111.331028,25.837358,0 -111.36026,25.964097,0 -111.337328,25.987698,0 -111.344941,26.028751,0 -111.319483,26.06356,0 -111.322037,26.098183,0 -111.350947,26.126319,0 -111.397449,26.252215,0 -111.393223,26.277997,0 -111.381925,26.27707300000001,0 -111.393656,26.330011,0 -111.468867,26.419504,0 -111.468247,26.466436,0 -111.442238,26.517526,0 -111.460221,26.537669,0 -111.482411,26.52851,0 -111.564772,26.558001,0 -111.560055,26.695653,0 -111.647831,26.74647999999999,0 -111.667337,26.780551,0 -111.721082,26.80626699999999,0 -111.795091,26.884028,0 -111.818073,26.896233,0 -111.851419,26.880275,0 -111.823641,26.820475,0 -111.814585,26.714577,0 -111.676793,26.581859,0 -111.73581,26.539684,0 -111.784275,26.571796,0 -111.798227,26.612647,0 -111.843103,26.645159,0 -111.863509,26.693052,0 -111.900114,26.714559,0 -111.890207,26.762926,0 -111.877629,26.756325,0 -111.861446,26.783795,0 -111.870717,26.82807,0 -111.915598,26.878198,0 -111.951795,26.892184,0 -112.017161,26.978502,0 -112.003128,27.035743,0 -111.970152,27.067982,0 -111.944254,27.069626,0 -111.950372,27.093276,0 -112.114534,27.142147,0 -112.212764,27.210463,0 -112.195579,27.250129,0 -112.241708,27.326584,0 -112.297325,27.381062,0 -112.323768,27.494574,0 -112.354714,27.547323,0 -112.485215,27.62002,0 -112.598008,27.654297,0 -112.703531,27.75496,0 -112.719371,27.82618,0 -112.773218,27.863902,0 -112.760362,27.997756,0 -112.799363,28.017424,0 -112.789558,28.067475,0 -112.811771,28.12054,0 -112.786456,28.196077,0 -112.872126,28.28374,0 -112.846304,28.441077,0 -112.879938,28.434581,0 -112.876004,28.450512,0 -112.902362,28.475342,0 -113.001639,28.455579,0 -113.10297,28.504583,0 -113.126992,28.627869,0 -113.156046,28.657626,0 -113.194241,28.74402,0 -113.196044,28.79205200000001,0 -113.220263,28.824843,0 -113.260386,28.840107,0 -113.309971,28.802064,0 -113.354476,28.800274,0 -113.370633,28.83720599999999,0 -113.359215,28.873943,0 -113.380418,28.893276,0 -113.367439,28.907096,0 -113.394227,28.913139,0 -113.387871,28.939804,0 -113.413052,28.922322,0 -113.434665,28.959874,0 -113.450064,28.94229,0 -113.478693,28.946248,0 -113.481538,28.893398,0 -113.524854,28.891566,0 -113.557876,28.948253,0 -113.544988,28.975527,0 -113.563599,29.014042,0 -113.535884,29.05142,0 -113.579374,29.126418,0 -113.655337,29.207323,0 -113.623076,29.252714,0 -113.636331,29.282179,0 -113.770866,29.407756,0 -113.832674,29.43524499999999,0 -113.838665,29.456602,0 -113.897464,29.48565,0 -113.994334,29.576982,0 -114.046276,29.596376,0 -114.062656,29.629316,0 -114.111223,29.653062,0 -114.208485,29.744775,0 -114.28054,29.772067,0 -114.288811,29.748293,0 -114.322526,29.741101,0 -114.381251,29.774452,0 -114.409439,29.815433,0 -114.396297,29.82722800000001,0 -114.427719,29.907295,0 -114.459341,29.910115,0 -114.481306,29.947299,0 -114.533132,29.967951,0 -114.580378,30.072605,0 -114.624601,30.117495,0 -114.665733,30.199568,0 -114.640116,30.263757,0 -114.652699,30.288275,0 -114.630599,30.494874,0 -114.698474,30.637212,0 -114.705468,30.711719,0 -114.687242,30.74499399999999,0 -114.710452,30.918416,0 -114.720259,30.941098,0 -114.821767,30.988959,0 -114.832916,31.027411,0 -114.813471,31.049986,0 -114.884043,31.120715,0 -114.875199,31.328702,0 -114.85231,31.38943,0 -114.85291,31.526606,0 -114.823964,31.600409,0 -114.780629,31.655829,0 -114.815989,31.719143,0 -114.835032,31.801907,0 -114.888958,31.85635,0 -115.011952,31.91474,0 -115.029449,31.970933,0 -115.012074,31.936835,0 -114.8426,31.861518,0 -114.803538,31.819525,0 -114.746978,31.810004,0 -114.686838,31.76553,0 -114.584712,31.760755,0 -114.494263,31.677366,0 -114.32748,31.594665,0 -114.287845,31.55243,0 -114.208888,31.512283,0 -114.159013,31.494509,0 -114.028942,31.491539,0 -113.950999,31.56802,0 -113.981068,31.586737,0 -113.977691,31.663072,0 -113.939524,31.600409,0 -113.884877,31.614691,0 -113.875722,31.596747,0 -113.774582,31.563314,0 -113.659577,31.49754,0 -113.634676,31.465627,0 -113.609306,31.352915,0 -113.643492,31.341775,0 -113.622269,31.325584,0 -113.558464,31.315613,0 -113.548948,31.2957,0 -113.241444,31.24124,0 -113.229349,31.245096,0 -113.27599,31.278266,0 -113.2329,31.288031,0 -113.197046,31.225188,0 -113.120994,31.190026,0 -113.145496,31.219293,0 -113.091744,31.202152,0 -113.048723,31.156692,0 -113.055898,31.030707,0 -113.083187,30.989408,0 -113.130961,31.06499,0 -113.097359,30.946008,0 -113.110908,30.843333,0 -113.128841,30.81244,0 -113.079895,30.670441,0 -112.986543,30.532352,0 -112.870676,30.428534,0 -112.847743,30.361345,0 -112.86079,30.268999,0 -112.808949,30.258583,0 -112.764293,30.21152,0 -112.753236,30.185883,0 -112.758815,30.059181,0 -112.730458,30.013373,0 -112.746287,29.910465,0 -112.669455,29.897623,0 -112.58019,29.718004,0 -112.535878,29.688218,0 -112.505972,29.616919,0 -112.431996,29.561184,0 -112.430452,29.520222,0 -112.377754,29.485729,0 -112.419822,29.37591,0 -112.411224,29.344728,0 -112.333079,29.296536,0 -112.314002,29.330543,0 -112.239453,29.315337,0 -112.211425,29.252808,0 -112.22704,29.188422,0 -112.191148,29.16692,0 -112.166127,29.120429,0 -112.186017,29.074745,0 -112.173088,29.070373,0 -112.152179,28.987436,0 -112.166508,28.966726,0 -112.105526,28.957378,0 -112.030296,28.861431,0 -111.967271,28.841321,0 -111.925017,28.801719,0 -111.868235,28.803127,0 -111.856028,28.773627,0 -111.867055,28.749579,0 -111.894358,28.780666,0 -111.94938,28.756514,0 -111.76061,28.58397,0 -111.708354,28.460141,0 -111.4735,28.381049,0 -111.43814,28.387112,0 -111.458323,28.347235,0 -111.451772,28.325629,0 -111.394114,28.27383,0 -111.372792,28.217719,0 -111.340443,28.205268,0 -111.332648,28.160407,0 -111.250662,28.052013,0 -111.220464,28.044274,0 -111.1718,27.990087,0 -111.103995,27.962051,0 -111.105025,27.935372,0 -111.059146,27.937017,0 -110.999257,27.964057,0 -110.938466,27.920356,0 -110.96581,27.906684,0 -110.91804,27.879381,0 -110.886301,27.838853,0 -110.863637,27.889797,0 -110.890696,27.899848,0 -110.860585,27.934882,0 -110.850657,27.989081,0 -110.838857,27.989407,0 -110.808176,27.927802,0 -110.84911,27.906684,0 -110.741851,27.91413,0 -110.623769,27.872992,0 -110.591664,27.887519,0 -110.533274,27.865953,0 -110.513295,27.873196,0 -110.521067,27.84455,0 -110.586578,27.837063,0 -110.597239,27.812893,0 -110.609527,27.82477400000001,0 -110.612864,27.80093,0 -110.589019,27.791246,0 -110.599517,27.752346,0 -110.548085,27.742825,0 -110.594716,27.714504,0 -110.603342,27.681383,0 -110.581939,27.700141,0 -110.567942,27.681383,0 -110.627101,27.641099,0 -110.588849,27.511865,0 -110.587405,27.449365,0 -110.558502,27.434394,0 -110.550933,27.377387,0 -110.530385,27.373236,0 -110.499664,27.39337799999999,0 -110.425628,27.301906,0 -110.522329,27.290354,0 -110.447883,27.274262,0 -110.336688,27.172062,0 -110.287622,27.148394,0 -110.090783,27.102709,0 -110.062329,27.081692,0 -110.023834,27.117418,0 -109.966176,27.108873,0 -109.917037,27.060074,0 -109.88329,26.940904,0 -109.941773,27.007394,0 -109.945565,26.99709,0 -109.871573,26.870793,0 -109.856313,26.800971,0 -109.784576,26.719428,0 -109.694428,26.678155,0 -109.664071,26.674062,0 -109.647798,26.693379,0 -109.604642,26.696597,0 -109.494391,26.669173,0 -109.523573,26.688405,0 -109.521862,26.708204,0 -109.552788,26.71700999999999,0 -109.528946,26.751438,0 -109.506154,26.729066,0 -109.483428,26.742641,0 -109.473476,26.717647,0 -109.441398,26.714555,0 -109.428522,26.671851,0 -109.482753,26.682211,0 -109.387089,26.638021,0 -109.255727,26.497992,0 -109.239003,26.419501,0 -109.249623,26.334459,0 -109.211741,26.364936,0 -109.170155,26.35871,0 -109.184438,26.378567,0 -109.156728,26.364203,0 -109.116119,26.288886,0 -109.088246,26.290432,0 -109.082997,26.277004,0 -109.108713,26.262519,0 -109.095041,26.214748,0 -109.109364,26.21645699999999,0 -109.176991,26.262519,0 -109.157135,26.292792,0 -109.16393,26.331366,0 -109.216664,26.34398,0 -109.231597,26.262519,0 -109.272817,26.168036,0 -109.295522,26.172553,0 -109.283844,26.24018,0 -109.251332,26.289455,0 -109.262196,26.304104,0 -109.342397,26.134752,0 -109.433258,26.021674,0 -109.437815,25.942694,0 -109.418406,25.862047,0 -109.440541,25.793402,0 -109.406239,25.759223,0 -109.410308,25.693305,0 -109.399648,25.678534,0 -109.395172,25.74372,0 -109.378041,25.761786,0 -109.321767,25.748196,0 -109.286855,25.710679,0 -109.300526,25.659166,0 -109.359283,25.668402,0 -109.410308,25.646145,0 -109.227528,25.628648,0 -109.156484,25.556789,0 -109.15274,25.576483,0 -109.24592,25.659166,0 -109.250152,25.686184,0 -109.171213,25.648749,0 -109.131256,25.583401,0 -109.062123,25.590277,0 -109.009674,25.649563,0 -108.900868,25.70067,0 -108.838043,25.804633,0 -108.833323,25.768866,0 -108.873118,25.736721,0 -108.896392,25.652981,0 -108.971547,25.584662,0 -108.980458,25.544623,0 -109.00536,25.577948,0 -109.057769,25.584662,0 -109.116119,25.536322,0 -109.034657,25.465237,0 -109.006256,25.467353,0 -109.018788,25.482489,0 -109.001861,25.499945,0 -108.951812,25.503892,0 -108.929677,25.466376,0 -108.884755,25.496772,0 -108.896311,25.560248,0 -108.838368,25.56362499999999,0 -108.793365,25.536322,0 -108.768951,25.540188,0 -108.779693,25.433254,0 -108.746938,25.444648,0 -108.729888,25.405992,0 -108.779693,25.398505,0 -108.765736,25.380927,0 -108.687245,25.398505,0 -108.594146,25.351304,0 -108.708608,25.373847,0 -108.731923,25.35814,0 -108.614003,25.343329,0 -108.435048,25.26081,0 -108.396148,25.214179,0 -108.399241,25.14525,0 -108.361399,25.269355,0 -108.317454,25.228502,0 -108.314198,25.186225,0 -108.355214,25.206732,0 -108.351796,25.169501,0 -108.305776,25.156968,0 -108.218007,25.173163,0 -108.172922,25.113593,0 -108.149078,25.104315,0 -108.12914,25.110745,0 -108.136098,25.124742,0 -108.119537,25.123481,0 -108.003529,25.03144,0 -108.013173,25.001899,0 -108.10554,25.026923,0 -108.13679,25.059963,0 -108.163401,25.022366,0 -108.132476,25.019355,0 -108.130605,24.976793,0 -108.183258,24.981391,0 -108.266184,25.096869,0 -108.32787,25.111151,0 -108.23412,25.028388,0 -108.155588,24.883002,0 -108.087636,24.823147,0 -108.077748,24.837795,0 -108.05012,24.823147,0 -108.041127,24.838365,0 -108.032338,24.917955,0 -108.048695,25.001451,0 -107.985219,24.953437,0 -108.013173,24.836819,0 -107.976308,24.79678,0 -107.978871,24.756985,0 -108.060292,24.786444,0 -108.01887,24.730862,0 -107.995188,24.648383,0 -107.908559,24.577867,0 -107.806508,24.528957,0 -107.936838,24.638821,0 -107.848053,24.590318,0 -107.820546,24.59516,0 -107.751861,24.542548,0 -107.718821,24.492377,0 -107.676747,24.501614,0 -107.624135,24.458482,0 -107.553293,24.50845,0 -107.601674,24.50845,0 -107.592641,24.520087,0 -107.529693,24.521918,0 -107.478261,24.400092,0 -107.505483,24.370592,0 -107.491811,24.370592,0 -107.498036,24.357611,0 -107.549672,24.387885,0 -107.553293,24.378079,0 -107.498036,24.34394,0 -107.769154,24.489325,0 -107.789906,24.523017,0 -107.799672,24.512152,0 -107.775014,24.477444,0 -107.543202,24.346584,0 -107.404286,24.252509,0 -107.377756,24.206855,0 -107.035878,23.98078,0 -106.902008,23.846625,0 -106.860992,23.755154,0 -106.813385,23.699652,0 -106.793243,23.632351,0 -106.732574,23.606513,0 -106.611846,23.469062,0 -106.522817,23.407538,0 -106.478505,23.328396,0 -106.486928,23.307685,0 -106.43517,23.244289,0 -106.429799,23.185126,0 -106.370839,23.183987,0 -106.277333,23.083686,0 -106.220326,23.051947,0 -106.031972,22.830105,0 -105.98412,22.85675700000001,0 -106.001617,22.823188,0 -105.80016,22.638454,0 -105.766957,22.590481,0 -105.757598,22.534613,0 -105.732452,22.541449,0 -105.716664,22.514187,0 -105.732696,22.504055,0 -105.655032,22.256298,0 -105.657261,22.047253,0 -105.632264,21.955737,0 -105.549387,21.830182,0 -105.448417,21.631032,0 -105.263504,21.513401,0 -105.243766,21.527245,0 -105.217559,21.517239,0 -105.184967,21.44302,0 -105.219757,21.407497,0 -105.243138,21.342064,0 -105.216081,21.204379,0 -105.232936,21.182952,0 -105.234327,21.060966,0 -105.270559,21.025323,0 -105.309682,21.030666,0 -105.358238,20.957734,0 -105.403941,20.928942,0 -105.455285,20.867023,0 -105.486535,20.796223,0 -105.523583,20.789656,0 -105.544896,20.768096,0 -105.410907,20.733999,0 -105.361561,20.762751,0 -105.341526,20.754639,0 -105.310223,20.727213,0 -105.283801,20.67005,0 -105.234296,20.636127,0 -105.243642,20.583564,0 -105.328734,20.513738,0 -105.575592,20.487738,0 -105.698681,20.406911,0 -105.655652,20.313181,0 -105.558949,20.218207,0 -105.525624,20.031928,0 -105.250762,19.666083,0 -105.151845,19.584174,0 -105.11692,19.585564,0 -105.08771,19.561073,0 -105.070098,19.447781,0 -105.039337,19.435614,0 -104.993642,19.34219,0 -104.880523,19.27912,0 -104.801422,19.294745,0 -104.799672,19.224555,0 -104.733551,19.228461,0 -104.72289,19.211493,0 -104.691925,19.207587,0 -104.672963,19.176581,0 -104.503814,19.129665,0 -104.451577,19.104426,0 -104.439548,19.081607,0 -104.415802,19.105658,0 -104.398433,19.091243,0 -104.386139,19.115433,0 -104.354332,19.111913,0 -104.356163,19.094884,0 -104.328721,19.099297,0 -104.299608,19.065755,0 -104.329012,19.053299,0 -104.331668,19.022256,0 -104.180606,18.971381,0 -103.979977,18.874938,0 -103.700175,18.654327,0 -103.686228,18.628552,0 -103.706737,18.591221,0 -103.629025,18.547985,0 -103.575103,18.492255,0 -103.4984,18.333483,0 -103.36164,18.26682,0 -103.113469,18.192098,0 -103.024444,18.185818,0 -102.742299,18.066962,0 -102.475082,18.017777,0 -102.190629,17.915988,0 -102.145493,17.934169,0 -102.100477,17.982327,0 -102.036733,17.990668,0 -101.989877,17.974751,0 -101.811061,17.89026,0 -101.74554,17.792204,0 -101.67189,17.74027,0 -101.647667,17.705284,0 -101.644487,17.668294,0 -101.599337,17.653339,0 -101.595128,17.635343,0 -101.55732,17.62539,0 -101.55314,17.611376,0 -101.496491,17.614406,0 -101.45814,17.583343,0 -101.440704,17.557156,0 -101.455773,17.526338,0 -101.182245,17.412536,0 -101.17182,17.389791,0 -101.055084,17.302639,0 -101.059029,17.264237,0 -101.042814,17.270202,0 -99.99168600000002,16.909737,0 -99.95944600000001,16.892661,0 -99.91370599999999,16.827167,0 -99.891368,16.837338,0 -99.906203,16.838502,0 -99.89750499999998,16.852804,0 -99.85819200000002,16.851425,0 -99.851663,16.836353,0 -99.876835,16.815336,0 -99.8357,16.802109,0 -99.85810400000001,16.796029,0 -99.82141300000001,16.78977,0 -99.741241,16.730618,0 -99.66328900000001,16.698164,0 -99.37426000000001,16.667911,0 -98.906986,16.53479,0 -98.85655000000001,16.528179,0 -98.846194,16.546531,0 -98.776898,16.555135,0 -98.55284700000001,16.31475,0 -98.215932,16.224677,0 -98.17837500000002,16.236518,0 -98.068471,16.202338,0 -98.08214300000002,16.189276,0 -98.17214899999999,16.209174,0 -97.772719,15.979454,0 -97.68174300000001,15.962183,0 -97.659989,15.976503,0 -97.529703,15.968188,0 -97.36856500000002,15.934601,0 -97.345482,15.94586,0 -97.26602499999998,15.935912,0 -97.062264,15.859414,0 -97.022282,15.807167,0 -96.930671,15.782665,0 -96.845123,15.732571,0 -96.68097500000002,15.709413,0 -96.55603800000002,15.659025,0 -96.50485700000002,15.658054,0 -96.43114200000001,15.695868,0 -96.23663699999999,15.68333,0 -96.125534,15.737889,0 -96.116743,15.76195,0 -95.95988199999998,15.827914,0 -95.778583,15.873256,0 -95.75512799999998,15.899321,0 -95.662313,15.91157,0 -95.57236899999999,15.957122,0 -95.43447799999998,15.97538,0 -95.425524,15.999388,0 -95.372648,16.027458,0 -95.378235,16.047454,0 -95.353263,16.07949,0 -95.28454999999998,16.104223,0 -95.23324700000001,16.158248,0 -95.149289,16.168284,0 -95.14930100000001,16.186952,0 -95.06533600000002,16.183644,0 -94.89587900000001,16.211688,0 -94.76695700000002,16.198676,0 -94.77635699999999,16.226589,0 -94.80553099999999,16.237128,0 -94.930328,16.243964,0 -94.858754,16.256293,0 -94.828033,16.270331,0 -94.834096,16.285549,0 -94.902062,16.251744,0 -94.99935399999998,16.251044,0 -95.063832,16.268256,0 -95.053822,16.295193,0 -95.027455,16.308539,0 -95.033315,16.326483,0 -94.974965,16.326483,0 -94.878651,16.424628,0 -94.852081,16.4289,0 -94.81436099999999,16.403103,0 -94.772694,16.327175,0 -94.80740299999999,16.298611,0 -94.793121,16.257636,0 -94.67003300000002,16.363837,0 -94.58084100000001,16.326483,0 -94.58714799999998,16.282416,0 -94.711822,16.230292,0 -94.722401,16.199652,0 -94.392201,16.17768,0 -93.963897,15.997504,0 -94.082183,16.094753,0 -94.18362399999999,16.120429,0 -94.16995199999998,16.134711,0 -94.21947199999998,16.161322,0 -94.34129799999999,16.181912,0 -94.265533,16.148383,0 -94.292633,16.14114,0 -94.345489,16.163153,0 -94.436879,16.222846,0 -94.414215,16.234036,0 -94.43651300000001,16.245551,0 -94.416371,16.243964,0 -94.41726600000001,16.292507,0 -94.39928100000002,16.298611,0 -94.266713,16.215277,0 -94.22423299999998,16.203559,0 -94.14244499999998,16.226752,0 -94.073761,16.140937,0 -93.898101,16.088935,0 -93.854034,16.024848,0 -93.878041,16.005398,0 -93.895619,16.017401,0 -93.94338900000001,16.010565,0 -93.65603599999999,15.83926,0 -93.19961499999999,15.490994,0 -93.078114,15.34866,0 -92.998199,15.293972,0 -92.983144,15.26557,0 -92.86351500000002,15.191107,0 -92.84666899999999,15.188788,0 -92.85403400000001,15.208523,0 -92.84044299999998,15.188788,0 -92.76842199999999,15.171454,0 -92.737416,15.092597,0 -92.764027,15.112942,0 -92.780873,15.15884,0 -92.84044299999998,15.181952,0 -92.84060600000001,15.16116,0 -92.699859,14.999091,0 -92.25076199999999,14.550727,0 -92.22609699999998,14.549346,0 -92.160804,14.683498,0 -92.191655,14.835297,0 -92.15467999999998,14.900797,0 -92.15421499999998,14.995933,0 -92.103831,15.01787,0 -92.073807,15.073706,0 -92.20335999999999,15.237159,0 -92.211292,15.272066,0 -91.73984799999999,16.060985,0 -90.485738,16.0707,0 -90.448195,16.07926,0 -90.437421,16.098863,0 -90.455585,16.099742,0 -90.459487,16.116795,0 -90.43530199999999,16.136277,0 -90.448144,16.154416,0 -90.42613,16.163149,0 -90.46558400000001,16.208107,0 -90.43447499999999,16.236323,0 -90.45943499999998,16.25906,0 -90.448144,16.271101,0 -90.42767999999998,16.263608,0 -90.43447499999999,16.291565,0 -90.41406299999998,16.287844,0 -90.44488800000001,16.30836,0 -90.404684,16.331511,0 -90.398793,16.347582,0 -90.40719,16.36045,0 -90.420807,16.353008,0 -90.41822300000001,16.367167,0 -90.379853,16.367271,0 -90.39491699999999,16.419206,0 -90.475842,16.430729,0 -90.49775300000002,16.46804,0 -90.532893,16.459927,0 -90.543719,16.490209,0 -90.633094,16.483336,0 -90.612061,16.507624,0 -90.648183,16.529586,0 -90.633765,16.592167,0 -90.66719999999999,16.586999,0 -90.654023,16.61661,0 -90.66771700000001,16.652576,0 -90.73530999999998,16.746576,0 -90.80037,16.786832,0 -90.79696,16.805435,0 -90.919071,16.836338,0 -90.968887,16.874372,0 -90.95519300000001,16.898763,0 -90.98625000000001,16.901088,0 -90.993072,16.874372,0 -91.05492799999999,16.908013,0 -91.12655200000002,17.024595,0 -91.1712,17.028006,0 -91.229595,17.113995,0 -91.25920499999999,17.124331,0 -91.27951400000001,17.180089,0 -91.364884,17.189753,0 -91.372945,17.213576,0 -91.442502,17.237967,0 -91.43077099999999,17.254969,0 -90.99198600000001,17.25192,0 -90.98284,17.810542,0 -89.16049599999999,17.814314,0 -89.15393299999999,17.941077,0 -89.132565,17.970274,0 -89.04944399999999,17.999213,0 -88.87136700000001,17.89095,0 -88.85640600000001,17.928312,0 -88.80535,17.965003,0 -88.776876,18.023759,0 -88.726647,18.066728,0 -88.689517,18.161244,0 -88.696623,18.178065,0 -88.616989,18.235426,0 -88.607713,18.283381,0 -88.55479699999999,18.352214,0 -88.527822,18.454146,0 -88.489245,18.484506,0 -88.45963500000001,18.475721,0 -88.413229,18.490759,0 -88.390776,18.475695,0 -88.283315,18.491441,0 -88.173492,18.683295,0 -88.150746,18.698554,0 -88.170766,18.701402,0 -88.19465099999999,18.676459,0 -88.187123,18.738511,0 -88.255483,18.676459,0 -88.247792,18.696275,0 -88.198801,18.739936,0 -88.149159,18.749986,0 -88.134674,18.769517,0 -88.142934,18.731635,0 -88.127309,18.730211,0 -88.10391199999999,18.80272,0 -88.03628500000001,18.874986,0 -88.004547,18.786851,0 -88.016469,18.70718,0 -88.00218700000001,18.690131,0 -88.050526,18.595771,0 -88.043813,18.573432,0 -88.07726,18.535834,0 -88.077789,18.498603,0 -87.93517,18.443101,0 -87.935292,18.400051,0 -87.89977,18.389065,0 -87.87930299999999,18.340644,0 -87.885487,18.292222,0 -87.86563099999999,18.327582,0 -87.887196,18.230048,0 -87.858795,18.245063,0 -87.844553,18.196682,0 -87.84142,18.277655,0 -87.762563,18.429389,0 -87.75804599999999,18.499457,0 -87.73924700000001,18.535956,0 -87.73705,18.644965,0 -87.66201700000001,18.766832,0 -87.606191,19.020413,0 -87.54889900000001,19.133043,0 -87.55719999999999,19.156236,0 -87.53343700000001,19.228095,0 -87.460927,19.320705,0 -87.516184,19.286566,0 -87.495717,19.327582,0 -87.567128,19.317206,0 -87.638987,19.220933,0 -87.687856,19.242133,0 -87.660146,19.307034,0 -87.67585200000001,19.311184,0 -87.64655500000001,19.354885,0 -87.667063,19.334377,0 -87.65567,19.373236,0 -87.617665,19.405463,0 -87.536692,19.437445,0 -87.552561,19.401597,0 -87.57079,19.39643,0 -87.534779,19.402045,0 -87.458404,19.455024,0 -87.433013,19.492011,0 -87.41275,19.577623,0 -87.44041900000001,19.635972,0 -87.44733600000001,19.580797,0 -87.529205,19.587592,0 -87.443918,19.57392,0 -87.44041900000001,19.595038,0 -87.425771,19.592108,0 -87.441396,19.553656,0 -87.46776300000001,19.546617,0 -87.454701,19.560289,0 -87.495717,19.567776,0 -87.509389,19.546617,0 -87.564565,19.567776,0 -87.673818,19.505683,0 -87.660146,19.567776,0 -87.693105,19.570136,0 -87.731516,19.600531,0 -87.74120000000001,19.671698,0 -87.73469,19.683783,0 -87.660146,19.683783,0 -87.658844,19.655463,0 -87.680043,19.635972,0 -87.667348,19.633775,0 -87.579945,19.799018,0 -87.549672,19.817613,0 -87.52525799999999,19.802883,0 -87.454701,19.889309,0 -87.474599,19.875637,0 -87.488271,19.954413,0 -87.47801699999999,19.96483,0 -87.443918,19.913479,0 -87.44733600000001,19.861965,0 -87.48175999999999,19.836656,0 -87.47980699999999,19.784329,0 -87.43419299999999,19.889228,0 -87.46776300000001,19.984849,0 -87.47130300000001,20.069037,0 -87.430491,20.221015,0 -87.379018,20.266669,0 -87.384674,20.284166,0 -87.365346,20.293931,0 -87.23497500000001,20.49258,0 -87.180409,20.547187,0 -87.067454,20.619208,0 -86.875315,20.855048,0 -86.827748,21.012641,0 -86.783681,21.035956,0 -86.789947,21.064887,0 -86.741567,21.16413,0 -86.790924,21.158352,0 -86.81505300000001,21.204779,0 -86.823476,21.318345,0 -86.810455,21.370266,0 -86.827952,21.433295,0 -86.91852799999999,21.439602,0 -86.99791399999999,21.565904,0 -87.043324,21.602118,0 -87.11148,21.62344,0 -87.272125,21.560777,0 -87.36530500000001,21.573961,0 -87.413157,21.534084,0 -87.402333,21.509467,0 -87.337473,21.554592,0 -87.33120700000001,21.534084,0 -87.256581,21.528022,0 -87.199859,21.562323,0 -87.138336,21.563056,0 -87.129994,21.519436,0 -87.15558799999999,21.481757,0 -87.256947,21.440619,0 -87.408355,21.470282,0 -87.49274699999999,21.468492,0 -87.501943,21.480129,0 -87.474599,21.480129,0 -87.501943,21.499335,0 -87.61856,21.520453,0 -87.69058200000001,21.523586,0 -87.611806,21.506781,0 -87.628407,21.499498,0 -87.778066,21.510647,0 -87.86563099999999,21.554592,0 -87.73762000000001,21.522406,0 -87.706288,21.533433,0 -87.96206599999999,21.600084,0 -88.129465,21.616034,0 -88.235097,21.573798,0 -88.15221099999999,21.601142,0 -88.084788,21.589301,0 -88.149281,21.591132,0 -88.300404,21.554592,0 -88.369293,21.5751,0 -88.44782499999999,21.5751,0 -88.605458,21.534084,0 -88.702707,21.458564,0 -89.11262000000001,21.362779,0 -89.147369,21.370266,0 -89.269154,21.343004,0 -89.78595900000001,21.284573,0 -90.09947699999999,21.16413,0 -90.332387,21.032457,0 -90.360097,21.000393,0 -90.442128,20.794257,0 -90.417551,20.797105,0 -90.398061,20.820746,0 -90.339101,20.972357,0 -90.37905800000001,20.82746,0 -90.45938099999999,20.715522,0 -90.48989800000001,20.534125,0 -90.47447699999999,20.408515,0 -90.50023400000002,20.07925,0 -90.462554,19.995673,0 -90.477823,19.922101,0 -90.66454,19.781928,0 -90.683705,19.752916,0 -90.709462,19.687486,0 -90.702789,19.632554,0 -90.730092,19.375922,0 -90.76935800000001,19.309231,0 -90.856557,19.258287,0 -90.935536,19.163072,0 -91.079579,19.087348,0 -91.16161000000001,19.016262,0 -91.43118800000001,18.880117,0 -91.50527900000002,18.816555,0 -91.464263,18.808295,0 -91.414703,18.826646,0 -91.416819,18.850165,0 -91.391265,18.871283,0 -91.23721299999998,18.957587,0 -91.311106,18.890815,0 -91.38072699999999,18.859442,0 -91.414703,18.813625,0 -91.367014,18.771226,0 -91.302358,18.780951,0 -91.265533,18.735663,0 -91.29865499999998,18.628648,0 -91.21231,18.661322,0 -91.181996,18.656562,0 -91.25133200000002,18.619696,0 -91.30174700000001,18.621812,0 -91.34504099999999,18.565619,0 -91.39488699999998,18.56037,0 -91.504058,18.511949,0 -91.538889,18.471015,0 -91.49730400000001,18.477769,0 -91.483632,18.498277,0 -91.475413,18.454657,0 -91.48648000000001,18.436428,0 -91.504058,18.464179,0 -91.592885,18.443061,0 -91.68224000000001,18.450507,0 -91.798329,18.491441,0 -91.805165,18.475898,0 -91.771596,18.436835,0 -91.81261099999999,18.450507,0 -91.792348,18.401557,0 -91.81428,18.388658,0 -91.860422,18.433173,0 -91.826283,18.491441,0 -91.894521,18.52558,0 -91.87401300000001,18.52558,0 -91.91502800000002,18.56037,0 -91.901967,18.580797,0 -91.92625899999999,18.572333,0 -91.970286,18.593899,0 -91.96418199999999,18.562323,0 -91.888295,18.505764,0 -91.95519000000002,18.547675,0 -91.990712,18.539252,0 -92.03164599999999,18.56037,0 -92.05280500000001,18.546698,0 -92.03164599999999,18.580797,0 -92.03913300000001,18.601304,0 -91.990712,18.593899,0 -92.00820899999999,18.612982,0 -91.97606399999999,18.611558,0 -91.950185,18.629543,0 -91.932362,18.593899,0 -91.866567,18.598375,0 -91.860422,18.621812,0 -91.94806,18.691225,0 -92.06013299999999,18.701617,0 -92.40514,18.671063,0 -92.58897899999999,18.624905,0 -92.69587199999999,18.615627,0 -92.66226199999998,18.535834,0 -92.66909699999999,18.429389,0 -92.69025599999999,18.552924,0 -92.71690799999999,18.59219,0 -92.75930700000001,18.536672,0 -92.85573100000001,18.466047,0 -93.137603,18.42886,0 -93.088368,18.392768,0 -93.11481700000002,18.374823,0 -93.128489,18.340644,0 -93.12165299999999,18.389065,0 -93.160471,18.368964,0 -93.176422,18.377672,0 -93.18309499999999,18.408922,0 -93.155751,18.443061,0 -93.552358,18.429389,0 -93.781972,18.352973,0 -93.839589,18.318549,0 -93.84780800000001,18.299709,0 -93.57640500000001,18.411851,0 -93.56664000000002,18.389065,0 -93.592844,18.344957,0 -93.65721600000001,18.333319,0 -93.677561,18.336412,0 -93.68394899999998,18.354926,0 -93.738596,18.340644,0 -93.762522,18.32392,0 -93.75910399999999,18.292222,0 -93.78111699999999,18.272773,0 -93.87828500000001,18.256903,0 -93.88540600000002,18.276068,0 -93.86148,18.306545,0 -94.134877,18.207994,0 -94.466949,18.144232,0 -94.58088100000001,18.189846,0 -94.62828500000001,18.285346,0 -94.738596,18.406806,0 -94.78693600000001,18.511949,0 -95.02424099999999,18.564032,0 -95.051422,18.61225,0 -95.19005299999999,18.705146,0 -95.495188,18.707343,0 -95.583608,18.721666,0 -95.664174,18.751044,0 -95.73281799999999,18.799994,0 -95.72838299999999,18.757229,0 -95.56834900000001,18.683295,0 -95.58503200000001,18.669664,0 -95.64688099999999,18.710598,0 -95.77472900000001,18.744045,0 -95.85204,18.716783,0 -95.877309,18.752387,0 -95.80736199999998,18.752143,0 -95.88243599999998,18.817043,0 -95.95885199999999,18.856391,0 -95.914784,18.862494,0 -95.87950600000001,18.828518,0 -95.824574,18.8133,0 -95.75275600000002,18.765815,0 -95.75275600000002,18.799994,0 -95.84434999999999,18.833401,0 -95.903554,18.881903,0 -95.941762,18.938951,0 -95.97716200000001,19.058254,0 -96.06143100000001,19.078518,0 -96.131947,19.235907,0 -96.15737900000001,19.225165,0 -96.29035399999999,19.332587,0 -96.319163,19.424709,0 -96.31550000000001,19.482245,0 -96.360015,19.536851,0 -96.40514100000001,19.741848,0 -96.456125,19.868801,0 -96.67601500000001,20.157864,0 -96.91087799999998,20.392808,0 -96.940338,20.449164,0 -97.034413,20.514553,0 -97.150543,20.64704,0 -97.19831299999998,20.738959,0 -97.17784600000002,20.759467,0 -97.19717399999999,20.810207,0 -97.338043,21.054999,0 -97.40489700000001,21.241889,0 -97.428293,21.260403,0 -97.496816,21.400621,0 -97.48941000000001,21.48078,0 -97.50059999999999,21.493109,0 -97.53067000000001,21.476264,0 -97.56200100000001,21.485663,0 -97.65758199999999,21.636542,0 -97.70836299999999,21.82746,0 -97.71971600000001,21.951809,0 -97.78111700000001,22.095852,0 -97.685902,21.924506,0 -97.658844,21.907457,0 -97.62507100000001,21.79442,0 -97.486887,21.63642,0 -97.37022900000001,21.537502,0 -97.390736,21.472642,0 -97.41942299999999,21.476752,0 -97.472239,21.437812,0 -97.418609,21.273383,0 -97.398183,21.34162,0 -97.34789000000001,21.417914,0 -97.316233,21.56094,0 -97.34227500000001,21.602973,0 -97.508127,21.722805,0 -97.610463,21.835761,0 -97.76060999999999,22.095852,0 -97.774281,22.253485,0 -97.809071,22.340318,0 -97.85000599999998,22.534613,0 -97.83006799999998,22.6164,0 -97.834299,22.669745,0 -97.85334200000001,22.643948,0 -97.85000599999998,22.602932,0 -97.870107,22.587714,0 -97.89098100000001,22.596096,0 -97.855051,22.698554,0 -97.876698,22.73944699999999,0 -97.838246,22.739691,0 -97.79478899999999,22.808336,0 -97.75389600000001,22.923245,0 -97.75381399999999,22.849311,0 -97.74234,22.972073,0 -97.76854399999999,23.260077,0 -97.722239,23.739325,0 -97.733306,23.774807,0 
									</coordinates>
								</LinearRing>
							</outerBoundaryIs>
						</Polygon>
					</Placemark>
					<Placemark id="5C6AF8749B0001D1">
						<name>Mexico</name>
						<description>See: 2050-snapshot/domains/borders-geopolitics.md#mexico</description>
						<styleUrl>#__managed_style_4D39E5F87A3F8CDEB5E0</styleUrl>
						<Polygon>
							<outerBoundaryIs>
								<LinearRing>
									<coordinates>
										-97.19731,26.278009,0 -97.16931700000001,26.077714,0 -97.153712,26.067582,0 -97.19286700000001,26.29,0 -97.27188,26.559943,0 -97.325911,26.560805,0 -97.286033,26.547158,0 -97.25714400000001,26.500287,0 -97.19731,26.278009,0 
									</coordinates>
								</LinearRing>
							</outerBoundaryIs>
						</Polygon>
					</Placemark>
					<Placemark id="5C6AF8749B0001D2">
						<name>Mexico</name>
						<description>See: 2050-snapshot/domains/borders-geopolitics.md#mexico</description>
						<styleUrl>#__managed_style_4D39E5F87A3F8CDEB5E0</styleUrl>
						<Polygon>
							<outerBoundaryIs>
								<LinearRing>
									<coordinates>
										-97.19682299999999,27.68436000000001,0 -97.20122000000001,27.646048,0 -97.215481,27.644364,0 -97.21072799999999,27.624149,0 -97.24008099999999,27.633309,0 -97.36182100000001,27.35906,0 -97.355997,27.308703,0 -97.371803,27.294024,0 -97.361226,27.272583,0 -97.389867,27.20496,0 -97.398388,26.867894,0 -97.32149799999999,26.634429,0 -97.28748899999999,26.583434,0 -97.31004800000001,26.566509,0 -97.278769,26.564641,0 -97.37085500000001,26.910857,0 -97.378266,27.075413,0 -97.357186,27.240679,0 -97.27506700000001,27.475417,0 -97.15412999999999,27.696868,0 -97.04484599999999,27.834466,0 -97.13538299999999,27.824549,0 -97.121241,27.81572,0 -97.12147899999999,27.785129,0 -97.151189,27.768621,0 -97.19682299999999,27.68436000000001,0 
									</coordinates>
								</LinearRing>
							</outerBoundaryIs>
						</Polygon>
					</Placemark>
					<Placemark id="5C6AF8749B0001D3">
						<name>Mexico</name>
						<description>See: 2050-snapshot/domains/borders-geopolitics.md#mexico</description>
						<styleUrl>#__managed_style_4D39E5F87A3F8CDEB5E0</styleUrl>
						<Polygon>
							<outerBoundaryIs>
								<LinearRing>
									<coordinates>
										-97.129898,27.839487,0 -97.060971,27.846317,0 -97.053603,27.90231,0 -97.06513000000001,27.913127,0 -97.078917,27.917014,0 -97.06549200000001,27.909582,0 -97.064128,27.861831,0 -97.072093,27.90097,0 -97.129898,27.839487,0 
									</coordinates>
								</LinearRing>
							</outerBoundaryIs>
						</Polygon>
					</Placemark>
					<Placemark id="5C6AF8749B0001D4">
						<name>Mexico</name>
						<description>See: 2050-snapshot/domains/borders-geopolitics.md#mexico</description>
						<styleUrl>#__managed_style_4D39E5F87A3F8CDEB5E0</styleUrl>
						<Polygon>
							<outerBoundaryIs>
								<LinearRing>
									<coordinates>
										-96.997028,27.940376,0 -97.045723,27.889969,0 -97.05606299999999,27.849732,0 -97.045222,27.839774,0 -96.96187399999999,27.955884,0 -96.848941,28.060867,0 -96.82865199999999,28.113226,0 -96.880061,28.131072,0 -96.896936,28.114722,0 -96.88053600000001,28.106022,0 -96.919872,28.093547,0 -96.94708599999998,28.053491,0 -96.989982,27.949134,0 -97.035748,27.940428,0 -96.997028,27.940376,0 
									</coordinates>
								</LinearRing>
							</outerBoundaryIs>
						</Polygon>
					</Placemark>
				</Folder>
  </Document>
</kml>
