<?xml version='1.0' encoding='UTF-8'?>
<kml xmlns="http://www.opengis.net/kml/2.2">
  <Document>
    <name>Montana-Wyoming</name>
    <Placemark>
      <name>Montana-Wyoming</name>
      <Polygon>
        <outerBoundaryIs>
          <LinearRing>
            <coordinates>-110.587662,42.779188,0 -110.623434,42.779205,0 -110.623477,42.710181,0 -110.590074,42.710087,0 -110.59013,42.448494,0 -110.543329,42.448536,0 -110.541634,42.277491,0 -110.053708,42.270744,0 -110.048483,40.997555,0 -106.321165,40.999123,0 -106.322885,41.395141,0 -106.068406,41.395028,0 -106.073403,42.433206,0 -105.556042,42.430583,0 -105.575642,42.377314,0 -105.614656,42.377436,0 -105.613865,42.304455,0 -105.526399,42.288859,0 -105.375541,42.290139,0 -105.378682,42.319018,0 -105.358592,42.319265,0 -105.351964,42.404892,0 -105.332638,42.431106,0 -105.282258,42.431328,0 -105.286511,42.605826,0 -104.052773,42.611766,0 -104.057879,44.997605,0 -104.039694,44.99807,0 -104.048736,48.999877,0 -114.068179,48.998919,0 -114.050365,48.96336699999999,0 -114.021207,48.961343,0 -114.047615,48.93671200000001,0 -114.025047,48.933461,0 -114.013602,48.910082,0 -114.058061,48.889065,0 -113.993032,48.854123,0 -114.002245,48.83187,0 -113.956864,48.817474,0 -113.911619,48.849998,0 -113.875706,48.837269,0 -113.841588,48.855842,0 -113.81075,48.83858399999999,0 -113.790539,48.84553,0 -113.756941,48.818318,0 -113.771663,48.78775700000001,0 -113.702657,48.717935,0 -113.740546,48.692906,0 -113.725891,48.67146,0 -113.745569,48.652773,0 -113.750454,48.614335,0 -113.663557,48.585639,0 -113.632257,48.598819,0 -113.604188,48.57539300000001,0 -113.543853,48.587025,0 -113.467372,48.547555,0 -113.47916,48.45311499999999,0 -113.411016,48.419536,0 -113.356379,48.42409199999999,0 -113.334014,48.381944,0 -113.387137,48.342146,0 -113.289585,48.265339,0 -113.236777,48.247211,0 -113.230906,48.170426,0 -113.181746,48.17473500000001,0 -113.129014,48.135318,0 -113.069823,48.152754,0 -113.051183,48.12131,0 -113.030624,48.133309,0 -112.984927,48.120455,0 -112.996088,48.10609300000001,0 -112.981771,48.07376,0 -112.93777,48.060926,0 -112.950029,48.03352699999999,0 -112.90767,48.02959,0 -112.878701,47.977163,0 -112.912591,47.946407,0 -112.984734,47.95391799999999,0 -112.97431,47.913308,0 -112.952975,47.904852,0 -112.913256,47.826216,0 -112.926599,47.761527,0 -112.901992,47.732207,0 -112.91422,47.694958,0 -112.856907,47.629491,0 -112.776608,47.598028,0 -112.732078,47.61713099999999,0 -112.576811,47.633687,0 -112.548591,47.65182399999999,0 -112.520943,47.64307000000001,0 -112.509389,47.61928200000001,0 -112.429506,47.606094,0 -112.405258,47.57652,0 -112.405595,47.552423,0 -112.319606,47.54305,0 -112.278,47.505623,0 -112.047781,47.516013,0 -112.044829,47.19271100000001,0 -111.977382,47.183932,0 -111.964183,47.15875100000001,0 -111.896286,47.13574100000001,0 -111.896359,47.121281,0 -111.789278,47.128922,0 -111.790236,46.91376399999999,0 -111.539214,46.91337099999999,0 -111.539373,47.000559,0 -111.158386,47.011771,0 -111.158559,47.088301,0 -111.080918,47.088033,0 -111.076802,47.045283,0 -111.104792,47.02903599999999,0 -111.084285,47.010613,0 -110.925452,46.985159,0 -110.85552,46.942987,0 -110.856038,46.921347,0 -110.759828,46.900162,0 -110.757329,46.84886,0 -110.650755,46.82450399999999,0 -110.631712,46.779645,0 -110.563704,46.771363,0 -110.561491,46.73208799999999,0 -110.483057,46.70147,0 -110.466812,46.678795,0 -110.375292,46.692912,0 -110.33376,46.672056,0 -110.273337,46.710509,0 -110.292662,45.78505700000001,0 -110.220908,45.784973,0 -110.228052,45.172129,0 -109.798666,45.17212799999999,0 -109.798486,45.00225399999999,0 -111.054556,45.000955,0 -111.044617,43.31572,0 -110.813996,43.31394,0 -110.813993,43.235178,0 -110.578656,43.235224,0 -110.57838,43.29164,0 -110.578584,43.126307,0 -110.587662,42.779188,0</coordinates>
          </LinearRing>
        </outerBoundaryIs>
      </Polygon>
    </Placemark>
  </Document>
</kml>
