<?xml version="1.0" encoding="UTF-8"?>
<kml xmlns="http://www.opengis.net/kml/2.2">
  <Placemark>
    <name>Nagorno-Karabakh</name>
    <Polygon>
      <outerBoundaryIs>
        <LinearRing>
          <coordinates>
            46.527268107000054,39.53815623000007,0 46.52427087400014,39.55464101200003,0 46.5120235600001,39.56756012000007,0 46.495435425000096,39.575931702000034,0 46.47931237800009,39.578670553000066,0 46.514759001386714,39.61208101413679,0 46.56685225400014,39.63318918900009,0 46.56685225400014,39.6596991990001,0 46.560651082000106,39.6737035120001,0 46.55124597200006,39.68161000600006,0 46.55124597200006,39.68694471800012,0 46.55124597200006,39.705071106000034,0 46.55440789700003,39.70689529400006,0 46.55662032100014,39.70817169200008,0 46.577704305000054,39.70817169200008,0 46.58235518400011,39.71592315700008,0 46.58075321500007,39.72682688400005,0 46.570676310000124,39.74713572200007,0 46.56786878200012,39.76090778400004,0 46.56685225400014,39.765894267000064,0 46.56995284000004,39.795504863000104,0 46.56447513800009,39.814315084000015,0 46.5527962650001,39.827544251000106,0 46.555018351000115,39.8470262660001,0 46.5370866290001,39.85798166900008,0 46.5130054120001,39.88919423500006,0 46.49812259900011,39.90707428000012,0 46.48168949400019,39.9110533650001,0 46.46546309400014,39.92118194600005,0 46.460708862000104,39.93131052700009,0 46.45833174600011,39.946916809000044,0 46.45833174600011,39.96152095200003,0 46.45833174600011,39.96567535400004,0 46.43807458500015,39.97978302000007,0 46.41843754100012,39.99921335900005,0 46.408515666000085,40.01874705000006,0 46.398283732000095,40.03440500900011,0 46.3904289140001,40.03895253500005,0 46.37792321800009,40.04050282800007,0 46.35694258600006,40.03817738900004,0 46.345883830000105,40.03740224200003,0 46.33730554200014,40.0413296510001,0 46.33730554200014,40.0483576460001,0 46.346710653000116,40.06318878200004,0 46.36707116700012,40.087373352000014,0 46.37482263200013,40.0943496710001,0 46.37792321800009,40.102979635000054,0 46.369344930000125,40.110782776000065,0 46.35776940900013,40.106080221000084,0 46.346710653000116,40.09987904900001,0 46.33647871900013,40.09987904900001,0 46.329554077000125,40.10452992800006,0 46.33110437000005,40.110007630000055,0 46.33730554200014,40.11548533200005,0 46.33337813300011,40.121686503000035,0 46.31704838100012,40.121686503000035,0 46.31312097200009,40.124787089000066,0 46.31859867400004,40.13651763900006,0 46.322422730000085,40.144320781000076,0 46.31534305800011,40.14897166000013,0 46.31704838100012,40.16152903300005,0 46.3098653560001,40.16468129500002,0 46.30536950700014,40.15837677000009,0 46.30144209800011,40.14974680600005,0 46.29761804200018,40.14897166000013,0 46.29136519400009,40.15605133100007,0 46.2936906330001,40.18809071900007,0 46.30774662300013,40.19424021400005,0 46.317771851000145,40.19976959300004,0 46.31859867400004,40.219251608000036,0 46.31467121474348,40.2434878852324,0 46.35253372453747,40.22801563899346,0 46.41061437921189,40.23413169903728,0 46.464689471494964,40.26164713389521,0 46.462362508000126,40.28250356100003,0 46.523030640000115,40.30896189400002,0 46.54087602400011,40.3195385480001,0 46.54421797700019,40.32151926700003,0 46.55429488100009,40.33076934800005,0 46.55502752400014,40.33373248100007,0 46.55662032100014,40.340174459000096,0 46.569952841000145,40.34952789300013,0 46.575214007000056,40.34952789300013,0 46.58307865400013,40.34952789300013,0 46.5867226580001,40.352931104000064,0 46.594809204000114,40.3604832970001,0 46.61527307200009,40.37061187800006,0 46.6495345460001,40.38074045800002,0 46.660489950000056,40.38229075100013,0 46.672995646000174,40.38937042300006,0 46.684571167000115,40.39867218000009,0 46.696353394000084,40.40259958900006,0 46.70338138800014,40.40652699800012,0 46.72684248900009,40.41272817000001,0 46.75197527500012,40.40301200300007,0 46.78051684200017,40.39197802400008,0 46.805478159000074,40.36474749600005,0 46.841785529000106,40.330709337000144,0 46.87128526800012,40.312555651000096,0 46.90538456200011,40.305086162000066,0 46.91323938000011,40.30110707700008,0 46.92341963700011,40.30033193000007,0 46.93509851100009,40.297231344000124,0 46.94212650600019,40.2894282030001,0 46.94750085500016,40.280953268000104,0 46.968688192000116,40.273873597000076,0 46.980470418000095,40.27309845000006,0 46.99121911600014,40.263796693000046,0 47.008479045000115,40.25439158200008,0 47.01778080300011,40.246536764000055,0 47.01157963100013,40.24271270800011,0 46.98817020700011,40.238836975000055,0 46.96951501500013,40.2419375610001,0 46.94915450000008,40.24808705700008,0 46.9396977130001,40.25284128900006,0 46.928897339000116,40.25206614200006,0 46.9225928140001,40.24421132400002,0 46.92341963700011,40.23485789000007,0 46.93354821800017,40.223954163000116,0 46.93301893300014,40.22159643700007,0 46.93127445500011,40.21382558200007,0 46.92521986100013,40.20896597400005,0 46.92341963700011,40.20752105700005,0 46.907813355000144,40.201319886000064,0 46.90078536000004,40.19821930000012,0 46.89308557100014,40.19589386000008,0 46.879856405000055,40.202095032000074,0 46.87272505700014,40.201319886000064,0 46.85949589000012,40.1966690070001,0 46.827404826000134,40.17868560800011,0 46.8212036540001,40.17243276000002,0 46.82203047700017,40.16700673500013,0 46.83060876500019,40.16075388600005,0 46.830018452000104,40.15628964600006,0 46.829781942000125,40.15450103800005,0 46.823747402000095,40.15410228000009,0 46.81805139200014,40.15372589100012,0 46.80404707800005,40.15760162400008,0 46.79071455900004,40.1528990690001,0 46.770405721000145,40.13574249300005,0 46.75877852400009,40.11781077100008,0 46.74699629700018,40.09987904900001,0 46.75014856000013,40.09124908500006,0 46.76353275600013,40.08344594400005,0 46.765083049000054,40.07879506500008,0 46.749373413000114,40.07094024700004,0 46.733663778000164,40.06396392900005,0 46.73248969100018,40.062963475000046,0 46.718987671000036,40.051458232000044,0 46.70100427300014,40.04603220700007,0 46.67754317200007,40.0436034140001,0 46.67992028800012,40.03667877200013,0 46.68074711100013,40.02732533800008,0 46.699453980000044,40.02810048500001,0 46.71895929800013,40.02735410800007,0 46.71971114100012,40.02732533800008,0 46.74389571100011,40.022674459000115,0 46.767356812000116,40.021899313000105,0 46.802393433000134,40.021899313000105,0 46.814175659000114,40.01952219700007,0 46.8258545330001,40.01011708600002,0 46.838308553000104,39.99921335900005,0 46.84466475400012,39.97745758100004,0 46.84301110800004,39.95942250600004,0 46.841430321000075,39.9548513970001,0 46.836809937000055,39.94149078400007,0 46.83360599800011,39.92118194600005,0 46.83991052300013,39.919631653000124,0 46.843941284000095,39.92361073800002,0 46.85236454300008,39.930535380000094,0 46.85236454300008,39.92361073800002,0 46.855516805000036,39.91802968400009,0 46.86677911600009,39.929961516000034,0 46.879856405000055,39.9438162230001,0 46.896134481000104,39.95477162700007,0 46.90305912300005,39.95399648100006,0 46.907813355000144,39.94934560200009,0 46.91411787900006,39.9438162230001,0 46.92579675300004,39.938390198000036,0 46.92972416200013,39.9320856730001,0 46.92972416200013,39.90629913400011,0 46.92186934400007,39.8860419720001,0 46.910913940000114,39.86573313400008,0 46.90233565300014,39.85637970000005,0 46.89179500300014,39.85218209600001,0 46.890656779000096,39.85172882100008,0 46.8758773190001,39.84237538700005,0 46.86729903200012,39.833745423000096,0 46.86729903200012,39.82676910400009,0 46.870571054000095,39.823465919000085,0 46.87272505700014,39.821291402000014,0 46.882905314000084,39.82206654900003,0 46.90305912300005,39.83141998300006,0 46.919543905000126,39.83684600900004,0 46.92972416200013,39.844700826000064,0 46.93354821800017,39.85245229100008,0 46.9373722740001,39.868937073000055,0 46.944400269000084,39.87896230100007,0 46.9577327880001,39.88759226500012,0 46.99974572800011,39.89699737600007,0 47.0124064530001,39.895447083000064,0 47.031836792000036,39.88526682600009,0 47.04578942900014,39.8860419720001,0 47.07793217000011,39.89146799800008,0 47.09043786600006,39.88991770500006,0 47.11854984500013,39.87281280500011,0 47.145835002000126,39.85720652300007,0 47.16526534000013,39.85095367500007,0 47.17514493200014,39.85025464700006,0 47.17622074400009,39.85017852800006,0 47.1816984460001,39.8532791140001,0 47.20335335546816,39.81289051812425,0 47.16460755567661,39.77660166972213,0 47.09754556374548,39.743092419680245,0 47.023777372621225,39.69580807784415,0 46.96006848028664,39.69838805965901,0 46.9158126084066,39.71412177139943,0 46.87679984030547,39.72461240014214,0 46.82203254689504,39.731489265257196,0 46.76188887214249,39.72004174819528,0 46.73110412488966,39.69701676204455,0 46.696353394000084,39.66905263300005,0 46.68147058100004,39.66905263300005,0 46.66514082800012,39.66522857700011,0 46.66160655100009,39.633606092000036,0 46.66121342000014,39.63008860300006,0 46.65578739400007,39.61060658800007,0 46.638227633652356,39.603212487841034,0 46.62457500765229,39.59743205084105,0 46.624438675337814,39.59737292730448,0 46.57684521845245,39.56423458638295,0 46.527268107000054,39.53815623000007,0
          </coordinates>
        </LinearRing>
      </outerBoundaryIs>
    </Polygon>
  </Placemark>
</kml>