<?xml version='1.0' encoding='UTF-8'?>
<kml xmlns="http://www.opengis.net/kml/2.2">
  <Document>
    <name>Navajoland</name>
    <Folder xmlns:gx="http://www.google.com/kml/ext/2.2" xmlns:atom="http://www.w3.org/2005/Atom" id="5C6AF8749E000A73">
					<name>Navajoland</name>
					<styleUrl>#__managed_style_2D1A677FEA3F8CDEB5E0</styleUrl>
					<Placemark id="5C6AF8749E000A74">
						<name>Navajoland</name>
						<description>See: 2050-snapshot/domains/borders-geopolitics.md#navajo-nation</description>
						<styleUrl>#__managed_style_0B32ACEB2C3F8CDEB5FC</styleUrl>
						<Polygon>
							<outerBoundaryIs>
								<LinearRing>
									<coordinates>
										-109.046946,33.777409,0 -109.046156,34.579291,0 -107.201743,34.578757,0 -107.202882,34.957572,0 -107.066562,34.95719,0 -107.23889,35.305507,0 -107.309386,35.305687,0 -107.308667,35.998556,0 -107.626511,36.000288,0 -107.618181,36.804267,0 -107.603445,36.799002,0 -107.591754,36.81331,0 -107.599874,36.832525,0 -107.561675,36.855753,0 -107.529846,36.854354,0 -107.522919,36.875468,0 -107.456967,36.898075,0 -107.445692,36.915369,0 -107.457159,36.954964,0 -107.430623,36.970109,0 -107.420913,37.000005,0 -109.045223,36.999084,0 -109.041762,38.16469,0 -109.060062,38.275489,0 -109.059962,38.500028,0 -110.025285,38.499982,0 -110.001977,38.481678,0 -110.010662,38.449741,0 -110.035991,38.459929,0 -110.044318,38.449011,0 -110.026588,38.447432,0 -110.003217,38.413617,0 -110.032662,38.385985,0 -110.010249,38.377605,0 -110.011771,38.364168,0 -109.976682,38.388993,0 -109.983714,38.352037,0 -109.9644,38.339743,0 -109.94094,38.353294,0 -109.963349,38.319492,0 -109.928896,38.281661,0 -109.93589,38.263101,0 -109.9075,38.270572,0 -109.901791,38.256807,0 -109.918257,38.242771,0 -109.88863,38.230156,0 -109.919883,38.224391,0 -109.887739,38.207649,0 -109.902449,38.18828,0 -109.885106,38.18818,0 -109.927974,38.151751,0 -112.478822,38.147419,0 -112.4683,37.890463,0 -112.588517,37.890367,0 -112.57855,37.80454,0 -112.689297,37.80559,0 -112.68375,37.543692,0 -112.901162,37.543486,0 -112.899191,37.00032,0 -112.538692,37.000601,0 -112.529299,36.952437,0 -112.619728,36.782744,0 -112.612234,36.736854,0 -112.638529,36.674115,0 -112.620946,36.595942,0 -112.660032,36.543147,0 -112.640165,36.488172,0 -112.622373,36.485407,0 -112.647526,36.447071,0 -112.624165,36.41461,0 -112.62949,36.391611,0 -112.668424,36.346613,0 -112.720799,36.347645,0 -112.722872,36.31997,0 -112.754629,36.324862,0 -112.793761,36.284398,0 -112.869234,36.282304,0 -112.935314,36.242781,0 -113.019111,36.236705,0 -113.128005,36.169476,0 -113.16293,36.171742,0 -113.201269,36.149573,0 -113.201671,36.119041,0 -113.224919,36.091144,0 -113.319971,36.096769,0 -113.354176,36.040368,0 -113.339777,35.98515,0 -113.317259,35.968611,0 -113.33485,35.913859,0 -113.309214,35.887325,0 -113.333109,35.822081,0 -113.334161,35.528217,0 -113.267256,35.530982,0 -113.171645,35.505506,0 -113.147041,35.478522,0 -112.974421,35.391216,0 -112.953209,35.352902,0 -112.75487,35.306204,0 -112.630767,35.30004,0 -112.577399,35.243394,0 -112.54177,35.236418,0 -112.47286,35.238188,0 -112.442389,35.25917,0 -112.442289,35.149238,0 -112.335791,35.148234,0 -112.334536,34.973024,0 -111.777623,34.981001,0 -111.778265,34.803304,0 -111.552106,34.8025,0 -111.554653,34.471703,0 -111.548785,34.460872,0 -111.528458,34.470403,0 -111.52082,34.499312,0 -111.502415,34.498057,0 -111.512426,34.46803,0 -111.540442,34.455094,0 -111.471448,34.457301,0 -111.517481,34.445015,0 -111.54524,34.415315,0 -111.493889,34.418405,0 -111.494971,34.433888,0 -111.467466,34.437759,0 -111.481502,34.42279,0 -111.464275,34.409235,0 -111.435634,34.446103,0 -111.3987,34.443827,0 -111.406962,34.427371,0 -111.425002,34.435505,0 -111.428483,34.413535,0 -111.428142,34.386776,0 -111.407145,34.376888,0 -111.384175,34.390423,0 -111.411252,34.408001,0 -111.398158,34.428029,0 -111.351881,34.440997,0 -111.354063,34.424608,0 -111.324303,34.422594,0 -111.250774,34.453339,0 -111.209571,34.408357,0 -111.160984,34.403815,0 -111.147094,34.375185,0 -111.087504,34.394996,0 -111.053422,34.37074,0 -111.040597,34.377765,0 -111.057766,34.355726,0 -111.044253,34.343311,0 -111.029067,34.341163,0 -111.033767,34.362494,0 -111.020147,34.373156,0 -110.958863,34.314469,0 -110.896921,34.302447,0 -110.872475,34.273778,0 -110.835749,34.269319,0 -110.820152,34.289253,0 -110.845909,34.307136,0 -110.811029,34.295692,0 -110.80456,34.311005,0 -110.802812,34.298053,0 -110.781377,34.307677,0 -110.761259,34.287872,0 -110.766962,34.259001,0 -110.750678,34.263314,0 -110.750672,34.000048,0 -110.00066,34.000046,0 -110.000649,33.57693,0 -109.881647,33.571322,0 -109.804021,33.503188,0 -109.812054,33.48358,0 -109.784023,33.476556,0 -109.746184,33.485332,0 -109.731461,33.521057,0 -109.665227,33.555317,0 -109.676499,33.568868,0 -109.660619,33.583594,0 -109.619631,33.584058,0 -109.605479,33.611622,0 -109.5618,33.626288,0 -109.525184,33.618643,0 -109.519505,33.645804,0 -109.482539,33.654184,0 -109.4837,33.686346,0 -109.448757,33.711027,0 -109.352975,33.724911,0 -109.364752,33.739804,0 -109.348581,33.778123,0 -109.046946,33.777409,0 
									</coordinates>
								</LinearRing>
							</outerBoundaryIs>
						</Polygon>
					</Placemark>
				</Folder>
  </Document>
</kml>
