<?xml version='1.0' encoding='UTF-8'?>
<kml xmlns="http://www.opengis.net/kml/2.2">
  <Document><name>New Afrika</name><Placemark id="5C7726A3FB0005BE">
						<name>New Afrika</name>
						<description>See: 2050-snapshot/domains/borders-geopolitics.md#new-afrika</description>
						<styleUrl>#__managed_style_E0233F4DA53F8CDEB5E4</styleUrl>
						<Polygon>
							<outerBoundaryIs>
								<LinearRing>
									<coordinates>
										-90.91552799999999,29.049869,0 -90.93681199999999,29.054427,0 -90.91975500000001,29.047674,0 -90.91552799999999,29.049869,0 
									</coordinates>
								</LinearRing>
							</outerBoundaryIs>
						</Polygon>
					</Placemark>
					<Placemark id="5C7726A3FB0005BF">
						<name>New Afrika</name>
						<description>See: 2050-snapshot/domains/borders-geopolitics.md#new-afrika</description>
						<styleUrl>#__managed_style_E0233F4DA53F8CDEB5E4</styleUrl>
						<Polygon>
							<outerBoundaryIs>
								<LinearRing>
									<coordinates>
										-90.83433499999998,29.044923,0 -90.808656,29.051313,0 -90.820342,29.057325,0 -90.86814200000001,29.057199,0 -90.83433499999998,29.044923,0 
									</coordinates>
								</LinearRing>
							</outerBoundaryIs>
						</Polygon>
					</Placemark>
					<Placemark id="5C7726A3FB0005C0">
						<name>New Afrika</name>
						<description>See: 2050-snapshot/domains/borders-geopolitics.md#new-afrika</description>
						<styleUrl>#__managed_style_E0233F4DA53F8CDEB5E4</styleUrl>
						<Polygon>
							<outerBoundaryIs>
								<LinearRing>
									<coordinates>
										-90.7409,29.046794,0 -90.66166900000002,29.062612,0 -90.759316,29.046888,0 -90.7409,29.046794,0 
									</coordinates>
								</LinearRing>
							</outerBoundaryIs>
						</Polygon>
					</Placemark>
					<Placemark id="5C7726A3FB0005C1">
						<name>New Afrika</name>
						<description>See: 2050-snapshot/domains/borders-geopolitics.md#new-afrika</description>
						<styleUrl>#__managed_style_E0233F4DA53F8CDEB5E4</styleUrl>
						<Polygon>
							<outerBoundaryIs>
								<LinearRing>
									<coordinates>
										-90.330439,29.067606,0 -90.32856099999998,29.065252,0 -90.321602,29.070864,0 -90.330439,29.067606,0 
									</coordinates>
								</LinearRing>
							</outerBoundaryIs>
						</Polygon>
					</Placemark>
					<Placemark id="5C7726A3FB0005C2">
						<name>New Afrika</name>
						<description>See: 2050-snapshot/domains/borders-geopolitics.md#new-afrika</description>
						<styleUrl>#__managed_style_E0233F4DA53F8CDEB5E4</styleUrl>
						<Polygon>
							<outerBoundaryIs>
								<LinearRing>
									<coordinates>
										-90.470055,29.066879,0 -90.550316,29.092142,0 -90.47332,29.05949,0 -90.42366000000001,29.060863,0 -90.470055,29.066879,0 
									</coordinates>
								</LinearRing>
							</outerBoundaryIs>
						</Polygon>
					</Placemark>
					<Placemark id="5C7726A3FB0005C3">
						<name>New Afrika</name>
						<description>See: 2050-snapshot/domains/borders-geopolitics.md#new-afrika</description>
						<styleUrl>#__managed_style_E0233F4DA53F8CDEB5E4</styleUrl>
						<Polygon>
							<outerBoundaryIs>
								<LinearRing>
									<coordinates>
										-90.361688,29.103076,0 -90.343135,29.106176,0 -90.35775299999999,29.106383,0 -90.361688,29.103076,0 
									</coordinates>
								</LinearRing>
							</outerBoundaryIs>
						</Polygon>
					</Placemark>
					<Placemark id="5C7726A3FB0005C4">
						<name>New Afrika</name>
						<description>See: 2050-snapshot/domains/borders-geopolitics.md#new-afrika</description>
						<styleUrl>#__managed_style_E0233F4DA53F8CDEB5E4</styleUrl>
						<Polygon>
							<outerBoundaryIs>
								<LinearRing>
									<coordinates>
										-90.35145399999999,29.131092,0 -90.37617299999999,29.108668,0 -90.346701,29.117077,0 -90.35145399999999,29.131092,0 
									</coordinates>
								</LinearRing>
							</outerBoundaryIs>
						</Polygon>
					</Placemark>
					<Placemark id="5C7726A3FB0005C5">
						<name>New Afrika</name>
						<description>See: 2050-snapshot/domains/borders-geopolitics.md#new-afrika</description>
						<styleUrl>#__managed_style_E0233F4DA53F8CDEB5E4</styleUrl>
						<Polygon>
							<outerBoundaryIs>
								<LinearRing>
									<coordinates>
										-90.338025,29.189416,0 -90.344802,29.187889,0 -90.347651,29.177691,0 -90.338025,29.189416,0 
									</coordinates>
								</LinearRing>
							</outerBoundaryIs>
						</Polygon>
					</Placemark>
					<Placemark id="5C7726A3FB0005C6">
						<name>New Afrika</name>
						<description>See: 2050-snapshot/domains/borders-geopolitics.md#new-afrika</description>
						<styleUrl>#__managed_style_E0233F4DA53F8CDEB5E4</styleUrl>
						<Polygon>
							<outerBoundaryIs>
								<LinearRing>
									<coordinates>
										-91.036328,29.187652,0 -91.036328,29.190246,0 -91.041676,29.190661,0 -91.036328,29.187652,0 
									</coordinates>
								</LinearRing>
							</outerBoundaryIs>
						</Polygon>
					</Placemark>
					<Placemark id="5C7726A3FB0005C7">
						<name>New Afrika</name>
						<description>See: 2050-snapshot/domains/borders-geopolitics.md#new-afrika</description>
						<styleUrl>#__managed_style_E0233F4DA53F8CDEB5E4</styleUrl>
						<Polygon>
							<outerBoundaryIs>
								<LinearRing>
									<coordinates>
										-90.61872500000001,29.195329,0 -90.614566,29.192839,0 -90.616922,29.198067,0 -90.61872500000001,29.195329,0 
									</coordinates>
								</LinearRing>
							</outerBoundaryIs>
						</Polygon>
					</Placemark>
					<Placemark id="5C7726A3FB0005C8">
						<name>New Afrika</name>
						<description>See: 2050-snapshot/domains/borders-geopolitics.md#new-afrika</description>
						<styleUrl>#__managed_style_E0233F4DA53F8CDEB5E4</styleUrl>
						<Polygon>
							<outerBoundaryIs>
								<LinearRing>
									<coordinates>
										-90.41087400000001,29.202695,0 -90.40778400000001,29.20394,0 -90.414439,29.207985,0 -90.41087400000001,29.202695,0 
									</coordinates>
								</LinearRing>
							</outerBoundaryIs>
						</Polygon>
					</Placemark>
					<Placemark id="5C7726A3FB0005C9">
						<name>New Afrika</name>
						<description>See: 2050-snapshot/domains/borders-geopolitics.md#new-afrika</description>
						<styleUrl>#__managed_style_E0233F4DA53F8CDEB5E4</styleUrl>
						<Polygon>
							<outerBoundaryIs>
								<LinearRing>
									<coordinates>
										-89.94967800000001,29.264882,0 -89.98816100000001,29.260148,0 -90.04321899999999,29.200302,0 -89.94967800000001,29.264882,0 
									</coordinates>
								</LinearRing>
							</outerBoundaryIs>
						</Polygon>
					</Placemark>
					<Placemark id="5C7726A3FB0005CA">
						<name>New Afrika</name>
						<description>See: 2050-snapshot/domains/borders-geopolitics.md#new-afrika</description>
						<styleUrl>#__managed_style_E0233F4DA53F8CDEB5E4</styleUrl>
						<Polygon>
							<outerBoundaryIs>
								<LinearRing>
									<coordinates>
										-90.01454299999999,29.25092,0 -90.02464400000001,29.24107,0 -90.010859,29.237751,0 -90.00800700000001,29.239514,0 -90.01454299999999,29.25092,0 
									</coordinates>
								</LinearRing>
							</outerBoundaryIs>
						</Polygon>
					</Placemark>
					<Placemark id="5C7726A3FB0005CB">
						<name>New Afrika</name>
						<description>See: 2050-snapshot/domains/borders-geopolitics.md#new-afrika</description>
						<styleUrl>#__managed_style_E0233F4DA53F8CDEB5E4</styleUrl>
						<Polygon>
							<outerBoundaryIs>
								<LinearRing>
									<coordinates>
										-90.44438699999999,29.262532,0 -90.441416,29.252061,0 -90.43939600000002,29.25683,0 -90.44438699999999,29.262532,0 
									</coordinates>
								</LinearRing>
							</outerBoundaryIs>
						</Polygon>
					</Placemark>
					<Placemark id="5C7726A3FB0005CC">
						<name>New Afrika</name>
						<description>See: 2050-snapshot/domains/borders-geopolitics.md#new-afrika</description>
						<styleUrl>#__managed_style_E0233F4DA53F8CDEB5E4</styleUrl>
						<Polygon>
							<outerBoundaryIs>
								<LinearRing>
									<coordinates>
										-90.02690200000001,29.260044,0 -90.02203000000002,29.260977,0 -90.02880399999999,29.264502,0 -90.02690200000001,29.260044,0 
									</coordinates>
								</LinearRing>
							</outerBoundaryIs>
						</Polygon>
					</Placemark>
					<Placemark id="5C7726A3FB0005CD">
						<name>New Afrika</name>
						<description>See: 2050-snapshot/domains/borders-geopolitics.md#new-afrika</description>
						<styleUrl>#__managed_style_E0233F4DA53F8CDEB5E4</styleUrl>
						<Polygon>
							<outerBoundaryIs>
								<LinearRing>
									<coordinates>
										-89.966888,29.282643,0 -89.979485,29.277564,0 -89.96712599999999,29.271448,0 -89.966888,29.282643,0 
									</coordinates>
								</LinearRing>
							</outerBoundaryIs>
						</Polygon>
					</Placemark>
					<Placemark id="5C7726A3FB0005CE">
						<name>New Afrika</name>
						<description>See: 2050-snapshot/domains/borders-geopolitics.md#new-afrika</description>
						<styleUrl>#__managed_style_E0233F4DA53F8CDEB5E4</styleUrl>
						<Polygon>
							<outerBoundaryIs>
								<LinearRing>
									<coordinates>
										-89.95040899999999,29.275497,0 -89.944221,29.271717,0 -89.906586,29.296637,0 -89.95040899999999,29.275497,0 
									</coordinates>
								</LinearRing>
							</outerBoundaryIs>
						</Polygon>
					</Placemark>
					<Placemark id="5C7726A3FB0005CF">
						<name>New Afrika</name>
						<description>See: 2050-snapshot/domains/borders-geopolitics.md#new-afrika</description>
						<styleUrl>#__managed_style_E0233F4DA53F8CDEB5E4</styleUrl>
						<Polygon>
							<outerBoundaryIs>
								<LinearRing>
									<coordinates>
										-89.962457,29.304315,0 -89.95793399999999,29.30247,0 -89.95976,29.306776,0 -89.962457,29.304315,0 
									</coordinates>
								</LinearRing>
							</outerBoundaryIs>
						</Polygon>
					</Placemark>
					<Placemark id="5C7726A3FB0005D0">
						<name>New Afrika</name>
						<description>See: 2050-snapshot/domains/borders-geopolitics.md#new-afrika</description>
						<styleUrl>#__managed_style_E0233F4DA53F8CDEB5E4</styleUrl>
						<Polygon>
							<outerBoundaryIs>
								<LinearRing>
									<coordinates>
										-89.98403500000001,29.320814,0 -89.981587,29.308802,0 -89.970341,29.316907,0 -89.98403500000001,29.320814,0 
									</coordinates>
								</LinearRing>
							</outerBoundaryIs>
						</Polygon>
					</Placemark>
					<Placemark id="5C7726A3FB0005D1">
						<name>New Afrika</name>
						<description>See: 2050-snapshot/domains/borders-geopolitics.md#new-afrika</description>
						<styleUrl>#__managed_style_E0233F4DA53F8CDEB5E4</styleUrl>
						<Polygon>
							<outerBoundaryIs>
								<LinearRing>
									<coordinates>
										-89.88346300000001,29.30710300000001,0 -89.86124,29.311662,0 -89.890237,29.323889,0 -89.90116999999999,29.314875,0 -89.88346300000001,29.30710300000001,0 
									</coordinates>
								</LinearRing>
							</outerBoundaryIs>
						</Polygon>
					</Placemark>
					<Placemark id="5C7726A3FB0005D2">
						<name>New Afrika</name>
						<description>See: 2050-snapshot/domains/borders-geopolitics.md#new-afrika</description>
						<styleUrl>#__managed_style_E0233F4DA53F8CDEB5E4</styleUrl>
						<Polygon>
							<outerBoundaryIs>
								<LinearRing>
									<coordinates>
										-91.77527499999999,29.587861,0 -91.80272699999999,29.588688,0 -91.84895499999999,29.629397,0 -91.928459,29.635078,0 -91.93273699999999,29.612454,0 -91.98264999999999,29.61421,0 -92.026977,29.568844,0 -91.821579,29.473925,0 -91.768263,29.490362,0 -91.765411,29.524802,0 -91.70920600000001,29.56101200000001,0 -91.73677000000001,29.562332,0 -91.733324,29.580834,0 -91.775869,29.567811,0 -91.77527499999999,29.587861,0 
									</coordinates>
								</LinearRing>
							</outerBoundaryIs>
						</Polygon>
					</Placemark>
					<Placemark id="5C7726A3FB0005D3">
						<name>New Afrika</name>
						<description>See: 2050-snapshot/domains/borders-geopolitics.md#new-afrika</description>
						<styleUrl>#__managed_style_E0233F4DA53F8CDEB5E4</styleUrl>
						<Polygon>
							<outerBoundaryIs>
								<LinearRing>
									<coordinates>
										-89.300534,29.382881,0 -89.29868,29.381514,0 -89.298323,29.385428,0 -89.300534,29.382881,0 
									</coordinates>
								</LinearRing>
							</outerBoundaryIs>
						</Polygon>
					</Placemark>
					<Placemark id="5C7726A3FB0005D4">
						<name>New Afrika</name>
						<description>See: 2050-snapshot/domains/borders-geopolitics.md#new-afrika</description>
						<styleUrl>#__managed_style_E0233F4DA53F8CDEB5E4</styleUrl>
						<Polygon>
							<outerBoundaryIs>
								<LinearRing>
									<coordinates>
										-89.56544700000001,29.539961,0 -89.575192,29.549886,0 -89.62795699999999,29.533137,0 -89.599673,29.507594,0 -89.56544700000001,29.539961,0 
									</coordinates>
								</LinearRing>
							</outerBoundaryIs>
						</Polygon>
					</Placemark>
					<Placemark id="5C7726A3FB0005D5">
						<name>New Afrika</name>
						<description>See: 2050-snapshot/domains/borders-geopolitics.md#new-afrika</description>
						<styleUrl>#__managed_style_E0233F4DA53F8CDEB5E4</styleUrl>
						<Polygon>
							<outerBoundaryIs>
								<LinearRing>
									<coordinates>
										-89.66669899999999,29.553091,0 -89.666105,29.550403,0 -89.663371,29.556089,0 -89.66669899999999,29.553091,0 
									</coordinates>
								</LinearRing>
							</outerBoundaryIs>
						</Polygon>
					</Placemark>
					<Placemark id="5C7726A3FB0005D6">
						<name>New Afrika</name>
						<description>See: 2050-snapshot/domains/borders-geopolitics.md#new-afrika</description>
						<styleUrl>#__managed_style_E0233F4DA53F8CDEB5E4</styleUrl>
						<Polygon>
							<outerBoundaryIs>
								<LinearRing>
									<coordinates>
										-89.641029,29.559087,0 -89.64507,29.556606,0 -89.63960299999999,29.555675,0 -89.641029,29.559087,0 
									</coordinates>
								</LinearRing>
							</outerBoundaryIs>
						</Polygon>
					</Placemark>
					<Placemark id="5C7726A3FB0005D7">
						<name>New Afrika</name>
						<description>See: 2050-snapshot/domains/borders-geopolitics.md#new-afrika</description>
						<styleUrl>#__managed_style_E0233F4DA53F8CDEB5E4</styleUrl>
						<Polygon>
							<outerBoundaryIs>
								<LinearRing>
									<coordinates>
										-89.630334,29.5687,0 -89.63235400000001,29.569837,0 -89.64578299999999,29.565289,0 -89.630334,29.5687,0 
									</coordinates>
								</LinearRing>
							</outerBoundaryIs>
						</Polygon>
					</Placemark>
					<Placemark id="5C7726A3FB0005D8">
						<name>New Afrika</name>
						<description>See: 2050-snapshot/domains/borders-geopolitics.md#new-afrika</description>
						<styleUrl>#__managed_style_E0233F4DA53F8CDEB5E4</styleUrl>
						<Polygon>
							<outerBoundaryIs>
								<LinearRing>
									<coordinates>
										-89.581728,29.578002,0 -89.576024,29.574074,0 -89.57471700000001,29.578002,0 -89.581728,29.578002,0 
									</coordinates>
								</LinearRing>
							</outerBoundaryIs>
						</Polygon>
					</Placemark>
					<Placemark id="5C7726A3FB0005D9">
						<name>New Afrika</name>
						<description>See: 2050-snapshot/domains/borders-geopolitics.md#new-afrika</description>
						<styleUrl>#__managed_style_E0233F4DA53F8CDEB5E4</styleUrl>
						<Polygon>
							<outerBoundaryIs>
								<LinearRing>
									<coordinates>
										-89.262928,29.824734,0 -89.248902,29.823159,0 -89.26222199999999,29.827524,0 -89.262928,29.824734,0 
									</coordinates>
								</LinearRing>
							</outerBoundaryIs>
						</Polygon>
					</Placemark>
					<Placemark id="5C7726A3FB0005DA">
						<name>New Afrika</name>
						<description>See: 2050-snapshot/domains/borders-geopolitics.md#new-afrika</description>
						<styleUrl>#__managed_style_E0233F4DA53F8CDEB5E4</styleUrl>
						<Polygon>
							<outerBoundaryIs>
								<LinearRing>
									<coordinates>
										-88.878822,29.87236,0 -88.87607300000001,29.875021,0 -88.878311,29.877016,0 -88.878822,29.87236,0 
									</coordinates>
								</LinearRing>
							</outerBoundaryIs>
						</Polygon>
					</Placemark>
					<Placemark id="5C7726A3FB0005DB">
						<name>New Afrika</name>
						<description>See: 2050-snapshot/domains/borders-geopolitics.md#new-afrika</description>
						<styleUrl>#__managed_style_E0233F4DA53F8CDEB5E4</styleUrl>
						<Polygon>
							<outerBoundaryIs>
								<LinearRing>
									<coordinates>
										-89.360258,29.919891,0 -89.35241499999999,29.924423,0 -89.362516,29.922672,0 -89.360258,29.919891,0 
									</coordinates>
								</LinearRing>
							</outerBoundaryIs>
						</Polygon>
					</Placemark>
					<Placemark id="5C7726A3FB0005DC">
						<name>New Afrika</name>
						<description>See: 2050-snapshot/domains/borders-geopolitics.md#new-afrika</description>
						<styleUrl>#__managed_style_E0233F4DA53F8CDEB5E4</styleUrl>
						<Polygon>
							<outerBoundaryIs>
								<LinearRing>
									<coordinates>
										-89.319496,29.952331,0 -89.326627,29.946976,0 -89.323656,29.946153,0 -89.319496,29.952331,0 
									</coordinates>
								</LinearRing>
							</outerBoundaryIs>
						</Polygon>
					</Placemark>
					<Placemark id="5C7726A3FB0005DD">
						<name>New Afrika</name>
						<description>See: 2050-snapshot/domains/borders-geopolitics.md#new-afrika</description>
						<styleUrl>#__managed_style_E0233F4DA53F8CDEB5E4</styleUrl>
						<Polygon>
							<outerBoundaryIs>
								<LinearRing>
									<coordinates>
										-89.332212,29.962421,0 -89.335658,29.962833,0 -89.333995,29.959127,0 -89.332212,29.962421,0 
									</coordinates>
								</LinearRing>
							</outerBoundaryIs>
						</Polygon>
					</Placemark>
					<Placemark id="5C7726A3FB0005DE">
						<name>New Afrika</name>
						<description>See: 2050-snapshot/domains/borders-geopolitics.md#new-afrika</description>
						<styleUrl>#__managed_style_E0233F4DA53F8CDEB5E4</styleUrl>
						<Polygon>
							<outerBoundaryIs>
								<LinearRing>
									<coordinates>
										-89.36192200000001,29.973746,0 -89.351821,29.972922,0 -89.366795,29.976731,0 -89.364893,29.950683,0 -89.35336599999999,29.961803,0 -89.36192200000001,29.973746,0 
									</coordinates>
								</LinearRing>
							</outerBoundaryIs>
						</Polygon>
					</Placemark>
					<Placemark id="5C7726A3FB0005DF">
						<name>New Afrika</name>
						<description>See: 2050-snapshot/domains/borders-geopolitics.md#new-afrika</description>
						<styleUrl>#__managed_style_E0233F4DA53F8CDEB5E4</styleUrl>
						<Polygon>
							<outerBoundaryIs>
								<LinearRing>
									<coordinates>
										-89.340412,29.976217,0 -89.343502,29.981261,0 -89.34611599999999,29.973128,0 -89.340412,29.976217,0 
									</coordinates>
								</LinearRing>
							</outerBoundaryIs>
						</Polygon>
					</Placemark>
					<Placemark id="5C7726A3FB0005E0">
						<name>New Afrika</name>
						<description>See: 2050-snapshot/domains/borders-geopolitics.md#new-afrika</description>
						<styleUrl>#__managed_style_E0233F4DA53F8CDEB5E4</styleUrl>
						<Polygon>
							<outerBoundaryIs>
								<LinearRing>
									<coordinates>
										-89.340293,29.988157,0 -89.33672799999999,29.987951,0 -89.33958,29.994024,0 -89.340293,29.988157,0 
									</coordinates>
								</LinearRing>
							</outerBoundaryIs>
						</Polygon>
					</Placemark>
					<Placemark id="5C7726A3FB0005E1">
						<name>New Afrika</name>
						<description>See: 2050-snapshot/domains/borders-geopolitics.md#new-afrika</description>
						<styleUrl>#__managed_style_E0233F4DA53F8CDEB5E4</styleUrl>
						<Polygon>
							<outerBoundaryIs>
								<LinearRing>
									<coordinates>
										-89.287766,29.999582,0 -89.29394600000001,30.000302,0 -89.289905,29.99515600000001,0 -89.287766,29.999582,0 
									</coordinates>
								</LinearRing>
							</outerBoundaryIs>
						</Polygon>
					</Placemark>
					<Placemark id="5C7726A3FB0005E2">
						<name>New Afrika</name>
						<description>See: 2050-snapshot/domains/borders-geopolitics.md#new-afrika</description>
						<styleUrl>#__managed_style_E0233F4DA53F8CDEB5E4</styleUrl>
						<Polygon>
							<outerBoundaryIs>
								<LinearRing>
									<coordinates>
										-89.364774,30.00905,0 -89.37974800000001,30.01460700000001,0 -89.36727,30.004933,0 -89.364774,30.00905,0 
									</coordinates>
								</LinearRing>
							</outerBoundaryIs>
						</Polygon>
					</Placemark>
					<Placemark id="5C7726A3FB0005E3">
						<name>New Afrika</name>
						<description>See: 2050-snapshot/domains/borders-geopolitics.md#new-afrika</description>
						<styleUrl>#__managed_style_E0233F4DA53F8CDEB5E4</styleUrl>
						<Polygon>
							<outerBoundaryIs>
								<LinearRing>
									<coordinates>
										-89.17572800000001,30.062775,0 -89.2208,30.071445,0 -89.22905799999999,30.098906,0 -89.24307899999999,30.100663,0 -89.185715,30.157001,0 -89.342163,30.059172,0 -89.33322099999999,30.034767,0 -89.323953,30.047788,0 -89.287588,30.040587,0 -89.275826,30.023081,0 -89.24433000000001,30.05828,0 -89.2295,30.000433,0 -89.201584,30.00142900000001,0 -89.21304499999999,30.027352,0 -89.183959,30.032768,0 -89.17572800000001,30.062775,0 
									</coordinates>
								</LinearRing>
							</outerBoundaryIs>
						</Polygon>
					</Placemark>
					<Placemark id="5C7726A3FB0005E4">
						<name>New Afrika</name>
						<description>See: 2050-snapshot/domains/borders-geopolitics.md#new-afrika</description>
						<styleUrl>#__managed_style_E0233F4DA53F8CDEB5E4</styleUrl>
						<Polygon>
							<outerBoundaryIs>
								<LinearRing>
									<coordinates>
										-89.417694,30.143682,0 -89.442093,30.144369,0 -89.42903099999999,30.128559,0 -89.417694,30.143682,0 
									</coordinates>
								</LinearRing>
							</outerBoundaryIs>
						</Polygon>
					</Placemark>
					<Placemark id="5C7726A3FB0005E5">
						<name>New Afrika</name>
						<description>See: 2050-snapshot/domains/borders-geopolitics.md#new-afrika</description>
						<styleUrl>#__managed_style_E0233F4DA53F8CDEB5E4</styleUrl>
						<Polygon>
							<outerBoundaryIs>
								<LinearRing>
									<coordinates>
										-88.951881,30.212781,0 -88.953924,30.213589,0 -88.980407,30.210516,0 -88.951881,30.212781,0 
									</coordinates>
								</LinearRing>
							</outerBoundaryIs>
						</Polygon>
					</Placemark>
					<Placemark id="5C7726A3FB0005E6">
						<name>New Afrika</name>
						<description>See: 2050-snapshot/domains/borders-geopolitics.md#new-afrika</description>
						<styleUrl>#__managed_style_E0233F4DA53F8CDEB5E4</styleUrl>
						<Polygon>
							<outerBoundaryIs>
								<LinearRing>
									<coordinates>
										-89.088384,30.214654,0 -89.065713,30.24569,0 -89.077995,30.22945,0 -89.132578,30.227587,0 -89.108053,30.214117,0 -89.088384,30.214654,0 
									</coordinates>
								</LinearRing>
							</outerBoundaryIs>
						</Polygon>
					</Placemark>
					<Placemark id="5C7726A3FB0005E7">
						<name>New Afrika</name>
						<description>See: 2050-snapshot/domains/borders-geopolitics.md#new-afrika</description>
						<styleUrl>#__managed_style_E0233F4DA53F8CDEB5E4</styleUrl>
						<Polygon>
							<outerBoundaryIs>
								<LinearRing>
									<coordinates>
										-88.881433,30.243869,0 -88.903807,30.22847,0 -88.88125700000001,30.239819,0 -88.872771,30.247767,0 -88.881433,30.243869,0 
									</coordinates>
								</LinearRing>
							</outerBoundaryIs>
						</Polygon>
					</Placemark>
					<Placemark id="5C7726A3FB0005E8">
						<name>New Afrika</name>
						<description>See: 2050-snapshot/domains/borders-geopolitics.md#new-afrika</description>
						<styleUrl>#__managed_style_E0233F4DA53F8CDEB5E4</styleUrl>
						<Polygon>
							<outerBoundaryIs>
								<LinearRing>
									<coordinates>
										-85.13463900000001,29.686569,0 -85.22245599999999,29.677804,0 -85.13552300000001,29.632004,0 -85.09676399999999,29.633057,0 -85.074308,29.673981,0 -85.13463900000001,29.686569,0 
									</coordinates>
								</LinearRing>
							</outerBoundaryIs>
						</Polygon>
					</Placemark>
					<Placemark id="5C7726A3FB0005E9">
						<name>New Afrika</name>
						<description>See: 2050-snapshot/domains/borders-geopolitics.md#new-afrika</description>
						<styleUrl>#__managed_style_E0233F4DA53F8CDEB5E4</styleUrl>
						<Polygon>
							<outerBoundaryIs>
								<LinearRing>
									<coordinates>
										-84.798587,29.702074,0 -84.79049999999999,29.689521,0 -84.802933,29.683692,0 -84.867645,29.670954,0 -84.981498,29.608642,0 -85.03849700000001,29.599552,0 -85.097168,29.626242,0 -85.045074,29.586991,0 -84.956452,29.613997,0 -84.776954,29.692191,0 -84.694885,29.770915,0 -84.782212,29.692606,0 -84.798587,29.702074,0 
									</coordinates>
								</LinearRing>
							</outerBoundaryIs>
						</Polygon>
					</Placemark>
					<Placemark id="5C7726A3FB0005EA">
						<name>New Afrika</name>
						<description>See: 2050-snapshot/domains/borders-geopolitics.md#new-afrika</description>
						<styleUrl>#__managed_style_E0233F4DA53F8CDEB5E4</styleUrl>
						<Polygon>
							<outerBoundaryIs>
								<LinearRing>
									<coordinates>
										-84.672068,29.77958,0 -84.659228,29.779264,0 -84.623741,29.788498,0 -84.57940600000001,29.807853,0 -84.57248,29.828459,0 -84.624532,29.7901,0 -84.672068,29.77958,0 
									</coordinates>
								</LinearRing>
							</outerBoundaryIs>
						</Polygon>
					</Placemark>
					<Placemark id="5C7726A3FB0005EB">
						<name>New Afrika</name>
						<description>See: 2050-snapshot/domains/borders-geopolitics.md#new-afrika</description>
						<styleUrl>#__managed_style_E0233F4DA53F8CDEB5E4</styleUrl>
						<Polygon>
							<outerBoundaryIs>
								<LinearRing>
									<coordinates>
										-88.862331,29.846195,0 -88.86565899999999,29.86262,0 -88.865143,29.848469,0 -88.862331,29.846195,0 
									</coordinates>
								</LinearRing>
							</outerBoundaryIs>
						</Polygon>
					</Placemark>
					<Placemark id="5C7726A3FB0005EC">
						<name>New Afrika</name>
						<description>See: 2050-snapshot/domains/borders-geopolitics.md#new-afrika</description>
						<styleUrl>#__managed_style_E0233F4DA53F8CDEB5E4</styleUrl>
						<Polygon>
							<outerBoundaryIs>
								<LinearRing>
									<coordinates>
										-88.88145400000001,30.053202,0 -88.84086600000001,29.995613,0 -88.828247,29.920717,0 -88.84301000000001,29.82596,0 -88.875091,29.759818,0 -88.84584599999999,29.799052,0 -88.81701700000001,29.93425,0 -88.84122499999999,30.012789,0 -88.88145400000001,30.053202,0 
									</coordinates>
								</LinearRing>
							</outerBoundaryIs>
						</Polygon>
					</Placemark>
					<Placemark id="5C7726A3FB0005ED">
						<name>New Afrika</name>
						<description>See: 2050-snapshot/domains/borders-geopolitics.md#new-afrika</description>
						<styleUrl>#__managed_style_E0233F4DA53F8CDEB5E4</styleUrl>
						<Polygon>
							<outerBoundaryIs>
								<LinearRing>
									<coordinates>
										-83.827012,29.971061,0 -83.83004800000001,29.973025,0 -83.829032,29.969825,0 -83.827012,29.971061,0 
									</coordinates>
								</LinearRing>
							</outerBoundaryIs>
						</Polygon>
					</Placemark>
					<Placemark id="5C7726A3FB0005EE">
						<name>New Afrika</name>
						<description>See: 2050-snapshot/domains/borders-geopolitics.md#new-afrika</description>
						<styleUrl>#__managed_style_E0233F4DA53F8CDEB5E4</styleUrl>
						<Polygon>
							<outerBoundaryIs>
								<LinearRing>
									<coordinates>
										-88.413087,30.206344,0 -88.506567,30.214058,0 -88.453654,30.196584,0 -88.413087,30.206344,0 
									</coordinates>
								</LinearRing>
							</outerBoundaryIs>
						</Polygon>
					</Placemark>
					<Placemark id="5C7726A3FB0005EF">
						<name>New Afrika</name>
						<description>See: 2050-snapshot/domains/borders-geopolitics.md#new-afrika</description>
						<styleUrl>#__managed_style_E0233F4DA53F8CDEB5E4</styleUrl>
						<Polygon>
							<outerBoundaryIs>
								<LinearRing>
									<coordinates>
										-88.595502,30.224173,0 -88.71530199999999,30.252263,0 -88.76452399999999,30.243752,0 -88.714941,30.243721,0 -88.665643,30.229638,0 -88.595502,30.224173,0 
									</coordinates>
								</LinearRing>
							</outerBoundaryIs>
						</Polygon>
					</Placemark>
					<Placemark id="5C7726A3FB0005F0">
						<name>New Afrika</name>
						<description>See: 2050-snapshot/domains/borders-geopolitics.md#new-afrika</description>
						<styleUrl>#__managed_style_E0233F4DA53F8CDEB5E4</styleUrl>
						<Polygon>
							<outerBoundaryIs>
								<LinearRing>
									<coordinates>
										-88.327302,30.229882,0 -88.304773,30.228031,0 -88.199799,30.24779,0 -88.074854,30.249119,0 -88.117738,30.279124,0 -88.16190400000001,30.253396,0 -88.327302,30.229882,0 
									</coordinates>
								</LinearRing>
							</outerBoundaryIs>
						</Polygon>
					</Placemark>
					<Placemark id="5C7726A3FB0005F1">
						<name>New Afrika</name>
						<description>See: 2050-snapshot/domains/borders-geopolitics.md#new-afrika</description>
						<styleUrl>#__managed_style_E0233F4DA53F8CDEB5E4</styleUrl>
						<Polygon>
							<outerBoundaryIs>
								<LinearRing>
									<coordinates>
										-88.226195,30.320726,0 -88.225421,30.319893,0 -88.220732,30.322114,0 -88.226195,30.320726,0 
									</coordinates>
								</LinearRing>
							</outerBoundaryIs>
						</Polygon>
					</Placemark>
					<Placemark id="5C7726A3FB0005F2">
						<name>New Afrika</name>
						<description>See: 2050-snapshot/domains/borders-geopolitics.md#new-afrika</description>
						<styleUrl>#__managed_style_E0233F4DA53F8CDEB5E4</styleUrl>
						<Polygon>
							<outerBoundaryIs>
								<LinearRing>
									<coordinates>
										-88.569773,30.340557,0 -88.58434200000001,30.337209,0 -88.56867200000001,30.331128,0 -88.569773,30.340557,0 
									</coordinates>
								</LinearRing>
							</outerBoundaryIs>
						</Polygon>
					</Placemark>
					<Placemark id="5C7726A3FB0005F3">
						<name>New Afrika</name>
						<description>See: 2050-snapshot/domains/borders-geopolitics.md#new-afrika</description>
						<styleUrl>#__managed_style_E0233F4DA53F8CDEB5E4</styleUrl>
						<Polygon>
							<outerBoundaryIs>
								<LinearRing>
									<coordinates>
										-88.253294,30.334804,0 -88.25946999999999,30.366778,0 -88.262404,30.334219,0 -88.256207,30.325115,0 -88.253294,30.334804,0 
									</coordinates>
								</LinearRing>
							</outerBoundaryIs>
						</Polygon>
					</Placemark>
					<Placemark id="5C7726A3FB0005F4">
						<name>New Afrika</name>
						<description>See: 2050-snapshot/domains/borders-geopolitics.md#new-afrika</description>
						<styleUrl>#__managed_style_E0233F4DA53F8CDEB5E4</styleUrl>
						<Polygon>
							<outerBoundaryIs>
								<LinearRing>
									<coordinates>
										-88.818817,30.360924,0 -88.829913,30.371642,0 -88.86639099999999,30.381493,0 -88.818817,30.360924,0 
									</coordinates>
								</LinearRing>
							</outerBoundaryIs>
						</Polygon>
					</Placemark>
					<Placemark id="5C7726A3FB0005F5">
						<name>New Afrika</name>
						<description>See: 2050-snapshot/domains/borders-geopolitics.md#new-afrika</description>
						<styleUrl>#__managed_style_E0233F4DA53F8CDEB5E4</styleUrl>
						<Polygon>
							<outerBoundaryIs>
								<LinearRing>
									<coordinates>
										-88.02916500000001,30.519648,0 -88.053375,30.506987,0 -88.02433000000001,30.490774,0 -88.02916500000001,30.519648,0 
									</coordinates>
								</LinearRing>
							</outerBoundaryIs>
						</Polygon>
					</Placemark>
					<Placemark id="5C7726A3FB0005F6">
						<name>New Afrika</name>
						<description>See: 2050-snapshot/domains/borders-geopolitics.md#new-afrika</description>
						<styleUrl>#__managed_style_E0233F4DA53F8CDEB5E4</styleUrl>
						<Polygon>
							<outerBoundaryIs>
								<LinearRing>
									<coordinates>
										-81.279391,31.305839,0 -81.27188200000001,31.304105,0 -81.277159,31.311215,0 -81.279391,31.305839,0 
									</coordinates>
								</LinearRing>
							</outerBoundaryIs>
						</Polygon>
					</Placemark>
					<Placemark id="5C7726A3FB0005F7">
						<name>New Afrika</name>
						<description>See: 2050-snapshot/domains/borders-geopolitics.md#new-afrika</description>
						<styleUrl>#__managed_style_E0233F4DA53F8CDEB5E4</styleUrl>
						<Polygon>
							<outerBoundaryIs>
								<LinearRing>
									<coordinates>
										-91.16277399999998,29.321299,0 -91.199258,29.305134,0 -91.238237,29.350618,0 -91.236987,29.371342,0 -91.265452,29.360976,0 -91.295743,29.309524,0 -91.33976800000002,29.309818,0 -91.28832399999999,29.255743,0 -91.215182,29.226966,0 -91.12985500000001,29.220743,0 -91.06473099999999,29.184124,0 -91.03834900000001,29.210371,0 -91.00827200000001,29.174336,0 -90.95967700000001,29.186303,0 -90.86912099999999,29.118323,0 -90.851528,29.074295,0 -90.805933,29.06446,0 -90.78795299999999,29.107629,0 -90.74481400000001,29.117597,0 -90.72995899999999,29.138047,0 -90.71142,29.116351,0 -90.69430699999999,29.125071,0 -90.68503799999999,29.165551,0 -90.646771,29.168664,0 -90.63571899999999,29.213897,0 -90.61183200000001,29.214831,0 -90.61599199999999,29.236403,0 -90.561801,29.234951,0 -90.59269900000001,29.245943,0 -90.597571,29.303268,0 -90.577012,29.313217,0 -90.55431400000002,29.285235,0 -90.523178,29.304201,0 -90.479088,29.292179,0 -90.45163600000001,29.321506,0 -90.460311,29.337462,0 -90.434404,29.348546,0 -90.392929,29.296636,0 -90.403268,29.233811,0 -90.372608,29.264813,0 -90.376648,29.293319,0 -90.354069,29.305445,0 -90.30534400000001,29.268442,0 -90.27283199999999,29.199032,0 -90.25923400000002,29.199583,0 -90.263513,29.180597,0 -90.28525999999999,29.178003,0 -90.258759,29.165551,0 -90.281457,29.156522,0 -90.24533,29.149672,0 -90.27777300000001,29.142822,0 -90.234405,29.12882400000001,0 -90.248063,29.096623,0 -90.22286899999999,29.087069,0 -90.047854,29.18958,0 -90.04787899999999,29.21533,0 -90.070531,29.208215,0 -90.10807,29.265021,0 -90.07532999999999,29.296014,0 -90.018643,29.286789,0 -90.01626600000002,29.30047,0 -90.03765699999998,29.309175,0 -90.03181499999999,29.344251,0 -89.978891,29.346992,0 -89.99754900000001,29.370504,0 -90.01585,29.354036,0 -90.041995,29.360665,0 -90.00889799999999,29.379203,0 -89.970394,29.431796,0 -89.99178499999999,29.450632,0 -89.963977,29.463049,0 -89.93426700000001,29.439662,0 -89.919293,29.448355,0 -89.879541,29.434539,0 -89.863022,29.470344,0 -89.83640200000001,29.474906,0 -89.815962,29.460318,0 -89.83533300000001,29.452246,0 -89.843553,29.421677,0 -89.814654,29.400078,0 -89.790886,29.41084499999999,0 -89.76801,29.389362,0 -89.644892,29.389983,0 -89.64741100000001,29.409862,0 -89.60876399999999,29.387498,0 -89.595454,29.356015,0 -89.62326299999999,29.346278,0 -89.646793,29.376314,0 -89.759691,29.350214,0 -89.790589,29.328251,0 -89.801523,29.353321,0 -89.822141,29.356584,0 -89.842641,29.318823,0 -89.639663,29.290531,0 -89.605974,29.25365,0 -89.482844,29.215053,0 -89.399648,29.123677,0 -89.350585,29.129598,0 -89.331868,29.148645,0 -89.32854,29.19056700000001,0 -89.295027,29.198867,0 -89.276488,29.173551,0 -89.278627,29.137642,0 -89.312378,29.117503,0 -89.310001,29.070981,0 -89.34303800000001,29.057685,0 -89.419865,28.929709,0 -89.36436999999999,28.964721,0 -89.283215,29.053325,0 -89.259354,29.058358,0 -89.251727,29.083172,0 -89.22148900000001,29.064574,0 -89.218673,29.02251499999999,0 -89.142866,28.991623,0 -89.137743,29.018878,0 -89.158593,29.021761,0 -89.146953,29.070981,0 -89.11653,29.074097,0 -89.103695,29.116673,0 -89.06661699999999,29.090714,0 -89.03952099999999,29.135463,0 -89.09704000000001,29.138784,0 -89.11177600000001,29.159957,0 -89.05117300000001,29.170483,0 -89.047127,29.184446,0 -89.010525,29.17075,0 -89.02597400000001,29.215153,0 -89.096327,29.187974,0 -89.121996,29.202083,0 -89.116653,29.219532,0 -89.13055300000001,29.226561,0 -89.115104,29.252901,0 -89.187834,29.34203,0 -89.23537,29.304315,0 -89.2667,29.349914,0 -89.308403,29.371513,0 -89.338582,29.355445,0 -89.34832900000001,29.366075,0 -89.337504,29.379483,0 -89.383741,29.388378,0 -89.421651,29.376262,0 -89.422141,29.388362,0 -89.470142,29.401471,0 -89.512326,29.382269,0 -89.561288,29.395212,0 -89.55285000000001,29.409499,0 -89.520009,29.399631,0 -89.538827,29.431651,0 -89.522784,29.456179,0 -89.552256,29.455454,0 -89.569607,29.494044,0 -89.640198,29.50356,0 -89.683455,29.549266,0 -89.68448600000001,29.563263,0 -89.641802,29.575573,0 -89.682683,29.59686200000001,0 -89.671036,29.601615,0 -89.68448600000001,29.624804,0 -89.649269,29.625185,0 -89.637761,29.596655,0 -89.60127,29.583612,0 -89.620395,29.605341,0 -89.602109,29.610295,0 -89.628967,29.613807,0 -89.629918,29.628891,0 -89.661648,29.64645,0 -89.62053,29.636121,0 -89.565388,29.659256,0 -89.50032899999999,29.634512,0 -89.531542,29.666444,0 -89.514527,29.668834,0 -89.52488700000001,29.682799,0 -89.50772000000001,29.692016,0 -89.52488700000001,29.726566,0 -89.485147,29.719961,0 -89.46759900000001,29.699019,0 -89.46556200000001,29.651738,0 -89.44564800000001,29.651879,0 -89.42421,29.697638,0 -89.387794,29.679991,0 -89.43025,29.712606,0 -89.43076600000001,29.740765,0 -89.39469699999999,29.790152,0 -89.285742,29.763391,0 -89.29251499999999,29.799166,0 -89.336455,29.785167,0 -89.35699,29.800018,0 -89.349338,29.820829,0 -89.37942700000001,29.822125,0 -89.38570199999999,29.835487,0 -89.340828,29.849671,0 -89.327518,29.82328,0 -89.312394,29.823625,0 -89.306032,29.865666,0 -89.270916,29.852093,0 -89.24118900000001,29.885113,0 -89.33512399999999,29.872757,0 -89.34196900000001,29.883143,0 -89.27980599999999,29.927246,0 -89.23243600000001,29.930428,0 -89.22788300000001,29.970482,0 -89.24996899999999,29.975597,0 -89.247848,29.997328,0 -89.273315,29.99382,0 -89.31762999999999,29.921219,0 -89.370063,29.892128,0 -89.398347,29.95784,0 -89.38123400000001,29.959487,0 -89.423541,29.963399,0 -89.43341100000001,29.991205,0 -89.45776600000001,29.998192,0 -89.432097,30.010542,0 -89.448972,30.019186,0 -89.429958,30.028858,0 -89.39906000000001,30.000868,0 -89.40783399999999,30.023868,0 -89.374579,30.032562,0 -89.372677,30.049845,0 -89.43043299999999,30.033796,0 -89.442555,30.046347,0 -89.43107500000001,30.051763,0 -89.48442300000001,30.078833,0 -89.491517,30.0375,0 -89.58008599999999,29.990455,0 -89.570419,29.961465,0 -89.596429,29.879554,0 -89.665435,29.862796,0 -89.744939,29.907905,0 -89.747176,29.930761,0 -89.71477400000001,29.947048,0 -89.729395,29.957532,0 -89.798109,29.931714,0 -89.838787,29.942772,0 -89.858546,30.008321,0 -89.818327,30.04573,0 -89.767938,30.04573,0 -89.71767800000001,30.025272,0 -89.73086000000001,30.060748,0 -89.68491899999999,30.075226,0 -89.678163,30.108286,0 -89.62414200000001,30.157385,0 -89.587062,30.150648,0 -89.528092,30.188976,0 -89.468148,30.193813,0 -89.458107,30.17781400000001,0 -89.419348,30.25432,0 -89.32254500000001,30.314896,0 -89.338847,30.342995,0 -89.376305,30.336416,0 -89.340947,30.372896,0 -89.307986,30.373379,0 -89.311048,30.360951,0 -89.29249900000001,30.365635,0 -89.26873399999999,30.340588,0 -89.291844,30.328096,0 -89.28574399999999,30.303097,0 -89.098803,30.362554,0 -89.09333100000001,30.347742,0 -89.089843,30.364733,0 -89.016378,30.384616,0 -88.859229,30.390009,0 -88.87085999999999,30.419471,0 -88.857786,30.430188,0 -88.746945,30.347622,0 -88.700587,30.343689,0 -88.612263,30.373403,0 -88.611513,30.356017,0 -88.584998,30.368681,0 -88.579814,30.345846,0 -88.52693600000001,30.342434,0 -88.48011700000001,30.318345,0 -88.45381,30.329626,0 -88.447671,30.358045,0 -88.39455100000001,30.350091,0 -88.39723600000001,30.367689,0 -88.35736199999999,30.406623,0 -88.315082,30.391633,0 -88.31151699999999,30.370206,0 -88.288105,30.387328,0 -88.18710400000001,30.362699,0 -88.19566399999999,30.321242,0 -88.14631799999999,30.330989,0 -88.139037,30.312793,0 -88.107274,30.377246,0 -88.103768,30.500903,0 -88.082792,30.528713,0 -88.08562499999999,30.569915,0 -88.05399800000001,30.612491,0 -88.061877,30.643586,0 -88.03840700000001,30.647898,0 -88.01141200000001,30.685126,0 -87.936717,30.657432,0 -87.919346,30.63606,0 -87.90171100000001,30.55087899999999,0 -87.936969,30.483105,0 -87.921278,30.473848,0 -87.90634300000001,30.40938,0 -87.837368,30.376334,0 -87.80926599999999,30.332702,0 -87.74717099999999,30.287768,0 -87.78775,30.254244,0 -87.893201,30.239237,0 -87.936041,30.261469,0 -87.966847,30.235618,0 -88.02767799999999,30.223645,0 -87.80056,30.229365,0 -87.30119999999999,30.33029,0 -87.27089599999999,30.31675,0 -87.20601000000001,30.321469,0 -86.738613,30.393353,0 -86.62512,30.396633,0 -86.313998,30.36639,0 -86.089963,30.303569,0 -85.92255400000001,30.23767,0 -85.59561100000001,30.050583,0 -85.50232099999999,29.967845,0 -85.405052,29.938487,0 -85.302789,29.808864,0 -85.309769,29.693175,0 -85.360782,29.67866,0 -85.409696,29.802353,0 -85.391232,29.87432,0 -85.411765,29.85979,0 -85.417495,29.829933,0 -85.39840700000001,29.742964,0 -85.3753,29.691854,0 -85.35151399999999,29.666669,0 -85.29862300000001,29.684019,0 -85.232229,29.677355,0 -85.222039,29.685467,0 -85.250913,29.687155,0 -85.101682,29.71874800000001,0 -84.993264,29.714961,0 -84.91511,29.783303,0 -84.870649,29.797113,0 -84.902142,29.73532000000001,0 -84.888031,29.722406,0 -84.52181400000001,29.914078,0 -84.492025,29.909872,0 -84.451705,29.929085,0 -84.42333600000001,29.903279,0 -84.34446,29.899025,0 -84.33862499999999,29.94649,0 -84.43890399999999,29.960232,0 -84.437597,29.98813,0 -84.34175399999999,29.970258,0 -84.36196200000001,29.987739,0 -84.361599,30.01566,0 -84.273055,30.063755,0 -84.262263,30.103724,0 -84.203413,30.08461,0 -84.205589,30.114323,0 -84.174999,30.095763,0 -84.184493,30.077254,0 -84.16788099999999,30.071422,0 -84.06299,30.101378,0 -84.00675699999999,30.097555,0 -83.925364,30.034568,0 -83.680791,29.921574,0 -83.58683600000001,29.818941,0 -83.584222,29.758503,0 -83.566018,29.761434,0 -83.547927,29.728081,0 -83.492953,29.712686,0 -83.48369099999999,29.688209,0 -83.424976,29.669533,0 -83.363207,29.668238,0 -83.345676,29.74349,0 -83.319462,29.778328,0 -83.31886,29.822517,0 -82.895033,29.825783,0 -82.863266,29.91105,0 -82.791854,29.935453,0 -82.76986100000001,29.927813,0 -82.769019,29.897351,0 -82.732941,29.85647,0 -82.652107,29.82563,0 -82.619739,29.859111,0 -82.586485,29.866702,0 -82.579526,29.914444,0 -82.525368,29.94496,0 -82.469989,29.925794,0 -82.436587,29.93085,0 -82.41104300000001,29.920582,0 -82.397519,29.886069,0 -82.334962,29.878714,0 -82.281837,29.844448,0 -82.244135,29.852392,0 -82.133126,29.835949,0 -82.117552,29.790595,0 -82.08160599999999,29.778051,0 -82.08815300000001,29.760931,0 -82.057931,29.747822,0 -82.05562500000001,29.718232,0 -81.93942699999999,29.747497,0 -81.914192,29.791399,0 -81.861994,29.800187,0 -81.81243000000001,29.83649,0 -81.58120700000001,29.840176,0 -81.607606,29.905655,0 -81.604867,29.963498,0 -81.68887599999999,30.028566,0 -81.680215,30.12124,0 -81.612312,30.132941,0 -81.53900899999999,30.119942,0 -81.538707,30.103748,0 -81.43378300000001,30.105536,0 -81.43692900000001,30.252335,0 -81.37987699999999,30.252914,0 -81.413197,30.482909,0 -81.45592600000001,30.513383,0 -81.435829,30.526071,0 -81.441889,30.601385,0 -81.42584600000001,30.70045199999999,0 -81.449707,30.719685,0 -81.460061,30.769912,0 -81.404079,30.903738,0 -81.403409,30.957914,0 -81.408484,30.977718,0 -81.426929,30.956615,0 -81.493651,30.977528,0 -81.451444,31.015515,0 -81.420474,31.016703,0 -81.401267,31.072781,0 -81.40952299999999,31.120611,0 -81.290468,31.217691,0 -81.269552,31.258741,0 -81.29427,31.368596,0 -81.268613,31.383009,0 -81.178725,31.518202,0 -81.20419,31.536074,0 -81.278733,31.497538,0 -81.258809,31.52906,0 -81.295187,31.521536,0 -81.298259,31.533505,0 -81.216065,31.558415,0 -81.195581,31.58043,0 -81.171865,31.558962,0 -81.128845,31.631439,0 -81.131137,31.695774,0 -81.161084,31.691401,0 -81.20357199999999,31.719448,0 -81.192784,31.733245,0 -81.130634,31.722692,0 -81.07917,31.762684,0 -81.034724,31.816423,0 -81.075812,31.829031,0 -81.05907000000001,31.850106,0 -81.06525499999999,31.877095,0 -80.99269,31.857641,0 -80.930145,31.90807,0 -80.96849400000001,31.915822,0 -80.984336,31.940145,0 -80.942742,31.963741,0 -80.921351,31.938733,0 -80.84729799999999,31.987549,0 -80.843456,32.023647,0 -80.87595399999999,32.016758,0 -80.906677,32.034793,0 -80.889512,32.037593,0 -80.90803699999999,32.048299,0 -80.88318700000001,32.080084,0 -80.84242399999999,32.117837,0 -80.81250300000001,32.109746,0 -80.73993900000001,32.146131,0 -80.67165199999999,32.213406,0 -80.68651199999999,32.24419,0 -80.761257,32.280044,0 -80.75345,32.306822,0 -80.708145,32.323734,0 -80.644794,32.291497,0 -80.645388,32.260852,0 -80.63297,32.256925,0 -80.45329599999999,32.321913,0 -80.46364199999999,32.340108,0 -80.428302,32.399321,0 -80.461534,32.412893,0 -80.479409,32.445754,0 -80.47206799999999,32.496964,0 -80.43091800000001,32.500906,0 -80.413487,32.470672,0 -80.36041,32.499813,0 -80.332438,32.478104,0 -80.236778,32.542324,0 -80.166552,32.560224,0 -80.121368,32.590523,0 -80.000801,32.605892,0 -79.974299,32.641024,0 -79.885582,32.684868,0 -79.87093,32.742434,0 -79.928546,32.754233,0 -79.923198,32.781813,0 -79.878039,32.785709,0 -79.848797,32.75363,0 -79.726389,32.805996,0 -79.698115,32.851325,0 -79.581058,32.906417,0 -79.57408599999999,32.932509,0 -79.60753200000001,32.92623,0 -79.617611,32.952726,0 -79.571108,33.013811,0 -79.525221,33.037286,0 -79.483271,33.009785,0 -79.404422,33.019617,0 -79.401081,33.011175,0 -79.42313799999999,33.010183,0 -79.362292,33.009087,0 -79.328159,33.090406,0 -79.24642299999999,33.126007,0 -79.191519,33.173269,0 -79.175713,33.21106,0 -79.17210799999999,33.329123,0 -79.135441,33.403867,0 -79.084588,33.483669,0 -78.95725899999999,33.620833,0 -78.76388300000001,33.774256,0 -78.547324,33.856483,0 -79.675299,34.804744,0 -80.797543,34.819786,0 -80.782042,34.935782,0 -80.93495,35.107409,0 -81.041489,35.044703,0 -81.058029,35.07319,0 -81.03280599999999,35.108049,0 -81.05103699999999,35.131654,0 -81.04362500000001,35.149877,0 -81.874433,35.184113,0 -82.27491999999999,35.200071,0 -82.371298,35.181449,0 -82.39293000000001,35.215402,0 -82.439595,35.165863,0 -82.457128,35.16395,0 -82.460092,35.178143,0 -82.529973,35.155617,0 -82.546374,35.163731,0 -82.662381,35.118123,0 -82.681443,35.127918,0 -82.697677,35.095726,0 -82.72701000000001,35.094142,0 -82.757704,35.068019,0 -82.777376,35.064143,0 -82.78786700000001,35.085024,0 -83.109557,35.001197,0 -83.619985,34.986592,0 -85.466713,34.982972,0 -88.20295900000001,35.008028,0 -88.19881100000001,34.991192,0 -90.30836100000002,34.995694,0 -90.24593500000002,34.948721,0 -90.24133399999999,34.919033,0 -90.257858,34.893385,0 -90.317741,34.871058,0 -90.30738399999998,34.846195,0 -90.338449,34.858517,0 -90.389393,34.830665,0 -90.438729,34.825248,0 -90.449691,34.83992,0 -90.429366,34.866609,0 -90.436561,34.882731,0 -90.476044,34.885842,0 -90.48437300000001,34.863581,0 -90.45537899999999,34.820785,0 -90.476455,34.793587,0 -90.44842300000001,34.739117,0 -90.474999,34.723888,0 -90.52416600000001,34.731388,0 -90.492777,34.772499,0 -90.51407100000002,34.800054,0 -90.544167,34.791667,0 -90.539444,34.755277,0 -90.57194399999999,34.712777,0 -90.532444,34.696237,0 -90.474166,34.705277,0 -90.462816,34.684074,0 -90.53210799999999,34.627327,0 -90.55510399999999,34.646236,0 -90.541511,34.68309,0 -90.57010200000001,34.693432,0 -90.591144,34.619204,0 -90.53962300000001,34.553925,0 -90.592662,34.490579,0 -90.57769399999999,34.430975,0 -90.586232,34.409172,0 -90.658542,34.375705,0 -90.657488,34.322231,0 -90.66934299999998,34.31302,0 -90.693129,34.32257,0 -90.67624499999999,34.371111,0 -90.764393,34.363675,0 -90.73802499999999,34.289279,0 -90.76562300000001,34.269513,0 -90.831773,34.276936,0 -90.84714900000002,34.20613,0 -90.89658,34.2258,0 -90.906334,34.244382,0 -90.93554799999998,34.237847,0 -90.91442499999998,34.195726,0 -90.81657199999999,34.183023,0 -90.807564,34.161821,0 -90.84716800000001,34.136884,0 -90.91001,34.165508,0 -90.95864400000001,34.135484,0 -90.947689,34.109574,0 -90.921294,34.093514,0 -90.88262800000001,34.096615,0 -90.871083,34.081177,0 -90.896253,34.025218,0 -90.98818399999999,34.019211,0 -90.96154799999999,33.979945,0 -90.966173,33.964663,0 -91.000108,33.966428,0 -91.01894799999999,34.003225,0 -91.04871199999999,33.99268,0 -91.08620200000001,34.006418,0 -91.08775300000001,33.959313,0 -91.01019400000001,33.93159,0 -91.06977700000002,33.872721,0 -91.070194,33.84534,0 -91.049083,33.816026,0 -90.988466,33.78453,0 -91.01837000000002,33.764131,0 -91.13405900000001,33.782893,0 -91.14880700000001,33.73136,0 -91.11735299999999,33.70526,0 -91.06052899999999,33.71513,0 -91.030402,33.687766,0 -91.033917,33.673558,0 -91.091351,33.657764,0 -91.16036699999999,33.706602,0 -91.228284,33.688279,0 -91.218855,33.660122,0 -91.159986,33.642897,0 -91.12868,33.608475,0 -91.16485500000002,33.570175,0 -91.23339200000001,33.562747,0 -91.18259999999999,33.499185,0 -91.23518100000001,33.438972,0 -91.17650699999999,33.444627,0 -91.171674,33.496997,0 -91.132152,33.481558,0 -91.11693699999999,33.452033,0 -91.131885,33.430063,0 -91.20922,33.40629,0 -91.148816,33.378765,0 -91.099535,33.407209,0 -91.087034,33.45129,0 -91.058077,33.446537,0 -91.06444400000001,33.418462,0 -91.142219,33.348989,0 -91.141615,33.299539,0 -91.10614200000001,33.241799,0 -91.07853,33.283306,0 -91.04362399999999,33.274636,0 -91.070697,33.227302,0 -91.10026000000001,33.219428,0 -91.08078700000002,33.182213,0 -91.085707,33.137189,0 -91.12807799999999,33.128914,0 -91.183662,33.141691,0 -91.20199499999998,33.123125,0 -91.20016699999999,33.10693,0 -91.121195,33.059166,0 -91.12832600000002,33.034282,0 -91.16620799999998,33.004292,0 -93.238647,33.017992,0 -94.04296400000001,33.019219,0 -94.041833,31.992402,0 -94.01726499999999,31.989343,0 -93.97394199999999,31.921668,0 -93.92325599999999,31.907793,0 -93.926654,31.888255,0 -93.897412,31.894436,0 -93.902458,31.875275,0 -93.88078299999999,31.864753,0 -93.87325300000001,31.814886,0 -93.82344299999998,31.775098,0 -93.83610299999999,31.748521,0 -93.81346600000001,31.725884,0 -93.81629100000002,31.707497,0 -93.79454800000002,31.702076,0 -93.82646200000001,31.666919,0 -93.81683800000002,31.622509,0 -93.83805700000001,31.60679500000001,0 -93.83492400000002,31.586211,0 -93.78768699999999,31.527344,0 -93.747737,31.53069,0 -93.74219600000001,31.515469,0 -93.711581,31.512789,0 -93.751851,31.483117,0 -93.749476,31.46869,0 -93.703934,31.455493,0 -93.70893700000001,31.441706,0 -93.692526,31.438201,0 -93.70487900000001,31.410881,0 -93.674117,31.397681,0 -93.670108,31.3657,0 -93.639257,31.37153500000001,0 -93.66843900000001,31.353012,0 -93.68688,31.305166,0 -93.64147199999999,31.269936,0 -93.62034299999999,31.271025,0 -93.61798400000002,31.232501,0 -93.59655599999999,31.229657,0 -93.607288,31.205403,0 -93.588503,31.165581,0 -93.53330699999998,31.184463,0 -93.54869999999998,31.155839,0 -93.53969999999998,31.114449,0 -93.563472,31.093989,0 -93.52774700000001,31.07457,0 -93.518912,31.061863,0 -93.53121899999998,31.051678,0 -93.508292,31.032352,0 -93.57820700000001,30.999995,0 -93.564289,30.989601,0 -93.57282300000001,30.970723,0 -93.531758,30.958217,0 -93.52601300000002,30.937535,0 -93.57408,30.884529,0 -93.55464499999999,30.823249,0 -93.583775,30.801779,0 -93.592101,30.763675,0 -93.614448,30.75987,0 -93.60954400000001,30.723139,0 -93.629904,30.67994,0 -93.68309999999998,30.640763,0 -93.67866200000002,30.594097,0 -93.721936,30.580324,0 -93.740253,30.539569,0 -93.706507,30.50991,0 -93.71742099999999,30.483822,0 -93.6978,30.440583,0 -93.72682400000001,30.429675,0 -93.757654,30.390423,0 -93.751744,30.361046,0 -93.76582199999999,30.333318,0 -93.74394100000001,30.304032,0 -93.70458400000001,30.289949,0 -93.717839,30.193999,0 -93.705495,30.192921,0 -93.706532,30.147424,0 -93.68855200000002,30.140374,0 -93.73408499999999,30.08613,0 -93.69939599999998,30.05925,0 -93.71732699999998,30.06571,0 -93.74206999999998,30.020771,0 -93.78943099999999,29.987812,0 -93.83037400000001,29.894359,0 -93.92274400000001,29.818808,0 -93.92650399999999,29.78956,0 -93.837971,29.690619,0 -93.76570700000001,29.728228,0 -93.635304,29.752806,0 -93.49285,29.768729,0 -93.17693,29.770487,0 -92.966032,29.716312,0 -92.66073299999999,29.596102,0 -92.56677499999999,29.577236,0 -92.575762,29.583804,0 -92.561502,29.589592,0 -92.557461,29.576053,0 -92.323465,29.531497,0 -92.255489,29.540183,0 -92.145391,29.58647,0 -92.045619,29.585101,0 -92.07069299999999,29.600029,0 -92.03813100000001,29.618213,0 -92.00889599999999,29.612944,0 -92.034566,29.63154,0 -92.10575099999998,29.611808,0 -92.13664900000001,29.667481,0 -92.10386700000001,29.699145,0 -92.16909200000001,29.70021,0 -92.200076,29.72571,0 -92.203312,29.753402,0 -92.17110599999999,29.739782,0 -92.17334300000002,29.761286,0 -92.157327,29.752945,0 -92.13189899999999,29.765837,0 -92.123577,29.753461,0 -92.14443100000001,29.716418,0 -92.08364600000002,29.759135,0 -91.98286999999999,29.796166,0 -91.985624,29.81968,0 -91.96801499999998,29.835141,0 -91.937507,29.816765,0 -91.889118,29.836023,0 -91.830808,29.82927,0 -91.826018,29.78239900000001,0 -91.83907400000001,29.773578,0 -91.851671,29.79183400000001,0 -91.879242,29.756556,0 -91.85440400000002,29.734682,0 -91.88075000000001,29.710839,0 -91.85832599999999,29.706093,0 -91.752915,29.74985,0 -91.62789600000001,29.741079,0 -91.623023,29.670992,0 -91.647504,29.635465,0 -91.554571,29.635775,0 -91.52552300000001,29.551904,0 -91.54138,29.526327,0 -91.434254,29.543426,0 -91.414694,29.513709,0 -91.356323,29.51506,0 -91.33957399999998,29.490497,0 -91.26640399999999,29.476094,0 -91.256524,29.445005,0 -91.217814,29.435287,0 -91.219579,29.397117,0 -91.12629,29.333421,0 -91.118922,29.30617,0 -91.13294500000002,29.281399,0 -91.118447,29.255482,0 -91.17026100000001,29.23547,0 -91.154455,29.254964,0 -91.176559,29.271137,0 -91.16277399999998,29.321299,0 
									</coordinates>
								</LinearRing>
							</outerBoundaryIs>
						</Polygon>
					</Placemark>
					<Placemark id="5C7726A3FB0005F8">
						<name>New Afrika</name>
						<description>See: 2050-snapshot/domains/borders-geopolitics.md#new-afrika</description>
						<styleUrl>#__managed_style_E0233F4DA53F8CDEB5E4</styleUrl>
						<Polygon>
							<outerBoundaryIs>
								<LinearRing>
									<coordinates>
										-80.186317,32.55302,0 -80.18204900000001,32.547222,0 -80.18449200000001,32.55358,0 -80.186317,32.55302,0 
									</coordinates>
								</LinearRing>
							</outerBoundaryIs>
						</Polygon>
					</Placemark>
					<Placemark id="5C7726A3FB0005F9">
						<name>New Afrika</name>
						<description>See: 2050-snapshot/domains/borders-geopolitics.md#new-afrika</description>
						<styleUrl>#__managed_style_E0233F4DA53F8CDEB5E4</styleUrl>
						<Polygon>
							<outerBoundaryIs>
								<LinearRing>
									<coordinates>
										-79.553606,32.990386,0 -79.54707000000001,32.98939,0 -79.548734,32.992978,0 -79.553606,32.990386,0 
									</coordinates>
								</LinearRing>
							</outerBoundaryIs>
						</Polygon>
					</Placemark>
					<Placemark id="5C7726A3FB0005FA">
						<name>New Afrika</name>
						<description>See: 2050-snapshot/domains/borders-geopolitics.md#new-afrika</description>
						<styleUrl>#__managed_style_E0233F4DA53F8CDEB5E4</styleUrl>
						<Polygon>
							<outerBoundaryIs>
								<LinearRing>
									<coordinates>
										-79.508071,33.019588,0 -79.50413500000001,33.018735,0 -79.502368,33.020582,0 -79.508071,33.019588,0 
									</coordinates>
								</LinearRing>
							</outerBoundaryIs>
						</Polygon>
					</Placemark>
				</Document>
</kml>
