<?xml version='1.0' encoding='UTF-8'?>
<kml xmlns="http://www.opengis.net/kml/2.2">
  <Document>
    <name>Northern Ireland</name>
    <Placemark>
      <name>Northern Ireland</name>
      <MultiGeometry>
        <Polygon>
          <outerBoundaryIs>
            <LinearRing>
              <coordinates>-6.657082,54.091945,0 -6.655791,54.103314,0 -6.666436,54.114786,0 -6.643957,54.131839,0 -6.634552,54.150133,0 -6.640339,54.168013,0 -6.648448,54.173665,0 -6.663025,54.183826,0 -6.683954,54.194368,0 -6.694651,54.197985,0 -6.706537,54.198915,0 -6.717234,54.195143,0 -6.724779,54.188631,0 -6.732840,54.183567,0 -6.744777,54.184187,0 -6.766481,54.192352,0 -6.787824,54.202998,0 -6.807358,54.216330,0 -6.823946,54.232350,0 -6.829733,54.242375,0 -6.833196,54.252090,0 -6.837743,54.260513,0 -6.846683,54.266456,0 -6.882185,54.277257,0 -6.864667,54.282734,0 -6.856657,54.292811,0 -6.858414,54.307332,0 -6.870015,54.326001,0 -6.879705,54.341594,0 -6.885957,54.345624,0 -6.897895,54.346193,0 -6.905956,54.349035,0 -6.915051,54.365933,0 -6.922028,54.372703,0 -6.984091,54.403089,0 -7.017836,54.413166,0 -7.049255,54.411512,0 -7.078504,54.394717,0 -7.127028,54.349759,0 -7.159894,54.335186,0 -7.168059,54.335031,0 -7.185629,54.336943,0 -7.189470,54.335692,0 -7.192450,54.334721,0 -7.193949,54.329967,0 -7.191468,54.323869,0 -7.187644,54.318804,0 -7.185009,54.317254,0 -7.184647,54.316634,0 -7.192399,54.307384,0 -7.193691,54.307539,0 -7.199168,54.303457,0 -7.206661,54.304903,0 -7.211467,54.304180,0 -7.209038,54.293431,0 -7.175500,54.283664,0 -7.181495,54.269763,0 -7.145890,54.252090,0 -7.159739,54.240670,0 -7.153331,54.224237,0 -7.174725,54.216072,0 -7.229502,54.207545,0 -7.240871,54.202326,0 -7.249088,54.197416,0 -7.255496,54.190854,0 -7.261128,54.180880,0 -7.256322,54.176901,0 -7.247021,54.172250,0 -7.245780,54.166979,0 -7.265366,54.161140,0 -7.260870,54.151166,0 -7.263505,54.140986,0 -7.270740,54.132253,0 -7.280042,54.126155,0 -7.293788,54.122021,0 -7.297353,54.125896,0 -7.296320,54.134991,0 -7.296423,54.146515,0 -7.295028,54.155404,0 -7.292134,54.162638,0 -7.295545,54.165119,0 -7.325982,54.154577,0 -7.333165,54.149409,0 -7.333165,54.142743,0 -7.310324,54.114683,0 -7.316489,54.114280,0 -7.326964,54.113597,0 -7.375488,54.123312,0 -7.390216,54.121194,0 -7.394660,54.121917,0 -7.396624,54.126258,0 -7.403962,54.135043,0 -7.412230,54.136438,0 -7.422255,54.135456,0 -7.425769,54.136955,0 -7.414659,54.145688,0 -7.439619,54.146929,0 -7.480753,54.127653,0 -7.502302,54.125121,0 -7.609014,54.139901,0 -7.620796,54.144965,0 -7.624052,54.153336,0 -7.625706,54.162173,0 -7.632682,54.168529,0 -7.704770,54.200362,0 -7.722599,54.202326,0 -7.782078,54.200000,0 -7.836959,54.204341,0 -7.856441,54.211421,0 -7.869670,54.226872,0 -7.873649,54.271055,0 -7.880264,54.287023,0 -7.894966,54.293586,0 -7.934110,54.297049,0 -7.942075,54.298873,0 -7.950802,54.300873,0 -7.968010,54.312190,0 -7.981033,54.326556,0 -8.002194,54.357923,0 -8.031340,54.358027,0 -8.056480,54.365882,0 -8.079941,54.380196,0 -8.122419,54.415233,0 -8.146346,54.430736,0 -8.156035,54.439055,0 -8.158128,54.447117,0 -8.161177,54.454817,0 -8.173837,54.461741,0 -8.168467,54.463477,0 -8.150170,54.469390,0 -8.097046,54.478588,0 -8.072448,54.487063,0 -8.060976,54.493316,0 -8.055860,54.497553,0 -8.043561,54.512229,0 -8.023278,54.529696,0 -8.002194,54.543442,0 -7.926411,54.533055,0 -7.887137,54.532125,0 -7.848844,54.540910,0 -7.749264,54.596152,0 -7.707871,54.604162,0 -7.707951,54.604763,0 -7.710558,54.624264,0 -7.721204,54.625866,0 -7.736758,54.619251,0 -7.753553,54.614497,0 -7.769159,54.618011,0 -7.801199,54.634806,0 -7.814996,54.639457,0 -7.822541,54.638113,0 -7.838044,54.631240,0 -7.846416,54.631447,0 -7.854270,54.636408,0 -7.864347,54.649069,0 -7.872771,54.652221,0 -7.890082,54.655063,0 -7.906619,54.661316,0 -7.914835,54.671651,0 -7.907135,54.686689,0 -7.913233,54.688653,0 -7.929666,54.696714,0 -7.880109,54.711029,0 -7.845899,54.731027,0 -7.832153,54.730614,0 -7.803576,54.716145,0 -7.770503,54.706016,0 -7.736603,54.707463,0 -7.702290,54.718883,0 -7.667512,54.738779,0 -7.649683,54.744877,0 -7.615370,54.739347,0 -7.585398,54.744722,0 -7.566639,54.738675,0 -7.556149,54.738365,0 -7.543075,54.741673,0 -7.543023,54.743791,0 -7.548398,54.747202,0 -7.551705,54.754695,0 -7.549741,54.779603,0 -7.543385,54.793091,0 -7.470831,54.845284,0 -7.455070,54.863009,0 -7.444735,54.884455,0 -7.444735,54.894893,0 -7.448972,54.920318,0 -7.445251,54.932152,0 -7.436983,54.938301,0 -7.417139,54.943056,0 -7.415755,54.944372,0 -7.408665,54.951117,0 -7.407424,54.959437,0 -7.413109,54.984965,0 -7.409078,54.992045,0 -7.403755,54.993130,0 -7.401120,54.994836,0 -7.405254,55.003569,0 -7.376987,55.028890,0 -7.366962,55.035557,0 -7.355024,55.040931,0 -7.291152,55.046615,0 -7.282987,55.051835,0 -7.275288,55.058863,0 -7.266503,55.065167,0 -7.247100,55.069322,0 -7.256744,55.050686,0 -7.240956,55.050279,0 -7.195424,55.058051,0 -7.177480,55.056952,0 -7.149888,55.048657,0 -7.133901,55.043850,0 -7.099477,55.040961,0 -7.065053,55.043850,0 -7.053700,55.048733,0 -7.031890,55.064927,0 -7.017201,55.071112,0 -7.017812,55.083970,0 -7.009918,55.102240,0 -6.997955,55.118638,0 -6.986480,55.125718,0 -6.974924,55.135443,0 -6.968658,55.180650,0 -6.962554,55.194648,0 -6.946685,55.195380,0 -6.903554,55.178656,0 -6.883778,55.174140,0 -6.838415,55.175425,0 -6.754506,55.177802,0 -6.640452,55.208319,0 -6.571278,55.211249,0 -6.554514,55.218573,0 -6.546117,55.225188,0 -6.539174,55.230658,0 -6.519846,55.240668,0 -6.498118,55.247138,0 -6.475942,55.248684,0 -6.440012,55.236029,0 -6.415924,55.231879,0 -6.378163,55.246243,0 -6.352895,55.242621,0 -6.255849,55.210883,0 -6.239817,55.208319,0 -6.217641,55.210395,0 -6.179555,55.219713,0 -6.160024,55.221910,0 -6.120839,55.217841,0 -6.100982,55.212388,0 -6.092397,55.204901,0 -6.084218,55.202216,0 -6.047231,55.178534,0 -6.037099,55.167914,0 -6.040639,55.112047,0 -6.047434,55.095649,0 -6.062082,55.074123,0 -6.054351,55.065131,0 -6.035390,55.063625,0 -6.016672,55.064276,0 -6.003529,55.063178,0 -5.988678,55.059475,0 -5.980984,55.055653,0 -5.975738,55.053046,0 -5.968251,55.043850,0 -5.970204,55.025824,0 -5.988271,54.988674,0 -5.986236,54.981757,0 -5.957143,54.978949,0 -5.930328,54.970893,0 -5.906606,54.957953,0 -5.886342,54.940823,0 -5.881988,54.934027,0 -5.875234,54.917914,0 -5.869252,54.910386,0 -5.862782,54.905951,0 -5.847035,54.898139,0 -5.839182,54.893012,0 -5.829986,54.885159,0 -5.820953,54.875067,0 -5.813954,54.862779,0 -5.811187,54.848334,0 -5.800526,54.820746,0 -5.775258,54.811510,0 -5.745595,54.804592,0 -5.721832,54.783759,0 -5.715647,54.783759,0 -5.733754,54.805243,0 -5.797597,54.844550,0 -5.781728,54.861721,0 -5.751617,54.856879,0 -5.720611,54.841010,0 -5.701975,54.824693,0 -5.689849,54.793118,0 -5.692096,54.770453,0 -5.692616,54.765204,0 -5.706899,54.742987,0 -5.729319,54.728502,0 -5.758901,54.719916,0 -5.818430,54.709621,0 -5.845367,54.701239,0 -5.871490,54.687323,0 -5.877915,54.682311,0 -5.890736,54.672309,0 -5.914337,54.646837,0 -5.927235,54.632961,0 -5.915151,54.628241,0 -5.910959,54.619452,0 -5.909983,54.610541,0 -5.907379,54.605618,0 -5.894887,54.604804,0 -5.887278,54.609809,0 -5.881988,54.616156,0 -5.871002,54.622301,0 -5.870471,54.622800,0 -5.848785,54.643215,0 -5.839019,54.649726,0 -5.803822,54.659613,0 -5.769521,54.674628,0 -5.747955,54.680406,0 -5.732411,54.676988,0 -5.716624,54.669867,0 -5.694692,54.668687,0 -5.574696,54.680080,0 -5.569000,54.676947,0 -5.564968,54.672301,0 -5.556711,54.662787,0 -5.547109,54.659613,0 -5.536610,54.657457,0 -5.533274,54.651679,0 -5.532786,54.643215,0 -5.530100,54.632961,0 -5.514394,54.597886,0 -5.502553,54.583482,0 -5.485707,54.577704,0 -5.478912,54.569485,0 -5.472890,54.530097,0 -5.468617,54.516262,0 -5.437082,54.487860,0 -5.430776,54.485175,0 -5.437571,54.475653,0 -5.436513,54.470201,0 -5.433461,54.466254,0 -5.433827,54.461005,0 -5.438832,54.454901,0 -5.458119,54.437405,0 -5.464263,54.425238,0 -5.457387,54.408677,0 -5.461171,54.392076,0 -5.470855,54.384345,0 -5.483998,54.377590,0 -5.489125,54.369574,0 -5.474843,54.358588,0 -5.489573,54.353705,0 -5.502024,54.339667,0 -5.515777,54.338080,0 -5.527659,54.345282,0 -5.536977,54.359280,0 -5.547109,54.379096,0 -5.558990,54.382636,0 -5.569488,54.391506,0 -5.576650,54.402777,0 -5.578440,54.413804,0 -5.571685,54.425605,0 -5.548695,54.442816,0 -5.543691,54.457831,0 -5.547353,54.489081,0 -5.558013,54.511908,0 -5.575307,54.528998,0 -5.644887,54.567776,0 -5.671864,54.576809,0 -5.701975,54.577704,0 -5.701975,54.570787,0 -5.694651,54.561103,0 -5.697418,54.551215,0 -5.706044,54.542670,0 -5.715647,54.536689,0 -5.701527,54.536322,0 -5.690419,54.532050,0 -5.681508,54.526842,0 -5.674062,54.523668,0 -5.636952,54.522040,0 -5.625600,54.516262,0 -5.641916,54.512641,0 -5.663930,54.510199,0 -5.670318,54.505683,0 -5.639963,54.495754,0 -5.644765,54.483710,0 -5.644602,54.472113,0 -5.638499,54.463568,0 -5.625600,54.461005,0 -5.626698,54.456692,0 -5.628000,54.453803,0 -5.633127,54.447333,0 -5.625600,54.441107,0 -5.653554,54.388983,0 -5.661448,54.379584,0 -5.697906,54.362291,0 -5.708852,54.351752,0 -5.668324,54.360663,0 -5.622141,54.376654,0 -5.579701,54.383694,0 -5.550526,54.365424,0 -5.540679,54.327338,0 -5.553049,54.298529,0 -5.579498,54.275702,0 -5.612620,54.255561,0 -5.617177,54.254788,0 -5.628529,54.256537,0 -5.633127,54.255561,0 -5.639963,54.235053,0 -5.646840,54.232164,0 -5.655751,54.229682,0 -5.663401,54.230862,0 -5.666656,54.238837,0 -5.678822,54.246161,0 -5.736887,54.249091,0 -5.779449,54.246527,0 -5.822662,54.237209,0 -5.842275,54.235053,0 -5.862050,54.230536,0 -5.868031,54.218492,0 -5.866038,54.184149,0 -5.865834,54.180487,0 -5.868520,54.161322,0 -5.874623,54.140530,0 -5.883209,54.120754,0 -5.893788,54.104682,0 -5.911977,54.091295,0 -5.953847,54.078681,0 -5.984731,54.059312,0 -6.027252,54.040229,0 -6.040517,54.036444,0 -6.079579,54.034573,0 -6.095448,54.036363,0 -6.112904,54.043891,0 -6.112904,54.050116,0 -6.093007,54.055894,0 -6.084950,54.056952,0 -6.161529,54.073717,0 -6.174306,54.074286,0 -6.185862,54.092678,0 -6.212554,54.098456,0 -6.242502,54.099758,0 -6.263661,54.104682,0 -6.269887,54.097886,0 -6.284650,54.105226,0 -6.299585,54.104037,0 -6.313796,54.099696,0 -6.327128,54.097888,0 -6.338962,54.102952,0 -6.346662,54.109877,0 -6.354827,54.110652,0 -6.368108,54.097319,0 -6.369348,54.091118,0 -6.367643,54.083418,0 -6.366919,54.075098,0 -6.371157,54.066778,0 -6.377513,54.063264,0 -6.401026,54.060887,0 -6.426761,54.055410,0 -6.433892,54.055306,0 -6.440300,54.057993,0 -6.446243,54.062438,0 -6.450222,54.066675,0 -6.450894,54.068432,0 -6.478540,54.067709,0 -6.564013,54.048950,0 -6.571868,54.049519,0 -6.587164,54.053343,0 -6.595071,54.052412,0 -6.600290,54.048950,0 -6.605217,54.044475,0 -6.610987,54.039235,0 -6.616465,54.037271,0 -6.630624,54.041819,0 -6.657289,54.061146,0 -6.672534,54.068432,0 -6.657082,54.091945,0</coordinates>
            </LinearRing>
          </outerBoundaryIs>
        </Polygon>
        <Polygon>
          <outerBoundaryIs>
            <LinearRing>
              <coordinates>-6.187571,55.269355,0 -6.194814,55.262926,0 -6.193267,55.270982,0 -6.192860,55.275784,0 -6.191762,55.279364,0 -6.187978,55.284003,0 -6.211090,55.295315,0 -6.235829,55.296698,0 -6.260610,55.295071,0 -6.283559,55.297065,0 -6.272532,55.303046,0 -6.261464,55.307522,0 -6.249623,55.310289,0 -6.236399,55.311347,0 -6.184804,55.306830,0 -6.174306,55.303900,0 -6.171864,55.293199,0 -6.178090,55.280585,0 -6.187571,55.269355,0</coordinates>
            </LinearRing>
          </outerBoundaryIs>
        </Polygon>
      </MultiGeometry>
    </Placemark>
  </Document>
</kml>
