<?xml version="1.0" encoding="UTF-8"?>
<kml xmlns="http://www.opengis.net/kml/2.2">
  <Document>
    <Placemark>
      <name>Norfolk Island</name>
      <Polygon>
        <altitudeMode>clampToGround</altitudeMode>
        <outerBoundaryIs>
          <LinearRing>
            <coordinates>167.926524,-28.997491,0 167.996349,-29.025649,0 167.994640,-29.042576,0 167.966645,-29.080011,0 167.950450,-29.056573,0 167.926443,-29.066339,0 167.918305,-29.036391,0 167.930512,-29.012140,0 167.912120,-29.011651,0 167.926524,-28.997491,0</coordinates>
          </LinearRing>
        </outerBoundaryIs>
      </Polygon>
    </Placemark>
  </Document>
</kml>
