<?xml version='1.0' encoding='UTF-8'?>
<kml xmlns="http://www.opengis.net/kml/2.2">
  <Document><name>Oklahoma</name><Placemark id="5C7726A3FC000740">
						<name>Oklahoma</name>
						<description>See: 2050-snapshot/domains/borders-geopolitics.md#oklahoma</description>
						<styleUrl>#__managed_style_0AD94C7EAB3F94C527D8</styleUrl>
						<Polygon>
							<outerBoundaryIs>
								<LinearRing>
									<coordinates>
										-98.08909699999998,34.681163,0 -98.089558,34.854929,0 -98.093127,34.854988,0 -98.096014,35.377753,0 -98.01931199999999,35.378433,0 -98.010836,35.360769,0 -97.96012399999999,35.34594,0 -97.943409,35.377193,0 -97.901203,35.344323,0 -97.86280499999998,35.36183,0 -97.84133300000001,35.33453,0 -97.769273,35.34565,0 -97.73730500000001,35.323762,0 -97.662965,35.336617,0 -97.61779900000001,35.305211,0 -97.576641,35.300892,0 -97.55698700000001,35.28844,0 -97.56648199999999,35.247436,0 -97.55479000000001,35.224329,0 -97.40708199999999,35.138144,0 -97.40207599999998,35.08637,0 -97.353418,35.075251,0 -97.347855,34.979216,0 -97.325925,34.955092,0 -97.27385099999999,34.962994,0 -97.23036699999999,34.931907,0 -97.217896,34.944277,0 -97.196172,34.92825,0 -97.114,34.935101,0 -97.01593,34.907348,0 -96.92827100000001,34.965213,0 -96.8854,34.926251,0 -96.813452,34.944649,0 -96.79858299999999,34.905939,0 -96.77568100000001,34.899958,0 -96.776695,35.410886,0 -96.742784,35.406825,0 -96.72480699999998,35.425007,0 -96.65242499999998,35.391649,0 -96.623699,35.400722,0 -96.62209299999999,36.162787,0 -96.001226,36.161296,0 -96.00080999999999,36.99886,0 -100.193754,37.002133,0 -102.028207,36.993125,0 -103.002199,37.000104,0 -103.002434,36.500397,0 -100.000406,36.499702,0 -100.000381,34.560509,0 -99.92321099999999,34.574552,0 -99.69497,34.378333,0 -99.600026,34.374688,0 -99.56969599999999,34.418418,0 -99.49987499999999,34.409608,0 -99.436474,34.370539,0 -99.424897,34.385823,0 -99.40295999999999,34.373481,0 -99.387653,34.411984,0 -99.39495599999999,34.442099,0 -99.36960999999999,34.458699,0 -99.31960599999999,34.408869,0 -99.261321,34.403499,0 -99.27485799999999,34.384922,0 -99.24285500000002,34.372676,0 -99.22924499999999,34.336516,0 -99.19828099999999,34.339622,0 -99.213476,34.310672,0 -99.189511,34.214312,0 -99.13060900000001,34.219408,0 -99.12656699999998,34.203004,0 -99.07953500000001,34.211518,0 -99.043471,34.198208,0 -98.98729400000001,34.221223,0 -98.97413199999998,34.203566,0 -98.952513,34.21265,0 -98.872922,34.166584,0 -98.86811600000001,34.149635,0 -98.81295400000002,34.158444,0 -98.757037,34.124633,0 -98.690595,34.132972,0 -98.64807300000001,34.164441,0 -98.59978899999999,34.160571,0 -98.550522,34.132194,0 -98.56057399999999,34.123567,0 -98.486328,34.062598,0 -98.411587,34.088057,0 -98.39502400000001,34.131318,0 -98.379762,34.131174,0 -98.384546,34.145997,0 -98.365621,34.156993,0 -98.16912000000002,34.114171,0 -98.13897900000001,34.141805,0 -98.14179899999999,34.681158,0 -98.08909699999998,34.681163,0 
									</coordinates>
								</LinearRing>
							</outerBoundaryIs>
						</Polygon>
					</Placemark>
				</Document>
</kml>
