<?xml version='1.0' encoding='UTF-8'?>
<kml xmlns="http://www.opengis.net/kml/2.2">
  <Document>
    <name>Pacifica</name>
    <Placemark>
      <name>Pacifica</name>
      <Polygon>
        <outerBoundaryIs>
          <LinearRing>
            <coordinates>-124.687125,48.09862799999999,0 -124.696542,48.069274,0 -124.676178,47.967032,0 -124.64544,47.935333,0 -124.641426,47.907853,0 -124.610527,47.871674,0 -124.57991,47.874572,0 -124.541015,47.834121,0 -124.489747,47.816994,0 -124.480041,47.76730000000001,0 -124.453928,47.765332,0 -124.425196,47.738434,0 -124.36622,47.582435,0 -124.319379,47.355559,0 -124.299929,47.348341,0 -124.279437,47.304283,0 -124.236357,47.287294,0 -124.209016,47.218147,0 -124.173501,47.06637300000001,0 -124.173877,46.927235,0 -124.13555,46.94354100000001,0 -124.106243,46.937551,0 -124.127446,46.945559,0 -124.151282,47.02110799999999,0 -124.122044,47.041651,0 -124.02636,47.030181,0 -124.005264,47.003899,0 -124.012218,46.985176,0 -123.838991,46.95405,0 -123.985082,46.921916,0 -124.046344,46.893972,0 -124.073089,46.861501,0 -124.08928,46.867744,0 -124.092961,46.90165500000001,0 -124.138225,46.905534,0 -124.108076,46.836382,0 -124.092174,46.74162299999999,0 -123.973663,46.70335299999999,0 -123.97497,46.733401,0 -123.91351,46.72668,0 -123.910734,46.74669800000001,0 -123.888775,46.75038200000001,0 -123.87668,46.73065699999999,0 -123.829356,46.713331,0 -123.923267,46.672709,0 -123.936167,46.627037,0 -123.960642,46.636364,0 -123.9537,46.60515,0 -123.893306,46.539593,0 -123.895564,46.514052,0 -123.924282,46.51116699999999,0 -123.942578,46.487832,0 -123.942493,46.46521300000001,0 -123.970799,46.47535000000001,0 -123.979053,46.497378,0 -123.99268,46.488617,0 -123.991728,46.448817,0 -123.965382,46.433301,0 -123.965346,46.40868,0 -123.949937,46.41023500000001,0 -123.953737,46.37883800000001,0 -124.01525,46.378685,0 -124.031734,46.49636499999999,0 -124.023566,46.582559,0 -124.052355,46.620028,0 -124.035307,46.635951,0 -124.064341,46.641256,0 -124.057425,46.409313,0 -124.077768,46.272324,0 -124.04203,46.276052,0 -124.049343,46.29578100000001,0 -124.020519,46.315732,0 -123.974509,46.303063,0 -123.923092,46.251781,0 -123.875525,46.239787,0 -123.806138,46.283586,0 -123.76668,46.27349899999999,0 -123.700748,46.3046,0 -123.680579,46.296014,0 -123.669501,46.26683200000001,0 -123.547637,46.265501,0 -123.548185,46.249008,0 -123.582424,46.23053099999999,0 -123.666751,46.218228,0 -123.69343,46.189814,0 -123.757589,46.213001,0 -123.864209,46.189527,0 -123.838419,46.170989,0 -123.854788,46.15734500000001,0 -123.902414,46.168674,0 -123.953969,46.207158,0 -123.98981,46.209226,0 -124.000214,46.236417,0 -124.021428,46.230109,0 -123.959188,46.141672,0 -123.92933,46.041973,0 -123.93747,45.977326,0 -123.993703,45.94643099999999,0 -123.962736,45.869969,0 -123.969299,45.779882,0 -123.983028,45.768042,0 -123.943125,45.727039,0 -123.93729,45.656396,0 -123.957567,45.51040399999999,0 -123.97865,45.486854,0 -123.962034,45.44319600000001,0 -123.965729,45.386236,0 -123.973415,45.354772,0 -124.007756,45.33681299999999,0 -123.972898,45.336876,0 -123.958115,45.277988,0 -123.976507,45.21933,0 -123.975426,45.145472,0 -123.989525,45.094068,0 -124.015851,45.064759,0 -124.005514,45.042875,0 -124.02514,44.928159,0 -124.074066,44.798107,0 -124.057902,44.735163,0 -124.079249,44.6772,0 -124.058283,44.658866,0 -124.086872,44.405183,0 -124.1152,44.286486,0 -124.150267,43.910848,0 -124.232027,43.562388,0 -124.315015,43.388385,0 -124.402814,43.305872,0 -124.382471,43.270133,0 -124.401728,43.18489,0 -124.43785,43.114016,0 -124.446877,43.031803,0 -124.500139,42.917506,0 -124.566244,42.836392,0 -124.536066,42.814161,0 -124.513663,42.732949,0 -124.473862,42.732666,0 -124.45074,42.675798,0 -124.416756,42.661576,0 -124.401186,42.627162,0 -124.408289,42.594815,0 -124.389989,42.5747,0 -124.435892,42.43718,0 -124.433063,42.323976,0 -124.411809,42.307365,0 -124.414149,42.252164,0 -124.361034,42.180756,0 -124.354027,42.103539,0 -124.291269,42.043979,0 -124.270457,42.045546,0 -124.218941,42.007914,0 -124.204956,41.983449,0 -124.208441,41.888185,0 -124.254955,41.778173,0 -124.194953,41.736778,0 -124.170131,41.743339,0 -124.147416,41.717961,0 -124.135552,41.657307,0 -124.081991,41.547732,0 -124.063078,41.439584,0 -124.106989,41.229673,0 -124.1438,41.144686,0 -124.165414,41.129822,0 -124.153622,41.05355,0 -124.129128,41.051107,0 -124.11176,41.026882,0 -124.137064,40.925738,0 -124.329405,40.616428,0 -124.409591,40.438076,0 -124.373592,40.392908,0 -124.347864,40.314669,0 -124.360604,40.257206,0 -124.187874,40.130542,0 -124.110544,40.103754,0 -124.080716,40.066122,0 -124.079983,40.029773,0 -124.035892,40.013308,0 -123.930048,39.90969,0 -123.907662,39.863026,0 -123.849608,39.827678,0 -123.829545,39.723071,0 -123.794225,39.689958,0 -123.78863,39.599975,0 -123.766477,39.552817,0 -123.819884,39.439489,0 -123.808749,39.42743,0 -123.827716,39.348433,0 -123.800898,39.318253,0 -123.813725,39.308337,0 -123.796619,39.301313,0 -123.803848,39.278771,0 -123.789007,39.269701,0 -123.771418,39.194224,0 -123.719402,39.134486,0 -123.69127,39.050816,0 -123.711145,38.977323,0 -123.741921,38.956228,0 -123.727976,38.919429,0 -123.659844,38.872524,0 -123.593252,38.799033,0 -123.571988,38.798187,0 -123.514784,38.741966,0 -123.446092,38.703656,0 -123.331901,38.565544,0 -123.128844,38.450426,0 -123.068273,38.359873,0 -123.07977,38.324076,0 -123.063671,38.302178,0 -123.024334,38.310571,0 -122.977074,38.267889,0 -122.972784,38.229687,0 -122.995631,38.238626,0 -122.949076,38.154048,0 -123.024066,37.994878,0 -122.963544,37.989914,0 -122.983138,38.005752,0 -122.956795,38.028723,0 -122.882105,38.02527,0 -122.821384,37.996734,0 -122.725181,37.902691,0 -122.658818,37.904735,0 -122.561501,37.851827,0 -122.530688,37.818043,0 -122.500006,37.820911,0 -122.47226,37.836808,0 -122.504217,37.894152,0 -122.472955,37.884833,0 -122.459596,37.862703,0 -122.438293,37.882368,0 -122.503073,37.928788,0 -122.505007,37.942754,0 -122.479512,37.942526,0 -122.495551,37.970495,0 -122.447304,37.984387,0 -122.497823,38.019399,0 -122.483757,38.071764,0 -122.500613,38.111881,0 -122.444814,38.138327,0 -122.443499,38.116985,0 -122.393584,38.143446,0 -122.282828,38.082892,0 -122.262861,38.044646,0 -122.283465,38.022692,0 -122.332553,38.00151,0 -122.367909,38.01253,0 -122.367598,37.978163,0 -122.401004,37.968532,0 -122.402893,37.95487,0 -122.430087,37.963115,0 -122.390546,37.90911,0 -122.363534,37.905611,0 -122.361918,37.917443,0 -122.309544,37.893037,0 -122.326912,37.888714,0 -122.30856,37.870893,0 -122.325193,37.874276,0 -122.301374,37.855476,0 -122.2993,37.840534,0 -122.315913,37.836812,0 -122.296635,37.828517,0 -122.342253,37.805558,0 -122.332037,37.782035,0 -122.244052,37.751813,0 -122.261679,37.743373,0 -122.252172,37.724952,0 -122.214744,37.699247,0 -122.204172,37.711568,0 -122.167586,37.677171,0 -122.10942,37.500254,0 -122.055576,37.495231,0 -122.0386,37.454661,0 -122.088738,37.452271,0 -122.123082,37.473936,0 -122.130979,37.503652,0 -122.162117,37.50024,0 -122.262866,37.573913,0 -122.378456,37.60557,0 -122.355627,37.615293,0 -122.389332,37.640257,0 -122.374291,37.662206,0 -122.394143,37.707616,0 -122.359279,37.728593,0 -122.374652,37.732976,0 -122.387669,37.788809,0 -122.409529,37.8089,0 -122.476787,37.809438,0 -122.514483,37.780829,0 -122.494085,37.644035,0 -122.501386,37.599655,0 -122.520852,37.594178,0 -122.519533,37.537302,0 -122.499289,37.495341,0 -122.459564,37.49271,0 -122.400855,37.3592,0 -122.419113,37.24147,0 -122.405073,37.195791,0 -122.367081,37.172807,0 -122.337071,37.117382,0 -122.284895,37.101756,0 -122.223799,37.025672,0 -122.135161,36.967774,0 -122.065639,36.948466,0 -122.012754,36.963214,0 -121.972771,36.954151,0 -121.930079,36.978149,0 -121.862261,36.931544,0 -121.788285,36.804017,0 -121.818433,36.668865,0 -121.866181,36.606562,0 -121.889581,36.601338,0 -121.93643,36.636746,0 -121.976591,36.580058,0 -121.932502,36.559903,0 -121.924764,36.525579,0 -121.954209,36.522231,0 -121.903201,36.393607,0 -121.902729,36.306379,0 -121.851972,36.277832,0 -121.826282,36.242076,0 -121.717182,36.195147,0 -121.632722,36.120469,0 -121.574602,36.025156,0 -121.500841,35.998105,0 -121.462145,35.88613,0 -121.332455,35.783108,0 -121.28653,35.665524,0 -121.165771,35.635289,0 -121.100791,35.548859,0 -121.003359,35.46071,0 -120.907924,35.449056,0 -120.884766,35.430205,0 -120.862063,35.346995,0 -120.8996,35.255337,0 -120.856047,35.206487,0 -120.760492,35.15971,0 -120.74888,35.177789,0 -120.714165,35.17599,0 -120.646142,35.143935,0 -120.629932,35.06151,0 -120.672269,34.90254,0 -120.647319,34.901107,0 -120.61027,34.858179,0 -120.637415,34.755895,0 -120.600452,34.70464,0 -120.64924,34.576707,0 -120.622575,34.554017,0 -120.581289,34.556955,0 -120.51143,34.522958,0 -120.471376,34.447846,0 -120.141161,34.473405,0 -120.008077,34.460445,0 -119.878293,34.407289,0 -119.793576,34.418288,0 -119.709067,34.395397,0 -119.671866,34.416096,0 -119.563976,34.415313,0 -119.461042,34.374064,0 -119.390449,34.318198,0 -119.278656,34.266909,0 -119.216441,34.146105,0 -119.129252,34.10084,0 -119.08599,34.099262,0 -118.936268,34.043619,0 -118.854903,34.034916,0 -118.806552,34.000448,0 -118.742354,34.032939,0 -118.571457,34.041738,0 -118.524356,34.03068,0 -118.451436,33.959108,0 -118.390555,33.838716,0 -118.39399,33.804209,0 -118.428162,33.774345,0 -118.410465,33.74104,0 -118.364244,33.738163,0 -118.294074,33.705149,0 -118.267839,33.722143,0 -118.247115,33.715226,0 -118.242753,33.743338,0 -118.185726,33.73296,0 -118.180791,33.765041,0 -118.132698,33.753217,0 -117.928019,33.607187,0 -117.784279,33.541835,0 -117.714617,33.459914,0 -117.681021,33.46175,0 -117.642598,33.439236,0 -117.594043,33.385858,0 -117.469796,33.296419,0 -117.341922,33.143322,0 -117.312508,33.086982,0 -117.253679,32.903829,0 -117.256169,32.859452,0 -117.281883,32.832839,0 -117.256089,32.793655,0 -117.243129,32.664542,0 -117.212641,32.687886,0 -117.160716,32.665675,0 -117.137721,32.624544,0 -117.123668,32.534435,0 -114.719636,32.718763,0 -114.701898,32.745535,0 -114.618371,32.728245,0 -114.526856,32.757094,0 -114.528854,32.796298,0 -114.468971,32.845155,0 -114.462929,32.907944,0 -114.480919,32.935261,0 -114.469039,32.972295,0 -114.492931,32.971781,0 -114.52013,33.029984,0 -114.618778,33.027201,0 -114.64598,33.048903,0 -114.665051,33.033904,0 -114.68902,33.084036,0 -114.706496,33.088179,0 -114.67536,33.185488,0 -114.673626,33.223121,0 -114.689515,33.24644,0 -114.672088,33.258499,0 -114.731218,33.30243,0 -114.698035,33.352442,0 -114.725528,33.404054,0 -114.635186,33.422724,0 -114.591551,33.499446,0 -114.524599,33.552231,0 -114.540616,33.591387,0 -114.522071,33.611277,0 -114.533187,33.651657,0 -114.514057,33.660179,0 -114.531523,33.675108,0 -114.494197,33.707922,0 -114.528022,33.814926,0 -114.530592,33.855456,0 -114.503017,33.867998,0 -114.52586,33.900987,0 -114.50792,33.903807,0 -114.535478,33.93464,0 -114.438266,34.022609,0 -114.434171,34.087391,0 -114.411685,34.110029,0 -114.229715,34.186928,0 -114.16458,34.258995,0 -114.131211,34.26273,0 -114.138282,34.30323,0 -114.176909,34.349306,0 -114.226115,34.365923,0 -114.335372,34.450038,0 -114.38668,34.457893,0 -114.380838,34.529724,0 -114.436451,34.59539,0 -114.424202,34.610453,0 -114.458158,34.657854,0 -114.470477,34.711368,0 -114.552682,34.766871,0 -114.586842,34.835672,0 -114.634382,34.872896,0 -114.636895,35.028352,0 -114.602908,35.068588,0 -114.646736,35.101902,0 -114.578263,35.12881,0 -114.569238,35.18348,0 -114.605747,35.358451,0 -114.626765,35.409644,0 -114.663532,35.447789,0 -114.678712,35.498741,0 -114.657163,35.532301,0 -114.675713,35.579505,0 -114.653406,35.610789,0 -114.689001,35.650306,0 -114.680631,35.684046,0 -114.705407,35.708293,0 -114.695709,35.755986,0 -114.71209,35.806197,0 -114.695249,35.832285,0 -114.70649,35.849078,0 -114.661636,35.871067,0 -114.708493,35.912283,0 -114.740597,35.975664,0 -114.742778,36.009958,0 -114.722096,36.028952,0 -114.742093,36.039782,0 -114.736253,36.05847,0 -114.754787,36.08473,0 -114.736164,36.104365,0 -114.679775,36.109874,0 -114.63045,36.142209,0 -114.615455,36.129653,0 -114.57109,36.151097,0 -114.51427,36.150793,0 -114.500245,36.143217,0 -114.504715,36.127188,0 -114.463637,36.139693,0 -114.443736,36.125593,0 -114.40916,36.146994,0 -114.374471,36.143654,0 -114.306946,36.082494,0 -114.313591,36.059048,0 -114.27088,36.045525,0 -114.261401,36.025453,0 -114.233443,36.012835,0 -114.15139,36.023133,0 -114.1119,36.095845,0 -114.121267,36.10954,0 -114.096994,36.120823,0 -114.068218,36.177691,0 -114.043944,36.19335,0 -114.049883,38.677365,0 -115.00084,38.677324,0 -115.907071,39.161848,0 -116.600923,39.161499,0 -116.586786,41.000398,0 -117.018419,41.000254,0 -117.018209,41.999346,0 -120.879855,41.993764,0 -120.883327,42.744214,0 -121.349674,42.746715,0 -121.348471,43.356653,0 -121.332413,43.356663,0 -121.332969,43.616645,0 -122.002343,43.61556,0 -121.964918,43.627045,0 -121.986889,43.653871,0 -121.966917,43.702821,0 -121.981224,43.742947,0 -121.961437,43.763745,0 -121.975106,43.857561,0 -121.928217,43.909165,0 -121.869385,43.911859,0 -121.859701,43.961539,0 -121.828402,43.988727,0 -121.834473,44.039732,0 -121.802225,44.052691,0 -121.769259,44.10134,0 -121.784012,44.148473,0 -121.771647,44.167583,0 -121.778226,44.221483,0 -121.789648,44.249326,0 -121.841291,44.285781,0 -121.849349,44.484591,0 -121.809382,44.514425,0 -121.816312,44.537375,0 -121.793895,44.594056,0 -121.811548,44.615762,0 -121.800401,44.683001,0 -121.787179,44.689291,0 -121.804448,44.72931,0 -121.759958,44.762326,0 -121.812483,44.781745,0 -121.820266,44.80013,0 -121.753589,44.828908,0 -121.746236,44.875349,0 -121.71456,44.90613,0 -121.747253,44.914613,0 -121.764083,44.941952,0 -121.795122,44.935692,0 -121.785593,44.950377,0 -121.805268,45.011491,0 -121.781177,45.01572,0 -121.778646,45.03728499999999,0 -121.717652,45.037566,0 -121.691199,45.065699,0 -121.65871,45.066355,0 -121.651394,45.088803,0 -121.665719,45.11972099999999,0 -121.699628,45.12174599999999,0 -121.748649,45.191805,0 -121.746879,45.20599,0 -121.682607,45.228988,0 -121.680898,45.250581,0 -121.696397,45.25541900000001,0 -121.679081,45.29717699999999,0 -121.703253,45.331263,0 -121.696925,45.373564,0 -121.776222,45.402693,0 -121.869342,45.514103,0 -121.90667,45.520827,0 -121.921978,45.54662,0 -121.901879,45.55619,0 -121.922027,45.649113,0 -121.867172,45.693273,0 -121.811324,45.706756,0 -121.707361,45.694809,0 -121.523685,45.724904,0 -121.538085,45.77089300000001,0 -121.51438,45.782114,0 -121.609241,45.78259000000001,0 -121.61223,46.044013,0 -121.522321,46.044006,0 -121.52232,46.388084,0 -121.393759,46.39004,0 -121.386557,46.410601,0 -121.436556,46.47816799999999,0 -121.423242,46.492743,0 -121.455979,46.516723,0 -121.45092,46.533891,0 -121.416646,46.54824,0 -121.424538,46.570081,0 -121.386818,46.62083199999999,0 -121.395189,46.645825,0 -121.416511,46.651921,0 -121.41319,46.675892,0 -121.353182,46.71195,0 -121.428984,46.739242,0 -121.424281,46.756629,0 -121.455025,46.78060799999999,0 -121.442526,46.792988,0 -121.497345,46.862866,0 -121.52303,46.872865,0 -121.496996,46.908327,0 -121.456831,46.923146,0 -121.457567,46.96421300000001,0 -121.409122,46.995189,0 -121.39978,47.033471,0 -121.374115,47.057005,0 -121.376893,47.089875,0 -121.402875,47.098562,0 -121.408043,47.118146,0 -121.381317,47.137253,0 -121.315534,47.133844,0 -121.297819,47.148851,0 -121.317768,47.17298599999999,0 -121.311259,47.207698,0 -121.365148,47.22460999999999,0 -121.331959,47.257485,0 -121.341203,47.281261,0 -121.427495,47.289081,0 -121.445311,47.309805,0 -121.430372,47.334085,0 -121.465946,47.36797,0 -121.437788,47.371967,0 -121.42743,47.42061500000001,0 -121.385108,47.43449,0 -121.363991,47.46472300000001,0 -121.31154,47.479595,0 -121.291874,47.513528,0 -121.242871,47.535875,0 -121.228879,47.56560799999999,0 -121.180142,47.56492399999999,0 -121.172154,47.590062,0 -121.111102,47.599781,0 -121.133672,47.645631,0 -121.128826,47.67616,0 -121.066005,47.7136,0 -121.12069,47.782633,0 -121.070871,47.830181,0 -121.153461,47.845302,0 -121.157285,47.88228099999999,0 -121.180745,47.898737,0 -121.165068,47.956222,0 -121.118183,47.997103,0 -121.153222,48.040704,0 -121.015942,48.07479500000001,0 -120.9471,48.113327,0 -120.965185,48.133942,0 -120.955536,48.15198900000001,0 -120.907425,48.163186,0 -120.919271,48.19038799999999,0 -120.96476,48.211342,0 -120.959848,48.22776900000001,0 -121.01208,48.279881,0 -121.00375,48.299428,0 -121.0714,48.317916,0 -121.069164,48.33899399999999,0 -121.040631,48.3479,0 -121.066418,48.39353300000001,0 -121.03713,48.433027,0 -121.062831,48.460226,0 -121.036225,48.49529,0 -120.951949,48.499206,0 -120.950455,48.529575,0 -120.863213,48.530074,0 -120.853873,48.54905900000001,0 -120.824046,48.545091,0 -120.816759,48.519579,0 -120.787932,48.5071,0 -120.703556,48.52640100000001,0 -120.688515,48.575705,0 -120.719212,48.596432,0 -120.760449,48.58275800000001,0 -120.788276,48.62510199999999,0 -120.749781,48.659264,0 -120.717333,48.664526,0 -120.703409,48.696897,0 -120.679972,48.694296,0 -120.678203,48.717806,0 -120.655857,48.72434199999999,0 -120.735414,48.786463,0 -120.731351,48.85501499999999,0 -120.770208,48.88181599999999,0 -120.77206,48.926448,0 -120.755593,48.94184400000001,0 -120.799255,48.959329,0 -120.831793,48.93827999999999,0 -120.880751,48.96666700000001,0 -120.851563,49.00027999999999,0 -122.758018,49.002357,0 -122.817226,48.95597,0 -122.818229,48.93906100000001,0 -122.749189,48.934798,0 -122.751283,48.911247,0 -122.793175,48.892927,0 -122.71708,48.84719599999999,0 -122.710273,48.787018,0 -122.700316,48.804772,0 -122.646783,48.784984,0 -122.674808,48.737385,0 -122.651872,48.715906,0 -122.608117,48.762781,0 -122.563492,48.778521,0 -122.490438,48.75114600000001,0 -122.519247,48.71715799999999,0 -122.490259,48.671246,0 -122.511448,48.667818,0 -122.425317,48.599534,0 -122.468897,48.557266,0 -122.495904,48.575927,0 -122.560287,48.58316500000001,0 -122.559146,48.57441499999999,0 -122.504439,48.564768,0 -122.488122,48.53617199999999,0 -122.468383,48.47322699999999,0 -122.489643,48.457219,0 -122.52497,48.45832,0 -122.558702,48.49981700000001,0 -122.578988,48.492385,0 -122.571776,48.46628199999999,0 -122.585526,48.466243,0 -122.606959,48.522152,0 -122.684521,48.509123,0 -122.702919,48.492011,0 -122.65776,48.472936,0 -122.654852,48.45411300000001,0 -122.678928,48.439466,0 -122.65615,48.40775800000001,0 -122.550402,48.44844499999999,0 -122.571534,48.418758,0 -122.555461,48.420075,0 -122.533954,48.37581200000001,0 -122.491486,48.37218499999999,0 -122.507921,48.36046,0 -122.488895,48.36690999999999,0 -122.367669,48.291749,0 -122.397077,48.25317099999999,0 -122.463962,48.27054099999999,0 -122.480926,48.251708,0 -122.530996,48.249821,0 -122.53722,48.183745,0 -122.510562,48.13220700000001,0 -122.489986,48.12061700000001,0 -122.46749,48.130338,0 -122.358963,48.054851,0 -122.479005,48.175742,0 -122.442051,48.20935,0 -122.449604,48.232596,0 -122.383872,48.22746900000001,0 -122.357511,48.182252,0 -122.370253,48.164809,0 -122.361649,48.120176,0 -122.272156,48.053617,0 -122.289857,48.052426,0 -122.219123,48.020388,0 -122.230066,47.970905,0 -122.307048,47.949117,0 -122.335954,47.85230200000001,0 -122.395637,47.806808,0 -122.376444,47.716532,0 -122.403441,47.697719,0 -122.409225,47.671754,0 -122.436941,47.661719,0 -122.339528,47.59913699999999,0 -122.421139,47.57601999999999,0 -122.398353,47.550146,0 -122.393974,47.50968300000001,0 -122.361653,47.485268,0 -122.383136,47.45052100000001,0 -122.355149,47.441899,0 -122.327314,47.39560000000001,0 -122.324844,47.348515,0 -122.429972,47.319658,0 -122.444635,47.300421,0 -122.409244,47.28856100000001,0 -122.436761,47.261864,0 -122.547408,47.317734,0 -122.529691,47.283311,0 -122.584846,47.187425,0 -122.684701,47.09704399999999,0 -122.725695,47.093901,0 -122.77713,47.12125999999999,0 -122.815187,47.179102,0 -122.836758,47.11906799999999,0 -122.841762,47.16321500000001,0 -122.863068,47.170493,0 -122.839243,47.209698,0 -122.870246,47.248599,0 -122.871458,47.27685300000001,0 -122.847467,47.297014,0 -122.854259,47.309582,0 -122.819781,47.32780100000001,0 -122.82667,47.405799,0 -122.806699,47.357846,0 -122.789175,47.36151,0 -122.795342,47.34616199999999,0 -122.769113,47.34049000000001,0 -122.789048,47.338417,0 -122.787078,47.29965599999999,0 -122.832799,47.243412,0 -122.771619,47.167109,0 -122.744076,47.178565,0 -122.748753,47.219503,0 -122.740986,47.206184,0 -122.718882,47.226523,0 -122.718406,47.251538,0 -122.757373,47.273979,0 -122.752036,47.290625,0 -122.729637,47.338651,0 -122.683935,47.365152,0 -122.626197,47.375658,0 -122.671256,47.343774,0 -122.658543,47.333066,0 -122.678001,47.331498,0 -122.695827,47.281376,0 -122.592587,47.272019,0 -122.600102,47.262418,0 -122.585826,47.253852,0 -122.547522,47.285342,0 -122.575956,47.326362,0 -122.538483,47.37594,0 -122.552266,47.39461599999999,0 -122.531889,47.428827,0 -122.532287,47.46920899999999,0 -122.495315,47.51102,0 -122.547262,47.523596,0 -122.532818,47.565522,0 -122.55263,47.569852,0 -122.554985,47.589969,0 -122.606318,47.546874,0 -122.698433,47.52679200000001,0 -122.607492,47.569216,0 -122.59171,47.59459100000001,0 -122.591101,47.635546,0 -122.618784,47.65092400000001,0 -122.61451,47.70156200000001,0 -122.63108,47.707326,0 -122.61272,47.711868,0 -122.587847,47.69119,0 -122.549653,47.730927,0 -122.554234,47.745714,0 -122.471844,47.749819,0 -122.501871,47.790705,0 -122.482529,47.815511,0 -122.506114,47.831738,0 -122.525329,47.912336,0 -122.617022,47.93898699999999,0 -122.617868,47.92528,0 -122.588237,47.91291,0 -122.573696,47.85758,0 -122.608105,47.856728,0 -122.714786,47.767512,0 -122.748339,47.717931,0 -122.752486,47.667806,0 -122.833425,47.637812,0 -122.828195,47.655056,0 -122.855308,47.647571,0 -122.965118,47.58524499999999,0 -123.119681,47.385535,0 -123.029553,47.358839,0 -122.977494,47.396158,0 -122.88838,47.424,0 -122.867826,47.422108,0 -122.874599,47.413862,0 -123.030242,47.350958,0 -123.102988,47.357542,0 -123.123124,47.337804,0 -123.159561,47.354405,0 -123.114351,47.46328400000001,0 -123.057409,47.500788,0 -122.981577,47.613053,0 -122.927344,47.650999,0 -122.904106,47.645584,0 -122.906255,47.671013,0 -122.878199,47.69008100000001,0 -122.882709,47.73115299999999,0 -122.851137,47.738545,0 -122.864663,47.80464,0 -122.847377,47.801036,0 -122.855144,47.782314,0 -122.841808,47.779035,0 -122.815028,47.80749,0 -122.820653,47.838034,0 -122.797637,47.825889,0 -122.789782,47.790943,0 -122.833277,47.692481,0 -122.784882,47.687335,0 -122.772225,47.691708,0 -122.783525,47.722402,0 -122.7564,47.751256,0 -122.748776,47.801751,0 -122.687341,47.831005,0 -122.693701,47.867961,0 -122.638142,47.865456,0 -122.610341,47.887343,0 -122.647733,47.895953,0 -122.657724,47.931157,0 -122.677364,47.916296,0 -122.699176,47.91861699999999,0 -122.682032,47.921399,0 -122.678799,47.967927,0 -122.718056,47.987718,0 -122.730967,48.021258,0 -122.670562,48.01761900000001,0 -122.68756,48.101272,0 -122.733257,48.091232,0 -122.748345,48.07209700000001,0 -122.739893,48.03117799999999,0 -122.765057,48.040564,0 -122.765301,48.057559,0 -122.801364,48.08752200000001,0 -122.748911,48.117026,0 -122.762449,48.131173,0 -122.754509,48.144344,0 -122.837946,48.13647900000001,0 -122.884935,48.105114,0 -122.88919,48.077073,0 -122.826879,48.04609499999999,0 -122.839465,48.001769,0 -122.884582,47.98975500000001,0 -122.858429,48.017675,0 -122.875236,48.046352,0 -122.927668,48.065296,0 -122.916303,48.09542,0 -123.021548,48.084075,0 -122.997073,48.023998,0 -123.020591,48.032677,0 -123.046699,48.057646,0 -123.040578,48.084306,0 -123.058922,48.113976,0 -123.142108,48.157079,0 -123.101892,48.18495200000001,0 -123.144785,48.175942,0 -123.239135,48.118215,0 -123.332692,48.11297,0 -123.424657,48.11806399999999,0 -123.462018,48.134613,0 -123.403352,48.141369,0 -123.440128,48.142014,0 -123.507235,48.131807,0 -123.551131,48.151382,0 -123.590848,48.13495099999999,0 -123.709459,48.167581,0 -123.807157,48.154762,0 -123.981026,48.164762,0 -124.050738,48.177749,0 -124.107748,48.200106,0 -124.101773,48.216883,0 -124.238582,48.262471,0 -124.295871,48.258648,0 -124.564841,48.367921,0 -124.621684,48.367827,0 -124.635721,48.38819300000001,0 -124.676262,48.39137100000001,0 -124.731828,48.38115699999999,0 -124.695992,48.344326,0 -124.658947,48.331014,0 -124.665908,48.29933,0 -124.686347,48.287392,0 -124.68467,48.255247,0 -124.70592,48.23989399999999,0 -124.690394,48.219749,0 -124.696111,48.198599,0 -124.733174,48.163393,0 -124.687125,48.09862799999999,0</coordinates>
          </LinearRing>
        </outerBoundaryIs>
      </Polygon>
    </Placemark>
    <Placemark>
      <name>Pacifica</name>
      <Polygon>
        <outerBoundaryIs>
          <LinearRing>
            <coordinates>-118.575394,33.440179,0 -118.488761,33.419816,0 -118.475365,33.383293,0 -118.487454,33.350885,0 -118.465368,33.326056,0 -118.374768,33.320064,0 -118.325244,33.299075,0 -118.305084,33.310323,0 -118.370323,33.409285,0 -118.477646,33.448392,0 -118.497454,33.441974,0 -118.538624,33.477015,0 -118.607243,33.478449,0 -118.575394,33.440179,0</coordinates>
          </LinearRing>
        </outerBoundaryIs>
      </Polygon>
    </Placemark>
    <Placemark>
      <name>Pacifica</name>
      <Polygon>
        <outerBoundaryIs>
          <LinearRing>
            <coordinates>-118.506206,32.852985,0 -118.431809,32.801462,0 -118.391854,32.826261,0 -118.354185,32.820919,0 -118.499499,32.933651,0 -118.573897,33.03055,0 -118.6105,33.032941,0 -118.506206,32.852985,0</coordinates>
          </LinearRing>
        </outerBoundaryIs>
      </Polygon>
    </Placemark>
    <Placemark>
      <name>Pacifica</name>
      <Polygon>
        <outerBoundaryIs>
          <LinearRing>
            <coordinates>-119.546212,33.232561,0 -119.4703,33.214731,0 -119.434402,33.227021,0 -119.460592,33.256658,0 -119.528778,33.285417,0 -119.578843,33.278193,0 -119.546212,33.232561,0</coordinates>
          </LinearRing>
        </outerBoundaryIs>
      </Polygon>
    </Placemark>
    <Placemark>
      <name>Pacifica</name>
      <Polygon>
        <outerBoundaryIs>
          <LinearRing>
            <coordinates>-119.87635,34.032099,0 -119.887,34.008584,0 -119.873358,33.980375,0 -119.818249,33.959858,0 -119.721206,33.959583,0 -119.662814,33.98589,0 -119.560464,33.99553,0 -119.52064,34.034262,0 -119.584301,34.053643,0 -119.637708,34.013186,0 -119.686477,34.019809,0 -119.759428,34.058835,0 -119.818724,34.05301,0 -119.912857,34.077508,0 -119.929889,34.059734,0 -119.87635,34.032099,0</coordinates>
          </LinearRing>
        </outerBoundaryIs>
      </Polygon>
    </Placemark>
    <Placemark>
      <name>Pacifica</name>
      <Polygon>
        <outerBoundaryIs>
          <LinearRing>
            <coordinates>-120.222113,33.987553,0 -120.180417,33.925103,0 -120.115888,33.894362,0 -119.968636,33.942878,0 -119.980156,33.983653,0 -120.012862,33.980946,0 -120.046557,33.999984,0 -120.043261,34.035806,0 -120.249536,34.002477,0 -120.222113,33.987553,0</coordinates>
          </LinearRing>
        </outerBoundaryIs>
      </Polygon>
    </Placemark>
    <Placemark>
      <name>Pacifica</name>
      <Polygon>
        <outerBoundaryIs>
          <LinearRing>
            <coordinates>-120.307219,34.022375,0 -120.331159,34.049096,0 -120.358602,34.050234,0 -120.368278,34.076465,0 -120.390896,34.052,0 -120.415287,34.05496,0 -120.454134,34.028081,0 -120.307219,34.022375,0</coordinates>
          </LinearRing>
        </outerBoundaryIs>
      </Polygon>
    </Placemark>
    <Placemark>
      <name>Pacifica</name>
      <Polygon>
        <outerBoundaryIs>
          <LinearRing>
            <coordinates>-122.693084,48.181508,0 -122.679554,48.155112,0 -122.612708,48.155894,0 -122.598304,48.11062600000001,0 -122.614028,48.072788,0 -122.593624,48.047215,0 -122.607342,48.030992,0 -122.542936,47.996414,0 -122.546824,47.967215,0 -122.47266,47.988448,0 -122.446675,47.963141,0 -122.431035,47.914732,0 -122.395405,47.922081,0 -122.3773,47.905941,0 -122.349597,47.958796,0 -122.376259,48.034457,0 -122.445114,48.05169899999999,0 -122.49176,48.097088,0 -122.52542,48.096537,0 -122.509674,48.039738,0 -122.541475,48.017722,0 -122.546272,48.075952,0 -122.571848,48.102154,0 -122.557664,48.117884,0 -122.567936,48.148624,0 -122.606406,48.208262,0 -122.648252,48.226888,0 -122.721173,48.213797,0 -122.73235,48.22614699999999,0 -122.658678,48.244509,0 -122.662719,48.27756300000001,0 -122.642994,48.288802,0 -122.631107,48.26713800000001,0 -122.618449,48.294163,0 -122.574888,48.29490799999999,0 -122.558436,48.272166,0 -122.505828,48.29767699999999,0 -122.515979,48.320419,0 -122.59711,48.355677,0 -122.580173,48.374824,0 -122.601978,48.40990600000001,0 -122.664659,48.40150800000001,0 -122.673726,48.354692,0 -122.770045,48.22439499999999,0 -122.693084,48.181508,0</coordinates>
          </LinearRing>
        </outerBoundaryIs>
      </Polygon>
    </Placemark>
    <Placemark>
      <name>Pacifica</name>
      <Polygon>
        <outerBoundaryIs>
          <LinearRing>
            <coordinates>-122.493126,47.330254,0 -122.484232,47.380063,0 -122.445027,47.389394,0 -122.464524,47.390758,0 -122.459992,47.401623,0 -122.439608,47.40419300000001,0 -122.433225,47.38810600000001,0 -122.474499,47.359136,0 -122.457499,47.34256700000001,0 -122.437808,47.365606,0 -122.373627,47.388718,0 -122.437635,47.40743,0 -122.433388,47.466431,0 -122.460008,47.48685099999999,0 -122.457244,47.505847,0 -122.476624,47.511079,0 -122.482741,47.483149,0 -122.508964,47.46110999999999,0 -122.52813,47.345543,0 -122.493126,47.330254,0</coordinates>
          </LinearRing>
        </outerBoundaryIs>
      </Polygon>
    </Placemark>
    <Placemark>
      <name>Pacifica</name>
      <Polygon>
        <outerBoundaryIs>
          <LinearRing>
            <coordinates>-122.57331,47.594582,0 -122.547995,47.60369699999999,0 -122.518367,47.57408,0 -122.480278,47.583268,0 -122.516044,47.59566000000001,0 -122.498479,47.59723,0 -122.500357,47.617816,0 -122.5258,47.619202,0 -122.489131,47.633184,0 -122.51815,47.65205199999999,0 -122.49784,47.66181900000001,0 -122.511196,47.708715,0 -122.528311,47.700041,0 -122.552848,47.720757,0 -122.56573,47.665941,0 -122.590841,47.66326100000001,0 -122.57331,47.594582,0</coordinates>
          </LinearRing>
        </outerBoundaryIs>
      </Polygon>
    </Placemark>
    <Placemark>
      <name>Pacifica</name>
      <Polygon>
        <outerBoundaryIs>
          <LinearRing>
            <coordinates>-122.640414,48.52586000000001,0 -122.572767,48.531014,0 -122.645595,48.588894,0 -122.654342,48.537956,0 -122.640414,48.52586000000001,0</coordinates>
          </LinearRing>
        </outerBoundaryIs>
      </Polygon>
    </Placemark>
    <Placemark>
      <name>Pacifica</name>
      <Polygon>
        <outerBoundaryIs>
          <LinearRing>
            <coordinates>-122.614234,47.220871,0 -122.590487,47.227752,0 -122.62812,47.267475,0 -122.670348,47.273571,0 -122.614234,47.220871,0</coordinates>
          </LinearRing>
        </outerBoundaryIs>
      </Polygon>
    </Placemark>
    <Placemark>
      <name>Pacifica</name>
      <Polygon>
        <outerBoundaryIs>
          <LinearRing>
            <coordinates>-122.608572,48.64044800000001,0 -122.618225,48.67072099999999,0 -122.665183,48.69742299999999,0 -122.687524,48.73472100000001,0 -122.715709,48.748672,0 -122.722262,48.731624,0 -122.608572,48.64044800000001,0</coordinates>
          </LinearRing>
        </outerBoundaryIs>
      </Polygon>
    </Placemark>
    <Placemark>
      <name>Pacifica</name>
      <Polygon>
        <outerBoundaryIs>
          <LinearRing>
            <coordinates>-122.677716,47.1911,0 -122.6418,47.205013,0 -122.685226,47.232376,0 -122.726868,47.20739399999999,0 -122.677716,47.1911,0</coordinates>
          </LinearRing>
        </outerBoundaryIs>
      </Polygon>
    </Placemark>
    <Placemark>
      <name>Pacifica</name>
      <Polygon>
        <outerBoundaryIs>
          <LinearRing>
            <coordinates>-122.718952,48.561848,0 -122.722407,48.540606,0 -122.68586,48.54310799999999,0 -122.69608,48.554327,0 -122.66823,48.566434,0 -122.711054,48.609313,0 -122.740482,48.58498600000001,0 -122.718952,48.561848,0</coordinates>
          </LinearRing>
        </outerBoundaryIs>
      </Polygon>
    </Placemark>
    <Placemark>
      <name>Pacifica</name>
      <Polygon>
        <outerBoundaryIs>
          <LinearRing>
            <coordinates>-122.694748,47.125896,0 -122.69482,47.143726,0 -122.675498,47.141964,0 -122.673927,47.174675,0 -122.706713,47.187385,0 -122.742928,47.151474,0 -122.694748,47.125896,0</coordinates>
          </LinearRing>
        </outerBoundaryIs>
      </Polygon>
    </Placemark>
    <Placemark>
      <name>Pacifica</name>
      <Polygon>
        <outerBoundaryIs>
          <LinearRing>
            <coordinates>-123.027963,48.610849,0 -123.003226,48.62093999999999,0 -122.993192,48.60947400000001,0 -123.003876,48.592966,0 -122.971228,48.603816,0 -122.992904,48.634527,0 -122.98385,48.64213,0 -122.953043,48.62534,0 -122.947546,48.59720999999999,0 -122.884157,48.588721,0 -122.861877,48.612282,0 -122.90975,48.653934,0 -122.918055,48.689552,0 -122.88504,48.69002,0 -122.881708,48.653453,0 -122.831039,48.619819,0 -122.829784,48.60120199999999,0 -122.799941,48.601813,0 -122.80878,48.619916,0 -122.741478,48.660347,0 -122.877579,48.712696,0 -122.95182,48.712219,0 -122.948806,48.693713,0 -123.030342,48.62989,0 -123.027963,48.610849,0</coordinates>
          </LinearRing>
        </outerBoundaryIs>
      </Polygon>
    </Placemark>
    <Placemark>
      <name>Pacifica</name>
      <Polygon>
        <outerBoundaryIs>
          <LinearRing>
            <coordinates>-122.807686,48.531322,0 -122.76902,48.55928,0 -122.81088,48.588879,0 -122.831083,48.572526,0 -122.807686,48.531322,0</coordinates>
          </LinearRing>
        </outerBoundaryIs>
      </Polygon>
    </Placemark>
    <Placemark>
      <name>Pacifica</name>
      <Polygon>
        <outerBoundaryIs>
          <LinearRing>
            <coordinates>-122.917481,48.456002,0 -122.926247,48.437046,0 -122.862144,48.439672,0 -122.888771,48.437046,0 -122.877087,48.42873800000001,0 -122.895309,48.420982,0 -122.83908,48.431719,0 -122.812622,48.420982,0 -122.800133,48.447159,0 -122.818607,48.457455,0 -122.816209,48.487754,0 -122.769405,48.5121,0 -122.792962,48.525372,0 -122.837013,48.516758,0 -122.82673,48.460739,0 -122.849269,48.447202,0 -122.8507,48.481659,0 -122.873274,48.505915,0 -122.841774,48.53995500000001,0 -122.873704,48.54465600000001,0 -122.864975,48.561371,0 -122.882946,48.55519900000001,0 -122.884679,48.573155,0 -122.920296,48.55066299999999,0 -122.916085,48.52301299999999,0 -122.931978,48.517453,0 -122.944337,48.457907,0 -122.917481,48.456002,0</coordinates>
          </LinearRing>
        </outerBoundaryIs>
      </Polygon>
    </Placemark>
    <Placemark>
      <name>Pacifica</name>
      <Polygon>
        <outerBoundaryIs>
          <LinearRing>
            <coordinates>-122.972606,48.55877499999999,0 -122.987036,48.557078,0 -122.948259,48.546885,0 -122.902802,48.578502,0 -122.922114,48.587149,0 -122.937714,48.574557,0 -122.966576,48.594673,0 -123.017432,48.590141,0 -122.972606,48.55877499999999,0</coordinates>
          </LinearRing>
        </outerBoundaryIs>
      </Polygon>
    </Placemark>
    <Placemark>
      <name>Pacifica</name>
      <Polygon>
        <outerBoundaryIs>
          <LinearRing>
            <coordinates>-123.171141,48.575787,0 -123.163208,48.530055,0 -123.13298,48.498309,0 -123.036888,48.457867,0 -122.960975,48.451207,0 -122.963827,48.467127,0 -123.005893,48.470912,0 -123.020606,48.501034,0 -123.016356,48.518617,0 -122.982366,48.51454,0 -122.969769,48.536106,0 -122.995214,48.535484,0 -123.011307,48.559586,0 -123.100474,48.599016,0 -123.105301,48.62264299999999,0 -123.179657,48.622047,0 -123.203309,48.595549,0 -123.171141,48.575787,0</coordinates>
          </LinearRing>
        </outerBoundaryIs>
      </Polygon>
    </Placemark>
    <Placemark>
      <name>Pacifica</name>
      <Polygon>
        <outerBoundaryIs>
          <LinearRing>
            <coordinates>-123.028951,48.678333,0 -123.005086,48.694342,0 -123.007511,48.718863,0 -123.040179,48.717296,0 -123.071189,48.69934600000001,0 -123.028951,48.678333,0</coordinates>
          </LinearRing>
        </outerBoundaryIs>
      </Polygon>
    </Placemark>
    <Placemark>
      <name>Pacifica</name>
      <Polygon>
        <outerBoundaryIs>
          <LinearRing>
            <coordinates>-123.084006,48.97145500000001,0 -123.021459,48.977299,0 -123.035393,49.002154,0 -123.090546,49.001976,0 -123.084006,48.97145500000001,0</coordinates>
          </LinearRing>
        </outerBoundaryIs>
      </Polygon>
    </Placemark>
    <Placemark>
      <name>Pacifica</name>
      <Polygon>
        <outerBoundaryIs>
          <LinearRing>
            <coordinates>-123.182823,48.657436,0 -123.127487,48.65675,0 -123.183205,48.684297,0 -123.237823,48.683903,0 -123.182823,48.657436,0</coordinates>
          </LinearRing>
        </outerBoundaryIs>
      </Polygon>
    </Placemark>
  </Document>
</kml>
