<?xml version='1.0' encoding='UTF-8'?>
<kml xmlns="http://www.opengis.net/kml/2.2">
  <Document>
    <name>Quebec Republic</name>
    <Placemark>
      <name>Quebec Republic</name>
      <Polygon>
        <outerBoundaryIs>
          <LinearRing>
            <coordinates>-73.399158,45.004386,0 -73.498920,45.003921,0 -73.598655,45.003404,0 -73.698417,45.002939,0 -73.798152,45.002474,0 -73.897888,45.001957,0 -73.997649,45.001440,0 -74.097385,45.000975,0 -74.197146,45.000458,0 -74.296881,44.999993,0 -74.396617,44.999477,0 -74.496352,44.999012,0 -74.596114,44.998495,0 -74.695875,44.998030,0 -74.712961,44.999254,0 -74.634918,45.014024,0 -74.473541,45.067125,0 -74.436838,45.086330,0 -74.407135,45.114651,0 -74.404286,45.123887,0 -74.403147,45.135159,0 -74.399566,45.144761,0 -74.389150,45.148790,0 -74.379221,45.150295,0 -74.367340,45.154364,0 -74.356272,45.159817,0 -74.329498,45.178087,0 -74.308176,45.183987,0 -74.219472,45.197577,0 -74.199452,45.203843,0 -74.164418,45.228624,0 -74.145619,45.233954,0 -74.048451,45.232530,0 -74.004384,45.245185,0 -73.964345,45.267808,0 -73.889231,45.337144,0 -73.879954,45.341132,0 -73.857533,45.340074,0 -73.848256,45.343980,0 -73.831899,45.355618,0 -73.775950,45.381496,0 -73.767201,45.388332,0 -73.744944,45.412258,0 -73.734690,45.418606,0 -73.712880,45.421373,0 -73.704579,45.426256,0 -73.687367,45.431220,0 -73.604604,45.422512,0 -73.581776,45.428290,0 -73.569163,45.428046,0 -73.563629,45.419094,0 -73.557281,45.414293,0 -73.543040,45.416327,0 -73.527903,45.421454,0 -73.518951,45.426256,0 -73.502553,45.447903,0 -73.502594,45.463446,0 -73.522694,45.504462,0 -73.523752,45.513821,0 -73.523549,45.527574,0 -73.522043,45.539944,0 -73.490387,45.584093,0 -73.468861,45.599718,0 -73.460601,45.608059,0 -73.456288,45.618232,0 -73.451894,45.635606,0 -73.446929,45.642239,0 -73.456858,45.672431,0 -73.448842,45.704495,0 -73.431304,45.732733,0 -73.412831,45.751532,0 -73.259348,45.854112,0 -73.217275,45.898830,0 -73.206532,45.915595,0 -73.205963,45.932725,0 -73.208608,45.950832,0 -73.207387,45.970567,0 -73.200347,45.981757,0 -73.178049,46.004014,0 -73.173207,46.014960,0 -73.171864,46.026842,0 -73.168080,46.035793,0 -73.162668,46.043077,0 -73.156117,46.049709,0 -73.139801,46.058336,0 -73.040598,46.073594,0 -73.031890,46.082343,0 -73.015736,46.093492,0 -72.998402,46.103420,0 -72.978505,46.115831,0 -72.954945,46.130723,0 -72.932607,46.144395,0 -72.909413,46.135647,0 -72.876047,46.136623,0 -72.843658,46.141913,0 -72.758290,46.172512,0 -72.731028,46.176622,0 -72.669423,46.215155,0 -72.669423,46.230048,0 -72.670644,46.247382,0 -72.652089,46.258612,0 -72.609853,46.276597,0 -72.556264,46.305732,0 -72.495961,46.360500,0 -72.477773,46.368476,0 -72.454945,46.371731,0 -72.398061,46.396389,0 -72.274322,46.420559,0 -72.241567,46.443508,0 -72.216135,46.479560,0 -72.204742,46.500637,0 -72.200022,46.515855,0 -72.189931,46.526231,0 -72.102447,46.560207,0 -72.057607,46.566026,0 -72.032379,46.566474,0 -72.007395,46.571397,0 -71.991526,46.583645,0 -71.978139,46.599433,0 -71.960439,46.614854,0 -71.905019,46.639960,0 -71.867096,46.666653,0 -71.845693,46.668280,0 -71.824290,46.661363,0 -71.802724,46.649563,0 -71.760610,46.634182,0 -71.714182,46.632188,0 -71.302480,46.745185,0 -71.302602,46.745185,0 -71.282053,46.753282,0 -71.243723,46.775458,0 -71.223744,46.779934,0 -71.205068,46.787014,0 -71.176259,46.823961,0 -71.157948,46.840806,0 -71.115346,46.853380,0 -71.019114,46.851549,0 -70.973622,46.861884,0 -70.919667,46.897569,0 -70.901926,46.902899,0 -70.889638,46.901679,0 -70.867055,46.896593,0 -70.856923,46.895413,0 -70.844228,46.898261,0 -70.825795,46.911689,0 -70.815338,46.916490,0 -70.805491,46.916897,0 -70.783599,46.914700,0 -70.774322,46.916490,0 -70.765289,46.922838,0 -70.743967,46.946926,0 -70.727162,46.956448,0 -70.600250,46.997056,0 -70.555043,47.002346,0 -70.534901,47.010565,0 -70.388173,47.115871,0 -70.286610,47.209133,0 -70.226308,47.286444,0 -70.194895,47.315294,0 -70.076080,47.368964,0 -70.050364,47.400010,0 -70.031077,47.469591,0 -70.000356,47.499376,0 -69.990305,47.503607,0 -69.969553,47.508653,0 -69.959381,47.512397,0 -69.949290,47.520331,0 -69.942291,47.529486,0 -69.934234,47.537177,0 -69.900746,47.545600,0 -69.802235,47.622382,0 -69.689687,47.728339,0 -69.588775,47.814032,0 -69.561879,47.828070,0 -69.555287,47.834459,0 -69.550160,47.843858,0 -69.550689,47.849555,0 -69.553578,47.857164,0 -69.555287,47.872382,0 -69.548004,47.889594,0 -69.445465,47.991889,0 -69.428090,47.998969,0 -69.408355,48.001044,0 -69.361318,48.013007,0 -69.342437,48.020087,0 -69.323964,48.030585,0 -69.253651,48.092353,0 -69.152333,48.146674,0 -69.054433,48.232367,0 -68.964711,48.287787,0 -68.844553,48.342719,0 -68.824778,48.365831,0 -68.806060,48.372423,0 -68.748362,48.372911,0 -68.726064,48.376410,0 -68.661733,48.412299,0 -68.650380,48.420762,0 -68.638539,48.431952,0 -68.561594,48.451483,0 -68.523346,48.470771,0 -68.463287,48.528917,0 -68.425038,48.547065,0 -68.376820,48.550523,0 -68.353586,48.555976,0 -68.313873,48.586982,0 -68.205637,48.641913,0 -68.184316,48.647895,0 -68.132721,48.652533,0 -68.115712,48.659491,0 -68.082428,48.684882,0 -68.060292,48.693834,0 -68.033599,48.697821,0 -67.982167,48.698554,0 -67.962026,48.701646,0 -67.718088,48.796129,0 -67.711903,48.800971,0 -67.671254,48.817857,0 -67.646881,48.825426,0 -67.603342,48.832384,0 -67.546783,48.862372,0 -67.425160,48.873603,0 -67.361806,48.903998,0 -67.292388,48.924506,0 -67.117543,48.963080,0 -66.879628,49.046495,0 -66.622060,49.122626,0 -66.526519,49.133368,0 -66.219309,49.207872,0 -66.054921,49.224677,0 -65.882802,49.224677,0 -65.684153,49.242540,0 -65.615142,49.260240,0 -65.565785,49.266466,0 -65.396230,49.261054,0 -65.277008,49.244452,0 -65.191070,49.237047,0 -64.963490,49.219306,0 -64.877797,49.195421,0 -64.822621,49.189032,0 -64.801422,49.181220,0 -64.758656,49.157172,0 -64.713450,49.138861,0 -64.688629,49.132392,0 -64.613393,49.123033,0 -64.602691,49.118842,0 -64.579457,49.105455,0 -64.552561,49.097357,0 -64.497914,49.061632,0 -64.486318,49.057440,0 -64.478261,49.055976,0 -64.470611,49.052965,0 -64.448801,49.034613,0 -64.438832,49.029120,0 -64.396474,49.011827,0 -64.380198,49.001573,0 -64.350494,48.975653,0 -64.340077,48.970201,0 -64.310902,48.964423,0 -64.298736,48.959215,0 -64.295155,48.954820,0 -64.286610,48.940497,0 -64.281646,48.934394,0 -64.221181,48.894355,0 -64.206451,48.869574,0 -64.216786,48.828233,0 -64.191965,48.799628,0 -64.174875,48.784491,0 -64.155344,48.774237,0 -64.168813,48.761827,0 -64.190094,48.772813,0 -64.212026,48.791205,0 -64.227366,48.800971,0 -64.253082,48.806342,0 -64.303334,48.830268,0 -64.529652,48.882392,0 -64.559397,48.882880,0 -64.537587,48.876329,0 -64.477447,48.841905,0 -64.477447,48.835679,0 -64.539215,48.830024,0 -64.538930,48.821397,0 -64.521596,48.817003,0 -64.460072,48.828233,0 -64.418446,48.826402,0 -64.397206,48.821357,0 -64.388051,48.811143,0 -64.383901,48.808051,0 -64.376576,48.799994,0 -64.374094,48.791693,0 -64.384389,48.787909,0 -64.407867,48.792670,0 -64.418324,48.791205,0 -64.429067,48.780463,0 -64.417388,48.774604,0 -64.407948,48.775824,0 -64.398834,48.779364,0 -64.388051,48.780463,0 -64.376332,48.776231,0 -64.353668,48.762885,0 -64.327952,48.755845,0 -64.278188,48.725816,0 -64.235422,48.678087,0 -64.220530,48.670600,0 -64.205190,48.666978,0 -64.189687,48.657579,0 -64.175038,48.644477,0 -64.162180,48.629625,0 -64.193105,48.622992,0 -64.227162,48.625067,0 -64.257680,48.619208,0 -64.278188,48.588690,0 -64.282135,48.569037,0 -64.278879,48.561265,0 -64.250885,48.550767,0 -64.221547,48.533677,0 -64.206451,48.528022,0 -64.188832,48.526597,0 -64.199534,48.520697,0 -64.206451,48.513251,0 -64.212514,48.504828,0 -64.220530,48.495836,0 -64.228871,48.492133,0 -64.264556,48.486274,0 -64.286000,48.479234,0 -64.305531,48.469428,0 -64.319936,48.455878,0 -64.326039,48.437812,0 -64.312367,48.431586,0 -64.329091,48.419623,0 -64.359609,48.413031,0 -64.444488,48.406846,0 -64.496246,48.393663,0 -64.545155,48.387519,0 -64.662587,48.350165,0 -64.683217,48.340318,0 -64.711049,48.339301,0 -64.723256,48.335395,0 -64.712026,48.329210,0 -64.704701,48.323717,0 -64.701812,48.317084,0 -64.704010,48.307481,0 -64.707834,48.301744,0 -64.714182,48.294908,0 -64.721181,48.289374,0 -64.726959,48.287055,0 -64.731313,48.284003,0 -64.737782,48.268785,0 -64.756947,48.239732,0 -64.765736,48.218980,0 -64.779368,48.204047,0 -64.908844,48.177191,0 -64.924469,48.176256,0 -64.938466,48.177314,0 -64.950510,48.180854,0 -64.960357,48.187690,0 -64.963694,48.185858,0 -64.963531,48.174994,0 -64.959137,48.160956,0 -64.949818,48.149848,0 -64.987864,48.125963,0 -65.051625,48.101630,0 -65.181020,48.042833,0 -65.285553,48.012641,0 -65.384918,48.009263,0 -65.404449,48.001451,0 -65.432200,48.003282,0 -65.459381,48.010810,0 -65.477406,48.020087,0 -65.481516,48.026068,0 -65.487172,48.041327,0 -65.491689,48.046820,0 -65.503407,48.052069,0 -65.536000,48.059882,0 -65.577219,48.064032,0 -65.667633,48.095811,0 -65.783844,48.115587,0 -65.819976,48.129950,0 -65.858713,48.159369,0 -65.890452,48.170600,0 -65.892974,48.187690,0 -65.890981,48.208197,0 -65.895741,48.225531,0 -65.904408,48.208808,0 -65.912953,48.200792,0 -65.924062,48.198350,0 -65.940419,48.198228,0 -65.953033,48.195380,0 -65.964019,48.188300,0 -66.046010,48.115220,0 -66.067047,48.101996,0 -66.095570,48.097154,0 -66.183095,48.115709,0 -66.270619,48.116523,0 -66.286855,48.114488,0 -66.299794,48.108222,0 -66.292063,48.105414,0 -66.284291,48.103380,0 -66.265045,48.101996,0 -66.274729,48.073106,0 -66.279368,48.067328,0 -66.290028,48.065172,0 -66.296132,48.069403,0 -66.300649,48.076117,0 -66.306630,48.081529,0 -66.312571,48.082017,0 -66.319569,48.081000,0 -66.325307,48.081163,0 -66.327748,48.085273,0 -66.329091,48.089911,0 -66.332631,48.094835,0 -66.337066,48.099189,0 -66.341420,48.101996,0 -66.376129,48.114203,0 -66.473297,48.120103,0 -66.515370,48.108100,0 -66.533193,48.070990,0 -66.542795,48.058661,0 -66.585072,48.061265,0 -66.599965,48.044745,0 -66.612050,48.046698,0 -66.632192,48.054267,0 -66.643910,48.051866,0 -66.650380,48.046251,0 -66.655588,48.039496,0 -66.663482,48.033759,0 -66.698801,48.024034,0 -66.748525,48.017808,0 -66.773020,48.008043,0 -66.785797,48.005845,0 -66.817738,48.006334,0 -66.833160,48.004503,0 -66.847890,47.998969,0 -66.843007,47.996812,0 -66.843563,47.996735,0 -66.867696,47.997742,0 -66.894180,47.992084,0 -66.919140,47.981490,0 -66.938518,47.967822,0 -66.949396,47.948598,0 -66.945676,47.932113,0 -66.939242,47.917127,0 -66.941903,47.902296,0 -66.961644,47.894545,0 -66.987353,47.903407,0 -67.012312,47.917851,0 -67.029650,47.926997,0 -67.050372,47.929064,0 -67.073136,47.926636,0 -67.095176,47.920977,0 -67.113831,47.913406,0 -67.124502,47.907412,0 -67.133855,47.901676,0 -67.144139,47.896379,0 -67.157601,47.891599,0 -67.173259,47.887465,0 -67.188038,47.884984,0 -67.202869,47.885295,0 -67.218682,47.889377,0 -67.234211,47.893744,0 -67.246045,47.894054,0 -67.257724,47.892426,0 -67.272684,47.890927,0 -67.288368,47.892581,0 -67.304439,47.895836,0 -67.319891,47.896147,0 -67.333559,47.888938,0 -67.343843,47.869792,0 -67.350896,47.849586,0 -67.363712,47.839277,0 -67.391307,47.849896,0 -67.396165,47.855736,0 -67.398852,47.863280,0 -67.401720,47.870980,0 -67.407146,47.877130,0 -67.414872,47.881264,0 -67.422933,47.884106,0 -67.431357,47.886276,0 -67.439806,47.888395,0 -67.454482,47.893304,0 -67.468641,47.899557,0 -67.482723,47.906068,0 -67.497063,47.911934,0 -67.521196,47.919814,0 -67.543934,47.925705,0 -67.566904,47.930356,0 -67.591579,47.934335,0 -67.605971,47.938056,0 -67.608943,47.943327,0 -67.606772,47.950924,0 -67.605765,47.961750,0 -67.607005,47.968752,0 -67.609227,47.980948,0 -67.611501,47.992420,0 -67.612844,47.997536,0 -67.628115,47.997536,0 -67.688757,47.997536,0 -67.749425,47.997536,0 -67.810093,47.997536,0 -67.870761,47.997536,0 -67.931429,47.997536,0 -67.992098,47.997536,0 -68.052766,47.997536,0 -68.113460,47.997536,0 -68.113460,47.988906,0 -68.113460,47.980250,0 -68.113460,47.971594,0 -68.113460,47.962964,0 -68.113460,47.954283,0 -68.113460,47.945653,0 -68.113460,47.936997,0 -68.113460,47.928341,0 -68.146507,47.928341,0 -68.179554,47.928341,0 -68.212601,47.928341,0 -68.245674,47.928341,0 -68.278721,47.928341,0 -68.311768,47.928341,0 -68.344815,47.928341,0 -68.377862,47.928341,0 -68.377862,47.890927,0 -68.377862,47.853565,0 -68.377862,47.816151,0 -68.377862,47.778764,0 -68.377862,47.741376,0 -68.377862,47.703962,0 -68.377862,47.666574,0 -68.377862,47.629212,0 -68.377862,47.608076,0 -68.379154,47.587948,0 -68.386828,47.558286,0 -68.408093,47.536298,0 -68.436334,47.518392,0 -68.464989,47.501003,0 -68.493049,47.480100,0 -68.522324,47.457414,0 -68.552683,47.436872,0 -68.583844,47.422248,0 -68.629061,47.407288,0 -68.674252,47.392405,0 -68.719443,47.377574,0 -68.764634,47.362639,0 -68.836439,47.343777,0 -68.910000,47.329850,0 -68.983303,47.315200,0 -69.054384,47.294219,0 -69.063560,47.290809,0 -69.065134,47.296339,0 -69.066193,47.329670,0 -69.054333,47.389253,0 -69.054023,47.418399,0 -69.069655,47.431886,0 -69.221972,47.459688,0 -69.237268,47.458810,0 -69.250910,47.452919,0 -69.267628,47.439844,0 -69.357906,47.350134,0 -69.448159,47.260346,0 -69.538464,47.170610,0 -69.628794,47.080797,0 -69.719099,46.991086,0 -69.809403,46.901299,0 -69.899708,46.811562,0 -69.989961,46.721697,0 -70.007763,46.704075,0 -70.023628,46.661287,0 -70.032723,46.609766,0 -70.050086,46.511271,0 -70.061817,46.445409,0 -70.074323,46.419545,0 -70.153052,46.372829,0 -70.167418,46.368179,0 -70.188398,46.358412,0 -70.197028,46.336863,0 -70.199509,46.315262,0 -70.201886,46.305495,0 -70.223693,46.300793,0 -70.236173,46.288339,0 -70.253407,46.251493,0 -70.280899,46.211857,0 -70.284801,46.191859,0 -70.263329,46.183229,0 -70.249247,46.162765,0 -70.244002,46.141009,0 -70.249480,46.120597,0 -70.264440,46.106593,0 -70.300330,46.089281,0 -70.312629,46.079566,0 -70.311362,46.071866,0 -70.304774,46.065975,0 -70.300795,46.061737,0 -70.296092,46.057862,0 -70.293017,46.054038,0 -70.292010,46.048663,0 -70.294309,46.044943,0 -70.303637,46.038483,0 -70.306143,46.035331,0 -70.316892,45.999002,0 -70.316298,45.982982,0 -70.303947,45.968616,0 -70.280434,45.959315,0 -70.263148,45.956834,0 -70.255939,45.948876,0 -70.262528,45.923038,0 -70.283173,45.890482,0 -70.312654,45.867641,0 -70.389807,45.825059,0 -70.409935,45.810745,0 -70.415232,45.804389,0 -70.417170,45.793795,0 -70.413682,45.787697,0 -70.408282,45.781651,0 -70.403941,45.771161,0 -70.402442,45.749663,0 -70.407351,45.731525,0 -70.419315,45.716901,0 -70.439132,45.705893,0 -70.450424,45.703723,0 -70.472800,45.703568,0 -70.484763,45.699641,0 -70.514735,45.681709,0 -70.572406,45.662279,0 -70.589614,45.651788,0 -70.686792,45.572723,0 -70.730329,45.507973,0 -70.732009,45.491591,0 -70.722836,45.470921,0 -70.707385,45.456400,0 -70.668162,45.439036,0 -70.650257,45.427461,0 -70.641316,45.408496,0 -70.653590,45.395473,0 -70.675785,45.388704,0 -70.696739,45.388652,0 -70.718004,45.397282,0 -70.752550,45.422345,0 -70.771877,45.430045,0 -70.794873,45.430406,0 -70.812986,45.423430,0 -70.825982,45.410459,0 -70.833837,45.393096,0 -70.835465,45.373097,0 -70.832080,45.328552,0 -70.835258,45.309794,0 -70.842389,45.301215,0 -70.862621,45.290363,0 -70.870243,45.283129,0 -70.872491,45.274189,0 -70.870605,45.255275,0 -70.874351,45.245663,0 -70.892412,45.234604,0 -70.906908,45.246232,0 -70.951608,45.332014,0 -70.968118,45.344520,0 -70.993155,45.347827,0 -71.016539,45.343125,0 -71.027598,45.334650,0 -71.036667,45.323385,0 -71.054418,45.310362,0 -71.064211,45.307055,0 -71.084952,45.304293,0 -71.085553,45.304213,0 -71.095242,45.300905,0 -71.111029,45.287108,0 -71.141725,45.252329,0 -71.160329,45.245767,0 -71.185133,45.248557,0 -71.209370,45.254758,0 -71.293396,45.292327,0 -71.311534,45.294136,0 -71.334323,45.288710,0 -71.352100,45.278323,0 -71.381245,45.250779,0 -71.394888,45.241529,0 -71.438813,45.233468,0 -71.449045,45.226905,0 -71.422690,45.217189,0 -71.406567,45.204942,0 -71.413026,45.186184,0 -71.441604,45.150682,0 -71.445996,45.140295,0 -71.451215,45.121691,0 -71.456590,45.110994,0 -71.497259,45.066553,0 -71.504752,45.052962,0 -71.506613,45.037045,0 -71.504080,45.013739,0 -71.505848,45.013731,0 -71.603816,45.013274,0 -71.703551,45.012757,0 -71.803287,45.012241,0 -71.903074,45.011776,0 -72.002810,45.011259,0 -72.102545,45.010794,0 -72.202229,45.010329,0 -72.301964,45.009760,0 -72.401752,45.009295,0 -72.501487,45.008830,0 -72.601274,45.008313,0 -72.700958,45.007797,0 -72.800694,45.007331,0 -72.900481,45.006866,0 -73.000268,45.006350,0 -73.099952,45.005885,0 -73.199687,45.005419,0 -73.299423,45.004903,0 -73.351341,45.004634,0 -73.399158,45.004386,0</coordinates>
          </LinearRing>
        </outerBoundaryIs>
      </Polygon>
    </Placemark>
    <Placemark>
      <name>Quebec Republic</name>
      <Polygon>
        <outerBoundaryIs>
          <LinearRing>
            <coordinates>-79.423004,50.856635,0 -79.414418,50.843451,0 -79.401031,50.816962,0 -79.391998,50.805121,0 -79.358388,50.780463,0 -79.354115,50.770982,0 -79.354237,50.756537,0 -79.352854,50.743354,0 -79.347035,50.733018,0 -79.334299,50.726915,0 -79.334543,50.768419,0 -79.339589,50.791815,0 -79.357533,50.802069,0 -79.369211,50.811387,0 -79.409332,50.870307,0 -79.443430,50.903795,0 -79.463979,50.919135,0 -79.481353,50.925605,0 -79.497914,50.934027,0 -79.520823,50.965481,0 -79.520800,50.965778,0 -79.520800,51.026808,0 -79.520800,51.139463,0 -79.520800,51.252117,0 -79.520800,51.364798,0 -79.520823,51.466702,0 -79.519195,51.467393,0 -79.519114,51.483507,0 -79.529693,51.509711,0 -79.545318,51.536729,0 -79.560170,51.555528,0 -79.516428,51.560289,0 -79.468129,51.580186,0 -79.346018,51.661811,0 -79.323232,51.666978,0 -79.278961,51.642035,0 -79.255483,51.638739,0 -79.244537,51.630927,0 -79.258534,51.603949,0 -79.281117,51.572089,0 -79.285634,51.551988,0 -79.275624,51.531602,0 -79.265859,51.527777,0 -79.184153,51.525702,0 -79.169179,51.528266,0 -79.157948,51.533149,0 -79.149810,51.538642,0 -79.141225,51.542548,0 -79.128163,51.542548,0 -79.109609,51.530707,0 -79.094065,51.518297,0 -79.082753,51.506659,0 -79.029124,51.479926,0 -79.011545,51.467393,0 -79.006581,51.455756,0 -79.007192,51.431871,0 -79.005279,51.419013,0 -78.998362,51.406806,0 -78.978627,51.389146,0 -78.970570,51.377427,0 -78.952463,51.311591,0 -78.939809,51.292670,0 -78.935048,51.281602,0 -78.940907,51.272284,0 -78.960601,51.257921,0 -78.963368,51.247382,0 -78.959828,51.232489,0 -78.953196,51.219224,0 -78.912506,51.182481,0 -78.900950,51.177069,0 -78.847035,51.164496,0 -78.858713,51.176378,0 -78.870188,51.192816,0 -78.882924,51.207261,0 -78.914296,51.219184,0 -78.919789,51.232978,0 -78.919057,51.250596,0 -78.912221,51.289171,0 -78.909047,51.296088,0 -78.903310,51.304389,0 -78.884877,51.319688,0 -78.862375,51.344184,0 -78.848053,51.350898,0 -78.826568,51.350084,0 -78.840077,51.362901,0 -78.879709,51.374498,0 -78.888010,51.387641,0 -78.882151,51.403266,0 -78.867747,51.413682,0 -78.849924,51.422349,0 -78.833363,51.432685,0 -78.809722,51.460517,0 -78.793813,51.474473,0 -78.753570,51.486192,0 -78.744293,51.487291,0 -78.690012,51.487291,0 -78.713124,51.506537,0 -78.782297,51.503607,0 -78.812856,51.514594,0 -78.822662,51.537706,0 -78.819732,51.567979,0 -78.808217,51.595649,0 -78.792388,51.610785,0 -78.804026,51.613511,0 -78.829335,51.614244,0 -78.840810,51.617011,0 -78.848256,51.624091,0 -78.867502,51.646837,0 -78.878407,51.651719,0 -78.905100,51.653510,0 -78.929270,51.660468,0 -78.942494,51.675116,0 -78.936391,51.700141,0 -78.965688,51.711127,0 -78.980580,51.718573,0 -78.991689,51.726874,0 -79.009104,51.753526,0 -79.019399,51.763170,0 -79.038808,51.768500,0 -79.029042,51.785712,0 -79.014963,51.796129,0 -78.997467,51.801256,0 -78.977366,51.802558,0 -78.967885,51.801459,0 -78.947987,51.796576,0 -78.936391,51.795722,0 -78.923818,51.798204,0 -78.901723,51.807929,0 -78.876373,51.814887,0 -78.857086,51.826890,0 -78.840566,51.842271,0 -78.833363,51.857164,0 -78.839670,51.868272,0 -78.868398,51.890326,0 -78.874989,51.908677,0 -78.891510,51.932074,0 -78.892568,51.946763,0 -78.871205,51.953437,0 -78.827260,51.957872,0 -78.747182,51.976874,0 -78.730824,51.987413,0 -78.719716,52.013983,0 -78.710113,52.015001,0 -78.700592,52.014350,0 -78.696197,52.018256,0 -78.696197,52.029731,0 -78.697418,52.039496,0 -78.701527,52.048204,0 -78.709869,52.056464,0 -78.669260,52.055121,0 -78.649729,52.058661,0 -78.634755,52.069444,0 -78.640940,52.072130,0 -78.649729,52.079901,0 -78.655263,52.083726,0 -78.633290,52.093573,0 -78.611643,52.098456,0 -78.591298,52.106147,0 -78.573313,52.124701,0 -78.569488,52.133490,0 -78.563140,52.155626,0 -78.558990,52.165717,0 -78.552480,52.174058,0 -78.537221,52.188910,0 -78.531728,52.199774,0 -78.552968,52.236396,0 -78.546742,52.246649,0 -78.518056,52.255072,0 -78.489980,52.256700,0 -78.408193,52.240790,0 -78.408193,52.248236,0 -78.424672,52.255845,0 -78.436391,52.264838,0 -78.448720,52.272406,0 -78.467152,52.275580,0 -78.512278,52.277574,0 -78.535064,52.275743,0 -78.552846,52.268134,0 -78.558949,52.288804,0 -78.546864,52.304429,0 -78.511830,52.330186,0 -78.499582,52.355821,0 -78.508127,52.367499,0 -78.523508,52.376776,0 -78.531728,52.395331,0 -78.526112,52.399766,0 -78.515696,52.410468,0 -78.509877,52.421373,0 -78.518381,52.426378,0 -78.535146,52.430650,0 -78.543080,52.440050,0 -78.540354,52.449408,0 -78.513580,52.457953,0 -78.512034,52.467353,0 -78.515981,52.476752,0 -78.521474,52.480943,0 -78.566477,52.487860,0 -78.558949,52.497382,0 -78.551015,52.501410,0 -78.545400,52.505479,0 -78.545400,52.515123,0 -78.551666,52.524848,0 -78.563059,52.533271,0 -78.575795,52.539374,0 -78.586334,52.542426,0 -78.632680,52.531684,0 -78.652821,52.531724,0 -78.649037,52.549262,0 -78.667714,52.555976,0 -78.683461,52.552558,0 -78.699045,52.545844,0 -78.717275,52.542426,0 -78.715159,52.546942,0 -78.711822,52.558214,0 -78.709869,52.562934,0 -78.724843,52.562445,0 -78.750722,52.568549,0 -78.765126,52.570380,0 -78.765126,52.577216,0 -78.744456,52.577501,0 -78.710317,52.594428,0 -78.690012,52.597724,0 -78.699452,52.605414,0 -78.709096,52.611070,0 -78.719390,52.614976,0 -78.730946,52.617540,0 -78.730946,52.624986,0 -78.709869,52.624986,0 -78.718861,52.638251,0 -78.724192,52.652289,0 -78.740346,52.646674,0 -78.756012,52.646470,0 -78.771108,52.650824,0 -78.785553,52.659125,0 -78.761464,52.683783,0 -78.762441,52.696031,0 -78.783559,52.700263,0 -78.819732,52.700670,0 -78.819732,52.706895,0 -78.796864,52.708441,0 -78.778391,52.713813,0 -78.772043,52.724189,0 -78.785553,52.741034,0 -78.803782,52.745673,0 -78.830556,52.749335,0 -78.850168,52.757392,0 -78.847035,52.775214,0 -78.830800,52.782538,0 -78.757639,52.782660,0 -78.735015,52.789171,0 -78.726471,52.798082,0 -78.726877,52.811143,0 -78.730946,52.830430,0 -78.750152,52.820868,0 -78.760610,52.817857,0 -78.771596,52.816759,0 -78.780385,52.819648,0 -78.774973,52.826158,0 -78.690012,52.885077,0 -78.704945,52.885688,0 -78.783070,52.871527,0 -78.796010,52.870917,0 -78.828359,52.874213,0 -78.842356,52.877997,0 -78.855295,52.883897,0 -78.867502,52.892524,0 -78.880971,52.911973,0 -78.889963,52.922065,0 -78.901682,52.926622,0 -78.874501,52.939805,0 -78.866933,52.949571,0 -78.867502,52.967597,0 -78.852406,52.960517,0 -78.821889,52.967149,0 -78.806060,52.960150,0 -78.798818,52.964179,0 -78.793040,52.968858,0 -78.788686,52.974595,0 -78.785553,52.981879,0 -78.813222,52.981391,0 -78.825836,52.983873,0 -78.837148,52.991156,0 -78.844146,53.002021,0 -78.848744,53.011664,0 -78.857045,53.017157,0 -78.874989,53.015448,0 -78.872670,53.012193,0 -78.872385,53.011298,0 -78.871490,53.010688,0 -78.867502,53.008612,0 -78.893056,53.001654,0 -78.927154,53.004991,0 -78.960683,53.015123,0 -78.984202,53.028428,0 -78.966461,53.031317,0 -78.945383,53.038520,0 -78.926625,53.049547,0 -78.915924,53.063829,0 -78.929433,53.072211,0 -78.943959,53.072699,0 -78.959869,53.070258,0 -78.977366,53.070014,0 -78.915924,53.166205,0 -78.939280,53.180365,0 -78.937367,53.186713,0 -78.921213,53.191392,0 -78.901682,53.200995,0 -78.906484,53.208564,0 -78.912465,53.214301,0 -78.919830,53.218370,0 -78.928944,53.220893,0 -78.919667,53.224799,0 -78.893422,53.229844,0 -78.888010,53.231757,0 -78.891184,53.242621,0 -78.899281,53.248236,0 -78.910512,53.249701,0 -78.922719,53.248155,0 -78.903310,53.259589,0 -78.895416,53.261786,0 -78.895416,53.268622,0 -78.905914,53.269599,0 -78.920277,53.272813,0 -78.934193,53.277655,0 -78.943227,53.282945,0 -78.952016,53.291490,0 -78.953725,53.295111,0 -78.939809,53.306220,0 -78.937367,53.317003,0 -78.946278,53.327338,0 -78.958119,53.336615,0 -78.964345,53.344428,0 -78.962026,53.357123,0 -78.946889,53.370347,0 -78.943227,53.381903,0 -78.944936,53.392279,0 -78.949818,53.402289,0 -78.957387,53.409735,0 -78.967437,53.412665,0 -78.972890,53.418524,0 -78.985666,53.445746,0 -78.991689,53.453599,0 -79.003814,53.455797,0 -79.018788,53.454047,0 -79.032867,53.449571,0 -79.042551,53.443671,0 -79.053334,53.439317,0 -79.063222,53.441962,0 -79.065256,53.447862,0 -79.052480,53.453599,0 -79.052480,53.461046,0 -79.076283,53.469428,0 -79.087758,53.480414,0 -79.097035,53.493598,0 -79.114573,53.508857,0 -79.094594,53.522284,0 -79.070058,53.530626,0 -79.042063,53.534980,0 -79.030019,53.535102,0 -79.038238,53.532823,0 -79.046254,53.529364,0 -79.038808,53.522528,0 -79.046254,53.516303,0 -79.028432,53.499091,0 -79.004140,53.497667,0 -78.978424,53.505479,0 -78.956899,53.516303,0 -78.967763,53.521430,0 -78.992177,53.527574,0 -79.001576,53.532782,0 -79.013905,53.547919,0 -79.021067,53.553697,0 -79.032582,53.556627,0 -79.019521,53.570868,0 -78.999867,53.566840,0 -78.978586,53.555976,0 -78.960601,53.549791,0 -78.932607,53.555121,0 -78.923085,53.566718,0 -78.931304,53.578599,0 -78.956899,53.584581,0 -78.956899,53.590766,0 -78.954701,53.600084,0 -78.965199,53.608954,0 -78.981760,53.615424,0 -78.997874,53.618109,0 -79.025217,53.604438,0 -79.035959,53.602769,0 -79.055328,53.601874,0 -79.066151,53.598212,0 -79.062367,53.609565,0 -79.056304,53.620347,0 -79.048411,53.630235,0 -79.038808,53.639228,0 -79.023101,53.632066,0 -79.012603,53.637803,0 -79.007558,53.647650,0 -79.008412,53.652818,0 -79.022817,53.652940,0 -79.033762,53.654731,0 -79.041412,53.660509,0 -79.046254,53.672716,0 -79.036244,53.671576,0 -79.023508,53.672675,0 -79.013336,53.677314,0 -79.011545,53.686998,0 -79.019276,53.693915,0 -79.033030,53.695868,0 -79.059316,53.694444,0 -79.085276,53.696601,0 -79.130483,53.706000,0 -79.156117,53.708075,0 -79.145497,53.719428,0 -79.126943,53.722846,0 -79.057362,53.720038,0 -79.048818,53.725653,0 -79.038808,53.741645,0 -79.062611,53.744086,0 -79.063385,53.757148,0 -79.046254,53.790025,0 -79.055084,53.791571,0 -79.060902,53.794257,0 -79.073598,53.803656,0 -79.018910,53.824164,0 -79.035146,53.830024,0 -79.043080,53.831122,0 -79.052480,53.831000,0 -79.052480,53.837836,0 -79.013499,53.845893,0 -78.976796,53.836005,0 -78.940297,53.821967,0 -78.901682,53.817328,0 -78.928619,53.843451,0 -78.971425,53.855089,0 -79.066151,53.857652,0 -79.058909,53.880194,0 -79.066558,53.894273,0 -79.084462,53.902167,0 -79.107737,53.906114,0 -79.080149,53.916327,0 -79.050771,53.916205,0 -79.020904,53.912665,0 -78.991689,53.912909,0 -79.022288,53.935981,0 -79.099192,53.949408,0 -79.135081,53.961371,0 -79.073638,53.948554,0 -79.042348,53.947211,0 -79.025217,53.961371,0 -79.042836,53.961249,0 -79.076405,53.967597,0 -79.038808,53.967597,0 -79.048004,53.979682,0 -79.064036,53.983466,0 -79.100901,53.981798,0 -79.091705,53.986802,0 -79.081614,53.989366,0 -79.070709,53.989976,0 -79.059316,53.989244,0 -79.062734,53.993109,0 -79.064931,53.996283,0 -79.067983,53.999213,0 -79.073598,54.002305,0 -79.048980,54.010118,0 -78.964345,54.002305,0 -78.979563,54.019232,0 -79.023508,54.033922,0 -79.032582,54.046983,0 -79.043691,54.043199,0 -79.107737,54.063788,0 -79.103586,54.065294,0 -79.100738,54.066759,0 -79.094065,54.071234,0 -79.137115,54.082994,0 -79.269358,54.083564,0 -79.292633,54.091051,0 -79.266469,54.099351,0 -79.169179,54.091051,0 -79.175038,54.111518,0 -79.156809,54.112128,0 -79.129384,54.107489,0 -79.107737,54.112128,0 -79.124094,54.119696,0 -79.128651,54.128526,0 -79.122670,54.132514,0 -79.107737,54.125190,0 -79.104644,54.129014,0 -79.102895,54.131903,0 -79.101796,54.134955,0 -79.100901,54.139472,0 -79.110341,54.143134,0 -79.120595,54.145494,0 -79.131418,54.146430,0 -79.142445,54.145697,0 -79.129547,54.154364,0 -79.115346,54.158271,0 -79.083485,54.159288,0 -79.072499,54.162095,0 -79.057362,54.175605,0 -79.046254,54.180487,0 -79.068918,54.187486,0 -79.101389,54.187608,0 -79.162343,54.180487,0 -79.213938,54.163398,0 -79.238271,54.161689,0 -79.238026,54.180487,0 -79.261057,54.174547,0 -79.273101,54.173204,0 -79.285878,54.173651,0 -79.291860,54.188422,0 -79.320546,54.196723,0 -79.355946,54.198554,0 -79.382069,54.194078,0 -79.371816,54.206244,0 -79.357533,54.215440,0 -79.326812,54.228217,0 -79.326812,54.235053,0 -79.340443,54.242499,0 -79.334299,54.248725,0 -79.322255,54.244371,0 -79.305409,54.241563,0 -79.290883,54.244086,0 -79.285878,54.255561,0 -79.293202,54.261461,0 -79.408111,54.270860,0 -79.443512,54.283515,0 -79.430898,54.293647,0 -79.424875,54.295966,0 -79.415598,54.297187,0 -79.424184,54.306952,0 -79.435658,54.310492,0 -79.463979,54.310167,0 -79.457387,54.330878,0 -79.463368,54.353339,0 -79.479888,54.369696,0 -79.504994,54.372260,0 -79.501820,54.375800,0 -79.499664,54.379340,0 -79.496734,54.382676,0 -79.491322,54.385850,0 -79.493235,54.390448,0 -79.496165,54.401923,0 -79.498158,54.406358,0 -79.485422,54.405748,0 -79.473297,54.407335,0 -79.450307,54.413804,0 -79.450307,54.420030,0 -79.490468,54.426703,0 -79.504994,54.426825,0 -79.494252,54.449530,0 -79.490631,54.462592,0 -79.494740,54.468451,0 -79.504506,54.473009,0 -79.513783,54.483385,0 -79.519643,54.494696,0 -79.519195,54.501939,0 -79.528554,54.501654,0 -79.537099,54.502427,0 -79.545237,54.504828,0 -79.553375,54.509385,0 -79.529164,54.517076,0 -79.539866,54.535020,0 -79.569244,54.552069,0 -79.601186,54.557196,0 -79.601186,54.564643,0 -79.550404,54.569688,0 -79.529408,54.577216,0 -79.525461,54.591376,0 -79.538726,54.604356,0 -79.559478,54.608954,0 -79.582143,54.606391,0 -79.601186,54.598131,0 -79.596669,54.593817,0 -79.592030,54.591864,0 -79.586903,54.591376,0 -79.580678,54.591376,0 -79.606353,54.580756,0 -79.619862,54.577460,0 -79.635325,54.577704,0 -79.622467,54.593248,0 -79.604807,54.607733,0 -79.592030,54.621039,0 -79.593739,54.632921,0 -79.690541,54.632921,0 -79.653676,54.642524,0 -79.648305,54.649726,0 -79.651438,54.660997,0 -79.659495,54.669298,0 -79.670644,54.673896,0 -79.683095,54.673896,0 -79.674469,54.658922,0 -79.699452,54.652940,0 -79.765614,54.652777,0 -79.765614,54.659613,0 -79.741811,54.662299,0 -79.676340,54.693793,0 -79.664052,54.696601,0 -79.653188,54.697943,0 -79.643544,54.700751,0 -79.640981,54.716051,0 -79.645985,54.726020,0 -79.642934,54.738227,0 -79.628489,54.742174,0 -79.638092,54.735948,0 -79.641916,54.728461,0 -79.636057,54.719794,0 -79.628489,54.714830,0 -79.616933,54.714667,0 -79.595367,54.725653,0 -79.572377,54.730658,0 -79.547109,54.739976,0 -79.516021,54.743883,0 -79.505198,54.747992,0 -79.496002,54.752753,0 -79.484486,54.756415,0 -79.410878,54.762681,0 -79.391998,54.773179,0 -79.384145,54.775336,0 -79.337392,54.776923,0 -79.324615,54.779731,0 -79.292633,54.797431,0 -78.967437,54.851996,0 -78.951161,54.857978,0 -78.895416,54.899766,0 -78.874867,54.907660,0 -78.773061,54.926134,0 -78.726674,54.944322,0 -78.677602,54.951280,0 -78.629262,54.964952,0 -78.603749,54.968085,0 -78.578277,54.975694,0 -78.536304,55.000000,0 -67.424468,55.000000,0 -67.422859,54.997050,0 -67.378147,54.948899,0 -67.316238,54.893869,0 -67.264648,54.835400,0 -67.171785,54.780370,0 -67.085801,54.732219,0 -67.085801,54.680628,0 -67.090228,54.676603,0 -67.109247,54.659313,0 -67.123634,54.646235,0 -67.154588,54.615280,0 -67.188527,54.612195,0 -67.192421,54.611841,0 -67.237133,54.587765,0 -67.261208,54.570568,0 -67.254330,54.546493,0 -67.233693,54.515539,0 -67.268087,54.484584,0 -67.320479,54.504543,0 -67.340314,54.512099,0 -67.398783,54.553372,0 -67.426298,54.570568,0 -67.498525,54.594644,0 -67.508437,54.582750,0 -67.515722,54.574008,0 -67.495085,54.539614,0 -67.508843,54.488024,0 -67.546676,54.484584,0 -67.605145,54.470827,0 -67.632524,54.484516,0 -67.632660,54.484584,0 -67.667054,54.460509,0 -67.701447,54.450191,0 -67.749599,54.426115,0 -67.749599,54.381403,0 -67.746159,54.343570,0 -67.691129,54.305737,0 -67.673932,54.264465,0 -67.639539,54.230071,0 -67.639539,54.188799,0 -67.673932,54.168162,0 -67.704887,54.154405,0 -67.742720,54.154405,0 -67.773674,54.126890,0 -67.790871,54.099375,0 -67.801189,54.064981,0 -67.808068,54.034027,0 -67.780553,54.006512,0 -67.746159,53.982437,0 -67.711765,53.972119,0 -67.670493,53.944604,0 -67.615463,53.923967,0 -67.601706,53.886134,0 -67.594827,53.858619,0 -67.583484,53.855217,0 -67.560433,53.848301,0 -67.522600,53.837983,0 -67.520384,53.832812,0 -67.512282,53.813908,0 -67.546676,53.803590,0 -67.577630,53.796711,0 -67.594827,53.782953,0 -67.574191,53.765756,0 -67.529479,53.758878,0 -67.512282,53.731363,0 -67.453924,53.709862,0 -67.446934,53.707287,0 -67.412540,53.693530,0 -67.398783,53.635061,0 -67.343753,53.586909,0 -67.324955,53.568111,0 -67.323117,53.566273,0 -67.185542,53.542198,0 -67.130299,53.529044,0 -67.113316,53.525001,0 -67.030771,53.514683,0 -66.975741,53.476850,0 -66.920711,53.435577,0 -66.889757,53.414941,0 -66.934468,53.397744,0 -66.963772,53.389930,0 -66.986059,53.383987,0 -67.010134,53.353032,0 -66.996377,53.325517,0 -66.961983,53.294563,0 -66.964930,53.247413,0 -66.965423,53.239533,0 -66.968862,53.187943,0 -66.969911,53.183396,0 -66.975741,53.181064,0 -66.992938,53.167307,0 -66.982620,53.143231,0 -66.982620,53.105398,0 -66.996377,53.081322,0 -67.047968,53.074444,0 -67.058286,53.091640,0 -67.051407,53.122595,0 -67.092679,53.122595,0 -67.120194,53.122595,0 -67.168345,53.153549,0 -67.209618,53.153549,0 -67.240572,53.167307,0 -67.299041,53.156988,0 -67.326556,53.132913,0 -67.357511,53.129473,0 -67.385026,53.105398,0 -67.367829,53.015974,0 -67.340314,52.978141,0 -67.333435,52.943748,0 -67.347193,52.916233,0 -67.302481,52.868082,0 -67.261208,52.861203,0 -67.202739,52.826809,0 -67.164906,52.819930,0 -67.133952,52.857763,0 -67.099558,52.871521,0 -67.065372,52.874629,0 -67.061725,52.874960,0 -67.051407,52.809612,0 -67.041089,52.775219,0 -66.992701,52.760097,0 -66.986059,52.758022,0 -66.948226,52.737386,0 -66.906953,52.696113,0 -66.882870,52.676044,0 -66.865681,52.661720,0 -66.855363,52.689234,0 -66.852260,52.726472,0 -66.851924,52.730507,0 -66.824409,52.723628,0 -66.814091,52.692674,0 -66.793454,52.678916,0 -66.792062,52.678916,0 -66.769379,52.678916,0 -66.760165,52.703487,0 -66.759061,52.706431,0 -66.769379,52.764901,0 -66.748743,52.775219,0 -66.707470,52.771779,0 -66.656694,52.795475,0 -66.655880,52.795855,0 -66.645562,52.826809,0 -66.645562,52.888718,0 -66.624925,52.936869,0 -66.595539,52.938205,0 -66.549259,52.940308,0 -66.512528,52.955613,0 -66.507987,52.957505,0 -66.463275,52.995338,0 -66.456396,53.029732,0 -66.453585,53.030357,0 -66.425442,53.036611,0 -66.363533,53.002217,0 -66.315382,52.936869,0 -66.291307,52.902475,0 -66.291117,52.899432,0 -66.288997,52.865519,0 -66.287867,52.847445,0 -66.311943,52.844006,0 -66.327775,52.853505,0 -66.329140,52.854324,0 -66.349776,52.861203,0 -66.391048,52.871521,0 -66.401366,52.844006,0 -66.377291,52.799294,0 -66.332709,52.737566,0 -66.332579,52.737386,0 -66.294746,52.637644,0 -66.287867,52.610129,0 -66.311943,52.610129,0 -66.373852,52.668598,0 -66.404806,52.647962,0 -66.408245,52.589493,0 -66.392151,52.566960,0 -66.384745,52.556592,0 -66.373852,52.541342,0 -66.377291,52.503509,0 -66.384170,52.469115,0 -66.363533,52.441600,0 -66.349776,52.383131,0 -66.349776,52.359055,0 -66.387609,52.369373,0 -66.435760,52.376252,0 -66.477178,52.338020,0 -66.480472,52.334980,0 -66.478682,52.331399,0 -66.466714,52.307465,0 -66.461021,52.284690,0 -66.456396,52.266192,0 -66.447284,52.251873,0 -66.432321,52.228359,0 -66.408245,52.218041,0 -66.384170,52.173329,0 -66.379924,52.160593,0 -66.373852,52.142375,0 -66.349776,52.132057,0 -66.301625,52.132057,0 -66.263792,52.156132,0 -66.277549,52.221480,0 -66.291307,52.252435,0 -66.301625,52.286828,0 -66.284428,52.307465,0 -66.256913,52.297147,0 -66.248516,52.288750,0 -66.212805,52.253038,0 -66.212201,52.252435,0 -66.195004,52.221480,0 -66.164050,52.214602,0 -66.122778,52.200844,0 -66.078066,52.169890,0 -66.084945,52.121739,0 -66.088384,52.090784,0 -66.026475,52.080466,0 -65.992082,52.059830,0 -65.973214,52.069264,0 -65.950809,52.080466,0 -65.940491,52.094224,0 -65.902658,52.080466,0 -65.871704,52.097663,0 -65.823553,52.107981,0 -65.794987,52.100464,0 -65.758205,52.090784,0 -65.730690,52.087345,0 -65.698899,52.103241,0 -65.696296,52.104542,0 -65.655024,52.107981,0 -65.657198,52.093848,0 -65.661902,52.063270,0 -65.682539,52.025437,0 -65.661902,51.987603,0 -65.634387,52.015118,0 -65.613751,52.032315,0 -65.551843,52.032315,0 -65.527767,52.056391,0 -65.500252,52.097663,0 -65.483055,52.066709,0 -65.458980,52.025437,0 -65.434904,52.004800,0 -65.414268,51.984164,0 -65.393632,51.977285,0 -65.376435,51.984164,0 -65.359238,51.949770,0 -65.372996,51.918816,0 -65.393632,51.898180,0 -65.359238,51.850029,0 -65.338602,51.819074,0 -65.317966,51.853468,0 -65.276693,51.867226,0 -65.252618,51.846589,0 -65.221663,51.825953,0 -65.183830,51.822514,0 -65.176952,51.791560,0 -65.183830,51.774363,0 -65.132240,51.757166,0 -65.080649,51.750287,0 -65.032498,51.760605,0 -64.991226,51.736530,0 -64.956832,51.722772,0 -64.922438,51.729651,0 -64.918999,51.760605,0 -64.857090,51.774363,0 -64.771106,51.764045,0 -64.708563,51.732773,0 -64.688561,51.722772,0 -64.654168,51.691818,0 -64.615983,51.651898,0 -64.602614,51.637921,0 -64.578502,51.612712,0 -64.539871,51.596156,0 -64.530351,51.592076,0 -64.528390,51.592730,0 -64.500643,51.601979,0 -64.478760,51.609273,0 -64.437488,51.640227,0 -64.406533,51.653985,0 -64.344625,51.667742,0 -64.323988,51.695257,0 -64.319176,51.700070,0 -64.318014,51.701232,0 -64.279277,51.739969,0 -64.287404,51.766384,0 -64.293034,51.784681,0 -64.334307,51.819074,0 -64.337558,51.871103,0 -64.337746,51.874104,0 -64.361822,51.966967,0 -64.337746,52.011679,0 -64.306792,51.991043,0 -64.299385,51.985282,0 -64.275837,51.966967,0 -64.234565,51.980725,0 -64.251762,52.011679,0 -64.272398,52.039194,0 -64.258640,52.083906,0 -64.251762,52.114860,0 -64.210489,52.128618,0 -64.172656,52.114860,0 -64.155459,52.132057,0 -64.155939,52.132673,0 -64.179535,52.163011,0 -64.210489,52.221480,0 -64.220807,52.266192,0 -64.207050,52.304025,0 -64.165778,52.321222,0 -64.141702,52.355616,0 -64.127945,52.386570,0 -64.127945,52.427843,0 -64.135993,52.464062,0 -64.141702,52.489751,0 -64.162338,52.531024,0 -64.182974,52.551660,0 -64.189853,52.572296,0 -64.162338,52.596372,0 -64.158899,52.637644,0 -64.165778,52.675477,0 -64.124505,52.696113,0 -64.107308,52.720189,0 -64.062597,52.727067,0 -64.004127,52.733946,0 -63.794326,52.771779,0 -63.718660,52.778658,0 -63.667069,52.813052,0 -63.653312,52.837127,0 -63.612039,52.861203,0 -63.601721,52.819930,0 -63.605161,52.785537,0 -63.593566,52.776261,0 -63.595777,52.770888,0 -63.575571,52.768485,0 -63.554539,52.760449,0 -63.534049,52.750166,0 -63.515575,52.741019,0 -63.496506,52.734353,0 -63.476663,52.729133,0 -63.457155,52.723630,0 -63.438887,52.715878,0 -63.410310,52.697404,0 -63.384188,52.673219,0 -63.379097,52.651153,0 -63.413566,52.638958,0 -63.435580,52.639578,0 -63.457827,52.642937,0 -63.480047,52.646244,0 -63.502165,52.646761,0 -63.529631,52.644487,0 -63.557019,52.642162,0 -63.584485,52.639888,0 -63.611874,52.637588,0 -63.662749,52.633170,0 -63.713625,52.628623,0 -63.764449,52.624178,0 -63.812621,52.620213,0 -63.814962,52.620447,0 -63.835708,52.616743,0 -63.844203,52.615225,0 -63.875934,52.608410,0 -63.908691,52.598749,0 -63.934605,52.588021,0 -63.954101,52.579943,0 -63.966770,52.573190,0 -63.995459,52.557880,0 -64.015674,52.543402,0 -64.035284,52.526961,0 -64.043605,52.519973,0 -64.055486,52.507959,0 -64.065351,52.497982,0 -64.068926,52.494367,0 -64.081173,52.473438,0 -64.075437,52.453646,0 -64.057752,52.443133,0 -64.056812,52.442572,0 -64.051866,52.436412,0 -64.045581,52.428583,0 -64.038135,52.418036,0 -64.029053,52.397821,0 -64.006408,52.375098,0 -64.000903,52.369574,0 -63.972656,52.353583,0 -63.908647,52.338277,0 -63.889720,52.333751,0 -63.885105,52.335013,0 -63.882000,52.336965,0 -63.855192,52.335772,0 -63.805451,52.336876,0 -63.773389,52.335100,0 -63.749514,52.322388,0 -63.750367,52.313345,0 -63.762149,52.309314,0 -63.776541,52.306833,0 -63.785223,52.302260,0 -63.783207,52.291227,0 -63.771735,52.280220,0 -63.757266,52.270557,0 -63.735439,52.251506,0 -63.714400,52.228647,0 -63.693574,52.188288,0 -63.680500,52.144053,0 -63.671767,52.097802,0 -63.663370,52.081886,0 -63.649649,52.065866,0 -63.640063,52.050622,0 -63.644094,52.036979,0 -63.670398,52.035739,0 -63.714374,52.047108,0 -63.759203,52.061990,0 -63.788168,52.071396,0 -63.819562,52.068114,0 -63.808167,52.042612,0 -63.774422,52.013621,0 -63.738714,51.999798,0 -63.705667,51.999798,0 -63.672620,51.999798,0 -63.639573,51.999798,0 -63.606525,51.999798,0 -63.395737,51.999824,0 -63.298120,51.999824,0 -63.200452,51.999824,0 -62.997467,51.999824,0 -62.794430,51.999824,0 -62.591445,51.999824,0 -62.388409,51.999824,0 -62.185372,51.999824,0 -61.982361,51.999875,0 -61.678038,51.999875,0 -61.373742,51.999875,0 -61.069445,51.999875,0 -60.765148,51.999927,0 -60.460826,51.999927,0 -60.156503,51.999927,0 -59.852207,51.999927,0 -59.547910,51.999927,0 -59.299346,51.999927,0 -59.050783,51.999979,0 -58.802219,51.999979,0 -58.553630,51.999979,0 -58.305144,51.999979,0 -58.056580,51.999979,0 -57.934494,51.999979,0 -57.812460,52.000030,0 -57.559453,52.000082,0 -57.450881,52.000082,0 -57.342205,52.000082,0 -57.233659,52.000082,0 -57.125061,52.000082,0 -57.100979,52.000082,0 -57.100954,51.935590,0 -57.100954,51.889650,0 -57.100979,51.865310,0 -57.100954,51.791594,0 -57.100876,51.717825,0 -57.100876,51.644031,0 -57.100876,51.601605,0 -57.100876,51.537035,0 -57.100876,51.483628,0 -57.100876,51.440116,0 -57.100876,51.419213,0 -57.100331,51.419013,0 -57.139516,51.425116,0 -57.162017,51.424913,0 -57.171986,51.415595,0 -57.189809,51.418809,0 -57.224233,51.439805,0 -57.246327,51.468329,0 -57.227203,51.494086,0 -57.249989,51.508287,0 -57.281117,51.506781,0 -57.359202,51.492255,0 -57.398508,51.480414,0 -57.411936,51.481391,0 -57.424224,51.484605,0 -57.437611,51.485704,0 -57.453725,51.480414,0 -57.442047,51.467882,0 -57.441233,51.456732,0 -57.449696,51.448676,0 -57.466176,51.445665,0 -57.471588,51.449164,0 -57.477040,51.464057,0 -57.483876,51.467393,0 -57.489980,51.465522,0 -57.493316,51.461046,0 -57.496246,51.456244,0 -57.500885,51.453111,0 -57.603383,51.432685,0 -57.597483,51.443427,0 -57.582021,51.457750,0 -57.576039,51.467393,0 -57.595570,51.465522,0 -57.626698,51.444648,0 -57.670644,51.434882,0 -57.678538,51.434394,0 -57.685902,51.439521,0 -57.690907,51.449042,0 -57.692250,51.460028,0 -57.690500,51.471015,0 -57.685902,51.480414,0 -57.712270,51.472602,0 -57.732655,51.470445,0 -57.748525,51.463080,0 -57.761586,51.439521,0 -57.766591,51.417182,0 -57.770741,51.408271,0 -57.778676,51.404731,0 -57.791982,51.407945,0 -57.799306,51.416205,0 -57.800649,51.427436,0 -57.795766,51.439521,0 -57.813466,51.432929,0 -57.841786,51.409776,0 -57.876861,51.400580,0 -57.926096,51.370551,0 -57.968577,51.335639,0 -57.977651,51.329657,0 -58.040151,51.313666,0 -58.049631,51.319688,0 -58.059722,51.312323,0 -58.124745,51.296088,0 -58.133656,51.296495,0 -58.147125,51.301825,0 -58.152008,51.302314,0 -58.162424,51.297187,0 -58.181874,51.284369,0 -58.234039,51.276923,0 -58.251780,51.280341,0 -58.261301,51.296088,0 -58.259511,51.316881,0 -58.254791,51.329169,0 -58.260325,51.334947,0 -58.289174,51.336412,0 -58.271230,51.327623,0 -58.299143,51.291205,0 -58.289174,51.275010,0 -58.333323,51.277655,0 -58.412262,51.308417,0 -58.453684,51.316596,0 -58.570912,51.258124,0 -58.590240,51.251085,0 -58.595855,51.268378,0 -58.608713,51.278388,0 -58.622670,51.277330,0 -58.631825,51.261339,0 -58.628326,51.258857,0 -58.621693,51.251329,0 -58.616607,51.241889,0 -58.618153,51.233385,0 -58.627431,51.230455,0 -58.641103,51.231676,0 -58.653676,51.236518,0 -58.659088,51.244249,0 -58.663482,51.257148,0 -58.671986,51.255683,0 -58.677480,51.244208,0 -58.672841,51.227240,0 -58.656484,51.210924,0 -58.635894,51.200507,0 -58.590240,51.186225,0 -58.603871,51.183580,0 -58.611073,51.174018,0 -58.616689,51.161811,0 -58.625640,51.151475,0 -58.639556,51.146308,0 -58.670155,51.141832,0 -58.683013,51.134385,0 -58.704091,51.113959,0 -58.716379,51.106513,0 -58.779408,51.093370,0 -58.789459,51.096869,0 -58.797922,51.085395,0 -58.809967,51.077582,0 -58.822092,51.077704,0 -58.830434,51.090033,0 -58.840932,51.081651,0 -58.846832,51.071519,0 -58.850942,51.055284,0 -58.842763,51.054633,0 -58.836334,51.053331,0 -58.832183,51.049628,0 -58.830434,51.041612,0 -58.848134,51.032416,0 -58.864613,51.021104,0 -58.885976,50.998358,0 -58.892486,50.994452,0 -58.912017,50.998236,0 -58.906850,51.013292,0 -58.885081,51.041612,0 -58.895497,51.054999,0 -58.913319,51.055528,0 -58.932729,51.049058,0 -58.947743,51.041612,0 -58.954742,51.036566,0 -58.965647,51.026109,0 -58.974436,51.021104,0 -58.982289,51.020575,0 -58.990061,51.022650,0 -58.998362,51.022325,0 -59.007965,51.014960,0 -58.996653,51.004136,0 -58.986562,51.002875,0 -58.976186,51.005927,0 -58.963857,51.008124,0 -58.954579,51.003119,0 -58.956695,50.991563,0 -58.966949,50.969591,0 -58.968251,50.965277,0 -58.973500,50.958564,0 -58.974436,50.953477,0 -58.971099,50.948350,0 -58.957428,50.944078,0 -58.953969,50.939195,0 -58.954010,50.928819,0 -58.956207,50.918402,0 -58.960561,50.908067,0 -58.966949,50.898261,0 -58.957387,50.897406,0 -58.950917,50.894517,0 -58.940297,50.884589,0 -58.967519,50.877021,0 -58.968617,50.860582,0 -58.958974,50.842353,0 -58.953969,50.829332,0 -58.961334,50.820665,0 -58.972890,50.816230,0 -58.983469,50.810533,0 -58.988108,50.798651,0 -58.993276,50.790839,0 -59.005279,50.785590,0 -59.029652,50.780951,0 -59.025380,50.773627,0 -59.021555,50.768256,0 -59.016265,50.764350,0 -59.007965,50.761054,0 -59.037750,50.752427,0 -59.066965,50.762397,0 -59.089101,50.784369,0 -59.097971,50.811957,0 -59.093251,50.825670,0 -59.070709,50.850653,0 -59.063222,50.863471,0 -59.062327,50.875474,0 -59.065663,50.888048,0 -59.073842,50.894355,0 -59.087758,50.887681,0 -59.098256,50.871568,0 -59.112172,50.826361,0 -59.125315,50.802069,0 -59.186025,50.758002,0 -59.186676,50.747382,0 -59.202789,50.731920,0 -59.220570,50.740424,0 -59.238433,50.755805,0 -59.254994,50.761054,0 -59.262318,50.754706,0 -59.261627,50.746202,0 -59.259511,50.736558,0 -59.262441,50.726915,0 -59.270619,50.718695,0 -59.276682,50.716539,0 -59.284006,50.716132,0 -59.295969,50.713324,0 -59.317494,50.701606,0 -59.344390,50.675116,0 -59.364858,50.664862,0 -59.378651,50.663764,0 -59.409901,50.666612,0 -59.419504,50.664862,0 -59.425160,50.658026,0 -59.424062,50.652167,0 -59.417348,50.647528,0 -59.405832,50.644395,0 -59.415598,50.631944,0 -59.427358,50.630194,0 -59.439565,50.631171,0 -59.450795,50.627021,0 -59.458119,50.617011,0 -59.468414,50.592475,0 -59.451264,50.584265,0 -59.423179,50.584368,0 -59.410497,50.572409,0 -59.411940,50.554542,0 -59.423984,50.540013,0 -59.454106,50.533749,0 -59.495996,50.537405,0 -59.510109,50.546255,0 -59.520317,50.542456,0 -59.525461,50.537584,0 -59.533274,50.531317,0 -59.544179,50.527330,0 -59.556630,50.520250,0 -59.565256,50.509141,0 -59.572621,50.495551,0 -59.581532,50.484076,0 -59.594472,50.479315,0 -59.652211,50.473700,0 -59.694081,50.461127,0 -59.725331,50.457139,0 -59.734975,50.451606,0 -59.743886,50.444648,0 -59.755849,50.438300,0 -59.768056,50.445014,0 -59.791005,50.440416,0 -59.803090,50.445746,0 -59.823842,50.430528,0 -59.862294,50.391059,0 -59.885610,50.376899,0 -59.885610,50.370673,0 -59.877553,50.369940,0 -59.858306,50.363837,0 -59.863678,50.351915,0 -59.862416,50.340522,0 -59.854726,50.331855,0 -59.840932,50.328437,0 -59.840688,50.335557,0 -59.832143,50.348944,0 -59.822133,50.356635,0 -59.817291,50.346422,0 -59.827260,50.328070,0 -59.850657,50.313585,0 -59.899281,50.294908,0 -59.922719,50.288804,0 -59.934967,50.284166,0 -59.940256,50.277899,0 -59.944325,50.261094,0 -59.954416,50.264228,0 -59.966949,50.272406,0 -59.978668,50.271064,0 -59.996327,50.255072,0 -60.016754,50.244696,0 -60.039418,50.243232,0 -60.063710,50.253974,0 -60.072336,50.245917,0 -60.080922,50.243883,0 -60.089670,50.243598,0 -60.098500,50.240302,0 -60.102203,50.236884,0 -60.108510,50.228827,0 -60.111562,50.226020,0 -60.123280,50.218695,0 -60.134877,50.212999,0 -60.140126,50.215522,0 -60.132680,50.232856,0 -60.173655,50.232856,0 -60.161936,50.240220,0 -60.155507,50.250800,0 -60.152984,50.262681,0 -60.152984,50.284857,0 -60.153472,50.288398,0 -60.176991,50.287462,0 -60.199045,50.275743,0 -60.222564,50.252387,0 -60.246490,50.234687,0 -60.269846,50.240302,0 -60.258901,50.246324,0 -60.248769,50.253974,0 -60.240346,50.263251,0 -60.235015,50.274482,0 -60.250600,50.268907,0 -60.263295,50.270941,0 -60.272084,50.279853,0 -60.276031,50.294908,0 -60.285878,50.284980,0 -60.285715,50.253282,0 -60.293691,50.246527,0 -60.331654,50.252427,0 -60.349843,50.253241,0 -60.365387,50.246527,0 -60.358022,50.239936,0 -60.354115,50.233588,0 -60.355865,50.228583,0 -60.365387,50.226020,0 -60.374623,50.228624,0 -60.382069,50.243109,0 -60.389272,50.246527,0 -60.396230,50.248725,0 -60.402455,50.252753,0 -60.409088,50.254584,0 -60.416900,50.250230,0 -60.423818,50.244371,0 -60.430776,50.241400,0 -60.438385,50.241807,0 -60.447336,50.246527,0 -60.441151,50.260810,0 -60.469146,50.255479,0 -60.499176,50.253974,0 -60.507965,50.249579,0 -60.530019,50.230333,0 -60.540435,50.226020,0 -60.599924,50.216376,0 -60.622060,50.223009,0 -60.618642,50.253974,0 -60.640452,50.237250,0 -60.651112,50.231065,0 -60.667063,50.226020,0 -60.722279,50.226020,0 -60.719228,50.230048,0 -60.717681,50.233385,0 -60.716624,50.236640,0 -60.714833,50.240302,0 -60.736236,50.240343,0 -60.752309,50.234239,0 -60.765981,50.223375,0 -60.780344,50.208970,0 -60.794057,50.204657,0 -60.821278,50.222235,0 -60.838368,50.219794,0 -60.831125,50.237250,0 -60.815541,50.248969,0 -60.795969,50.256334,0 -60.776926,50.260810,0 -60.802642,50.267076,0 -60.835561,50.256334,0 -60.930816,50.202948,0 -60.934560,50.199327,0 -60.942454,50.201239,0 -60.945912,50.205756,0 -60.947621,50.212388,0 -60.947011,50.213202,0 -60.949045,50.215562,0 -60.952138,50.218207,0 -60.955068,50.219794,0 -60.962961,50.219916,0 -60.976186,50.213487,0 -60.982330,50.212388,0 -60.996938,50.216742,0 -61.010976,50.222968,0 -61.026112,50.227240,0 -61.043813,50.226020,0 -61.048695,50.221747,0 -61.049916,50.215033,0 -61.049875,50.208604,0 -61.050649,50.205552,0 -61.057932,50.205919,0 -61.078521,50.212388,0 -61.105865,50.205552,0 -61.105865,50.203721,0 -61.108022,50.199530,0 -61.112538,50.195014,0 -61.119537,50.192491,0 -61.148590,50.202501,0 -61.160634,50.201728,0 -61.153066,50.185045,0 -61.165883,50.185411,0 -61.204579,50.201402,0 -61.225413,50.205552,0 -61.311350,50.199327,0 -61.427724,50.168647,0 -61.506256,50.158149,0 -61.585032,50.129991,0 -61.640777,50.121161,0 -61.694936,50.103135,0 -61.717885,50.100043,0 -61.784291,50.103135,0 -61.784291,50.109931,0 -61.764068,50.111274,0 -61.735260,50.126654,0 -61.719106,50.130439,0 -61.705637,50.132148,0 -61.612416,50.156684,0 -61.595611,50.158393,0 -61.581654,50.163764,0 -61.573801,50.175605,0 -61.576080,50.187364,0 -61.592519,50.192491,0 -61.610911,50.174506,0 -61.637441,50.166571,0 -61.694936,50.158393,0 -61.747711,50.138251,0 -61.776763,50.134141,0 -61.804799,50.144110,0 -61.796742,50.172065,0 -61.815582,50.190741,0 -61.839345,50.205024,0 -61.845774,50.219794,0 -61.863189,50.230170,0 -61.884877,50.233710,0 -61.924550,50.232856,0 -61.936187,50.235175,0 -61.949086,50.239447,0 -61.961578,50.241278,0 -61.972320,50.236558,0 -61.982737,50.230536,0 -61.996327,50.227362,0 -62.023915,50.226020,0 -62.133778,50.240302,0 -62.212473,50.241767,0 -62.236806,50.246527,0 -62.280507,50.263373,0 -62.299794,50.273749,0 -62.315012,50.284369,0 -62.326975,50.289171,0 -62.339670,50.287543,0 -62.352040,50.283515,0 -62.369211,50.280219,0 -62.380035,50.276842,0 -62.383616,50.277899,0 -62.387563,50.285020,0 -62.387807,50.290880,0 -62.390289,50.294501,0 -62.400624,50.294908,0 -62.412424,50.290595,0 -62.420318,50.282294,0 -62.426991,50.273505,0 -62.434804,50.267646,0 -62.450551,50.265489,0 -62.459096,50.270616,0 -62.466705,50.277696,0 -62.479482,50.281236,0 -62.595693,50.277289,0 -62.750722,50.287462,0 -62.750722,50.294908,0 -62.709137,50.309190,0 -62.709137,50.315416,0 -62.754994,50.305284,0 -62.778066,50.302680,0 -62.791656,50.309190,0 -62.798655,50.299018,0 -62.808461,50.294257,0 -62.832631,50.287462,0 -62.852447,50.294257,0 -62.931630,50.287462,0 -62.959625,50.288194,0 -62.969838,50.291327,0 -62.979726,50.298326,0 -62.993072,50.313422,0 -63.002024,50.317003,0 -63.017649,50.315416,0 -63.028554,50.309760,0 -63.044667,50.292467,0 -63.052398,50.287462,0 -63.067983,50.286200,0 -63.110422,50.294908,0 -63.158274,50.294908,0 -63.176666,50.290147,0 -63.175160,50.279364,0 -63.166005,50.267768,0 -63.161610,50.260810,0 -63.177113,50.251532,0 -63.202870,50.245103,0 -63.250640,50.240302,0 -63.334788,50.250312,0 -63.360219,50.246527,0 -63.370473,50.240465,0 -63.387034,50.224595,0 -63.395009,50.219794,0 -63.420644,50.218980,0 -63.435536,50.220201,0 -63.442209,50.222886,0 -63.447906,50.242133,0 -63.463206,50.255316,0 -63.485015,50.263536,0 -63.510406,50.267646,0 -63.536285,50.266832,0 -63.603505,50.253974,0 -63.611562,50.257148,0 -63.626047,50.271226,0 -63.637685,50.274482,0 -63.650868,50.273139,0 -63.660756,50.270819,0 -63.670400,50.270331,0 -63.682362,50.274482,0 -63.688547,50.279853,0 -63.700307,50.295233,0 -63.709625,50.301744,0 -63.722157,50.304267,0 -63.767974,50.301744,0 -63.780019,50.303900,0 -63.799794,50.313218,0 -63.808990,50.315416,0 -63.989166,50.306952,0 -64.034413,50.297187,0 -64.095855,50.290880,0 -64.106923,50.287462,0 -64.134429,50.270331,0 -64.144765,50.267646,0 -64.247467,50.270697,0 -64.348622,50.288031,0 -64.371002,50.298326,0 -64.389963,50.310045,0 -64.416737,50.318549,0 -64.445424,50.322943,0 -64.470041,50.322252,0 -64.491811,50.315660,0 -64.532623,50.298407,0 -64.629384,50.284044,0 -64.867828,50.274482,0 -64.876820,50.272650,0 -64.881256,50.272569,0 -64.888336,50.274482,0 -64.902699,50.282538,0 -64.907379,50.286933,0 -64.902008,50.287462,0 -64.916005,50.288275,0 -64.937815,50.282823,0 -65.033803,50.284166,0 -65.117055,50.297431,0 -65.151031,50.298896,0 -65.172678,50.291205,0 -65.191314,50.287299,0 -65.216949,50.298529,0 -65.258290,50.322252,0 -65.265940,50.320624,0 -65.288971,50.311591,0 -65.299916,50.309190,0 -65.456899,50.301744,0 -65.531606,50.284125,0 -65.624338,50.276964,0 -65.737172,50.257432,0 -65.838490,50.260484,0 -65.861643,50.267646,0 -65.893666,50.282416,0 -65.929189,50.292833,0 -65.964223,50.293199,0 -65.995025,50.277899,0 -66.035064,50.235419,0 -66.046539,50.226020,0 -66.062734,50.221259,0 -66.079172,50.222276,0 -66.087758,50.230333,0 -66.080719,50.246527,0 -66.103383,50.244086,0 -66.105214,50.228013,0 -66.096547,50.207628,0 -66.087514,50.192491,0 -66.109364,50.197374,0 -66.161855,50.195787,0 -66.180043,50.202460,0 -66.195058,50.212592,0 -66.212880,50.217719,0 -66.252024,50.219794,0 -66.288075,50.214667,0 -66.323232,50.205308,0 -66.357045,50.201402,0 -66.404449,50.218207,0 -66.409413,50.222480,0 -66.406239,50.229438,0 -66.404449,50.236274,0 -66.405832,50.246690,0 -66.409088,50.257270,0 -66.413075,50.264228,0 -66.429555,50.273139,0 -66.448883,50.273546,0 -66.468170,50.268500,0 -66.498931,50.252509,0 -66.529286,50.230333,0 -66.543121,50.216132,0 -66.549550,50.198310,0 -66.541005,50.184394,0 -66.512074,50.164618,0 -66.497629,50.169501,0 -66.471506,50.174140,0 -66.445139,50.175889,0 -66.430165,50.172065,0 -66.428456,50.163398,0 -66.434885,50.157538,0 -66.451283,50.150946,0 -66.461252,50.144761,0 -66.466135,50.142686,0 -66.497385,50.146308,0 -66.533193,50.158393,0 -66.543324,50.158759,0 -66.563466,50.157172,0 -66.574127,50.158393,0 -66.590932,50.164537,0 -66.618072,50.179511,0 -66.635610,50.185045,0 -66.636301,50.174994,0 -66.634348,50.165961,0 -66.629750,50.158026,0 -66.622548,50.150946,0 -66.643951,50.146308,0 -66.665924,50.134752,0 -66.701080,50.106553,0 -66.745920,50.053656,0 -66.765940,50.041083,0 -66.813954,50.027533,0 -66.912099,50.011298,0 -66.950917,49.986436,0 -66.967681,49.966783,0 -66.975087,49.955512,0 -66.978871,49.944892,0 -66.975413,49.936103,0 -66.968577,49.924913,0 -66.965932,49.915391,0 -66.991363,49.903144,0 -67.003896,49.883775,0 -67.014882,49.860948,0 -67.026601,49.842393,0 -67.044911,49.828315,0 -67.055653,49.832343,0 -67.068023,49.843126,0 -67.091176,49.849311,0 -67.112904,49.844062,0 -67.131459,49.831285,0 -67.146230,49.815660,0 -67.165883,49.788072,0 -67.174713,49.771796,0 -67.181549,49.754869,0 -67.184316,49.739366,0 -67.180328,49.722724,0 -67.172719,49.709052,0 -67.167348,49.695176,0 -67.170033,49.677965,0 -67.179921,49.665513,0 -67.212758,49.637397,0 -67.225250,49.623358,0 -67.230865,49.611558,0 -67.245107,49.568101,0 -67.233998,49.546088,0 -67.231597,49.513983,0 -67.235992,49.481635,0 -67.245107,49.458848,0 -67.268178,49.433458,0 -67.376332,49.339219,0 -67.401112,49.329698,0 -67.549306,49.331244,0 -67.583323,49.327501,0 -67.615061,49.314887,0 -67.628977,49.321275,0 -67.644887,49.320543,0 -67.673980,49.314887,0 -67.735463,49.314887,0 -67.745920,49.313218,0 -67.774648,49.303575,0 -67.783559,49.298163,0 -67.794301,49.287218,0 -67.803090,49.281968,0 -67.814076,49.280219,0 -67.861399,49.282538,0 -67.917714,49.292955,0 -67.944651,49.294379,0 -67.995839,49.287218,0 -68.026438,49.286689,0 -68.054555,49.294379,0 -68.058461,49.282457,0 -68.065663,49.273505,0 -68.082428,49.260240,0 -68.122385,49.271348,0 -68.135854,49.255683,0 -68.143178,49.228583,0 -68.164377,49.205634,0 -68.171986,49.204169,0 -68.189687,49.205878,0 -68.197865,49.205634,0 -68.206044,49.202501,0 -68.219797,49.193712,0 -68.228871,49.191962,0 -68.283681,49.194322,0 -68.300893,49.198188,0 -68.300893,49.191962,0 -68.253977,49.167060,0 -68.235422,49.164008,0 -68.203359,49.170356,0 -68.190541,49.167467,0 -68.183583,49.150987,0 -68.183583,49.143541,0 -68.181060,49.124457,0 -68.219635,49.112006,0 -68.325429,49.098456,0 -68.342926,49.090155,0 -68.376617,49.069037,0 -68.392323,49.063910,0 -68.408925,49.061754,0 -68.444325,49.061632,0 -68.382069,49.099921,0 -68.369781,49.115587,0 -68.371897,49.140326,0 -68.406484,49.163682,0 -68.403310,49.184516,0 -68.433258,49.196153,0 -68.444325,49.198188,0 -68.430165,49.183905,0 -68.417836,49.158393,0 -68.409495,49.133979,0 -68.407053,49.123033,0 -68.417592,49.119859,0 -68.451772,49.095771,0 -68.487213,49.083686,0 -68.496165,49.078437,0 -68.515004,49.069892,0 -68.574818,49.060492,0 -68.595082,49.054755,0 -68.615102,49.039496,0 -68.634592,49.017035,0 -68.644521,48.991156,0 -68.636098,48.965399,0 -68.698801,48.944892,0 -68.688629,48.932359,0 -68.655426,48.929633,0 -68.643544,48.917670,0 -68.783803,48.910834,0 -68.795318,48.907416,0 -68.802846,48.899482,0 -68.808665,48.890204,0 -68.814809,48.882880,0 -68.883127,48.847032,0 -68.906809,48.839789,0 -68.924672,48.830390,0 -68.949615,48.825751,0 -68.954172,48.819403,0 -68.955149,48.810533,0 -68.959462,48.800971,0 -68.974436,48.788194,0 -68.991119,48.782294,0 -69.037343,48.780463,0 -69.055735,48.773505,0 -69.069569,48.756212,0 -69.117909,48.630561,0 -69.144439,48.600531,0 -69.191558,48.588690,0 -69.200592,48.590888,0 -69.210601,48.594835,0 -69.220530,48.596503,0 -69.229482,48.592108,0 -69.267812,48.543280,0 -69.280629,48.511054,0 -69.287831,48.499335,0 -69.289377,48.464586,0 -69.325510,48.425279,0 -69.404449,48.362738,0 -69.430084,48.317694,0 -69.446645,48.296210,0 -69.469635,48.287055,0 -69.492421,48.281928,0 -69.511952,48.270006,0 -69.529897,48.256171,0 -69.547841,48.245429,0 -69.554351,48.244696,0 -69.569081,48.246690,0 -69.575185,48.245429,0 -69.579661,48.240424,0 -69.580434,48.234809,0 -69.580230,48.229438,0 -69.582021,48.225531,0 -69.654530,48.162909,0 -69.676015,48.149888,0 -69.698720,48.143622,0 -69.712758,48.144477,0 -69.747141,48.156684,0 -69.761708,48.158433,0 -69.798329,48.156684,0 -69.819895,48.161933,0 -69.836903,48.174872,0 -69.863149,48.205064,0 -69.882314,48.221137,0 -69.902577,48.232733,0 -69.945139,48.259101,0 -69.985097,48.278428,0 -70.037587,48.278632,0 -70.093658,48.272569,0 -70.144358,48.273383,0 -70.167307,48.283393,0 -70.211008,48.315009,0 -70.233469,48.321723,0 -70.259023,48.325059,0 -70.283518,48.333319,0 -70.369211,48.374132,0 -70.392893,48.376939,0 -70.414947,48.365831,0 -70.435170,48.362982,0 -70.634389,48.396837,0 -70.677358,48.391547,0 -70.692983,48.392808,0 -70.712880,48.403673,0 -70.747182,48.427558,0 -70.766713,48.435004,0 -70.792063,48.437812,0 -70.803456,48.436225,0 -70.813588,48.433173,0 -70.824127,48.431749,0 -70.836415,48.434678,0 -70.877553,48.449530,0 -70.987213,48.465155,0 -71.011627,48.462348,0 -71.047963,48.449042,0 -71.069814,48.444648,0 -70.997670,48.452989,0 -70.973622,48.451483,0 -70.887603,48.421617,0 -70.832631,48.414781,0 -70.805898,48.407457,0 -70.788482,48.395697,0 -70.792063,48.379747,0 -70.811391,48.369696,0 -70.838531,48.364610,0 -70.891672,48.362738,0 -70.878774,48.347602,0 -70.873850,48.333808,0 -70.865631,48.324164,0 -70.843251,48.321723,0 -70.826772,48.325670,0 -70.781809,48.348456,0 -70.744496,48.355333,0 -70.600494,48.356431,0 -70.545277,48.362738,0 -70.477528,48.356431,0 -70.462758,48.351874,0 -70.443227,48.342760,0 -70.392486,48.338121,0 -70.359609,48.328437,0 -70.345855,48.326036,0 -70.334299,48.321234,0 -70.323842,48.301093,0 -70.311269,48.299506,0 -70.297353,48.302680,0 -70.287750,48.307481,0 -70.230580,48.272773,0 -70.162953,48.245063,0 -70.092641,48.234849,0 -70.027659,48.252875,0 -70.004221,48.242011,0 -69.950307,48.230821,0 -69.924916,48.221869,0 -69.906239,48.207261,0 -69.870025,48.156684,0 -69.846669,48.142768,0 -69.818023,48.134711,0 -69.760487,48.129950,0 -69.735951,48.122504,0 -69.742421,48.105536,0 -69.774403,48.074774,0 -69.780914,48.057725,0 -69.792836,48.006293,0 -69.794911,47.988715,0 -69.801381,47.983832,0 -69.814768,47.977525,0 -69.825836,47.969957,0 -69.825592,47.961493,0 -69.824086,47.953070,0 -69.826568,47.939927,0 -69.835276,47.917060,0 -69.846791,47.900092,0 -69.894195,47.851630,0 -69.905588,47.834459,0 -69.919301,47.792304,0 -69.932037,47.773057,0 -69.942983,47.765367,0 -69.967681,47.754625,0 -69.979848,47.746405,0 -70.016957,47.708319,0 -70.034495,47.697333,0 -70.075307,47.681708,0 -70.086293,47.674058,0 -70.099721,47.668077,0 -70.115102,47.668565,0 -70.130605,47.667304,0 -70.144358,47.656358,0 -70.137115,47.642279,0 -70.155141,47.626044,0 -70.181630,47.609809,0 -70.199574,47.595526,0 -70.206166,47.579779,0 -70.206858,47.565741,0 -70.205434,47.552802,0 -70.205800,47.540269,0 -70.210113,47.528388,0 -70.217437,47.517035,0 -70.236887,47.495592,0 -70.248036,47.489569,0 -70.278391,47.482123,0 -70.302235,47.469428,0 -70.317454,47.466295,0 -70.375396,47.461412,0 -70.407379,47.453355,0 -70.437123,47.442369,0 -70.459096,47.430487,0 -70.466624,47.434556,0 -70.480295,47.440050,0 -70.486928,47.444770,0 -70.497060,47.429267,0 -70.506907,47.379625,0 -70.517405,47.368964,0 -70.533762,47.359565,0 -70.548451,47.337592,0 -70.568918,47.293280,0 -70.597727,47.249416,0 -70.617421,47.227525,0 -70.634389,47.218166,0 -70.685618,47.149237,0 -70.714955,47.117580,0 -70.750640,47.091783,0 -70.791656,47.072414,0 -70.920318,47.037218,0 -70.956858,47.020657,0 -71.191029,46.858059,0 -71.200103,46.848253,0 -71.222890,46.814521,0 -71.226877,46.810045,0 -71.231923,46.798407,0 -71.244781,46.788967,0 -71.302480,46.758857,0 -71.317860,46.756659,0 -71.341664,46.742336,0 -71.353993,46.739000,0 -71.463206,46.734483,0 -71.514760,46.724718,0 -71.592926,46.700832,0 -71.644195,46.693183,0 -71.693959,46.674384,0 -71.720204,46.670071,0 -71.772043,46.670071,0 -71.782948,46.672227,0 -71.803334,46.681627,0 -71.812652,46.683743,0 -71.840240,46.686998,0 -71.860911,46.691759,0 -71.880523,46.690660,0 -71.972035,46.629503,0 -72.013743,46.607733,0 -72.055409,46.594346,0 -72.141916,46.580715,0 -72.212473,46.561021,0 -72.227935,46.553371,0 -72.236399,46.536241,0 -72.251698,46.482327,0 -72.258046,46.470852,0 -72.296783,46.450995,0 -72.337148,46.443508,0 -72.357411,46.436672,0 -72.392649,46.419176,0 -72.440785,46.411933,0 -72.462270,46.402330,0 -72.602528,46.301337,0 -72.645090,46.286526,0 -72.667551,46.283922,0 -72.737864,46.286526,0 -72.771230,46.280911,0 -72.844472,46.264797,0 -72.913971,46.242418,0 -72.994496,46.210801,0 -72.985951,46.195299,0 -73.004628,46.140692,0 -73.022043,46.109605,0 -73.071645,46.089748,0 -73.106353,46.087266,0 -73.158559,46.074856,0 -73.179311,46.053046,0 -73.182118,46.034776,0 -73.186879,46.018378,0 -73.204091,45.983466,0 -73.262318,45.902248,0 -73.289906,45.875067,0 -73.334462,45.854641,0 -73.355865,45.841539,0 -73.372548,45.811184,0 -73.420277,45.765123,0 -73.495432,45.727891,0 -73.677398,45.708157,0 -73.755442,45.676378,0 -73.862701,45.592637,0 -73.892649,45.559068,0 -73.902415,45.540758,0 -73.909535,45.534735,0 -73.934234,45.529934,0 -73.945790,45.523993,0 -73.956451,45.516099,0 -73.964670,45.508165,0 -73.979237,45.498440,0 -74.001088,45.491278,0 -74.043446,45.483995,0 -74.104848,45.485012,0 -74.125559,45.489732,0 -74.135976,45.490790,0 -74.147450,45.494371,0 -74.173818,45.518134,0 -74.190094,45.528306,0 -74.199045,45.530911,0 -74.214752,45.532375,0 -74.306956,45.525539,0 -74.321604,45.528795,0 -74.334869,45.537014,0 -74.359527,45.559475,0 -74.379465,45.561632,0 -74.365590,45.552843,0 -74.352773,45.538235,0 -74.342885,45.522366,0 -74.329701,45.509670,0 -74.306956,45.504462,0 -74.277333,45.502794,0 -74.126536,45.465440,0 -74.101471,45.463446,0 -74.077707,45.456692,0 -74.057281,45.444485,0 -74.037709,45.438463,0 -74.016103,45.450426,0 -74.008656,45.436184,0 -74.014719,45.420315,0 -74.001943,45.396104,0 -73.980784,45.371487,0 -73.961537,45.354234,0 -73.968414,45.352037,0 -73.971506,45.350491,0 -73.975168,45.347398,0 -74.013499,45.328437,0 -74.109364,45.327460,0 -74.153310,45.320136,0 -74.168935,45.308010,0 -74.199615,45.272366,0 -74.211334,45.264879,0 -74.233754,45.262112,0 -74.307118,45.232408,0 -74.313832,45.228095,0 -74.321441,45.225002,0 -74.334543,45.223944,0 -74.346181,45.220567,0 -74.356050,45.225715,0 -74.388115,45.249538,0 -74.425788,45.277702,0 -74.450101,45.295892,0 -74.478007,45.316872,0 -74.468111,45.346690,0 -74.455812,45.384026,0 -74.441161,45.428494,0 -74.423230,45.482831,0 -74.409174,45.525180,0 -74.401810,45.547556,0 -74.393516,45.572671,0 -74.396487,45.574841,0 -74.457181,45.595047,0 -74.504387,45.597475,0 -74.545263,45.608844,0 -74.585571,45.626053,0 -74.622856,45.647963,0 -74.643655,45.656077,0 -74.665230,45.656309,0 -74.671819,45.653674,0 -74.684299,45.645741,0 -74.690965,45.642692,0 -74.696675,45.641685,0 -74.714168,45.641375,0 -74.775069,45.632512,0 -74.937539,45.637680,0 -74.966401,45.633158,0 -74.993867,45.622797,0 -75.024252,45.606674,0 -75.052959,45.595951,0 -75.283590,45.576650,0 -75.310540,45.568123,0 -75.360382,45.543732,0 -75.592771,45.479653,0 -75.656410,45.475467,0 -75.683256,45.468543,0 -75.707156,45.455520,0 -75.729041,45.435263,0 -75.752425,45.407539,0 -75.761313,45.400020,0 -75.775550,45.393819,0 -75.840998,45.387152,0 -75.855494,45.388599,0 -75.869394,45.392604,0 -75.881952,45.399503,0 -75.912699,45.427047,0 -75.925128,45.433506,0 -75.929649,45.441258,0 -75.939442,45.451696,0 -75.959415,45.468698,0 -75.969492,45.474382,0 -75.998844,45.486371,0 -76.009670,45.488025,0 -76.023132,45.505414,0 -76.048841,45.515465,0 -76.128448,45.529650,0 -76.154907,45.529469,0 -76.223223,45.519961,0 -76.228494,45.517816,0 -76.235419,45.512881,0 -76.240018,45.507662,0 -76.246607,45.495440,0 -76.249914,45.491074,0 -76.260430,45.484304,0 -76.288749,45.474072,0 -76.300970,45.471747,0 -76.314664,45.471075,0 -76.343474,45.473555,0 -76.355928,45.476863,0 -76.367814,45.483064,0 -76.390086,45.498515,0 -76.401817,45.503011,0 -76.403625,45.511176,0 -76.411609,45.512261,0 -76.432771,45.522183,0 -76.439618,45.523785,0 -76.461684,45.526420,0 -76.499589,45.538151,0 -76.596224,45.555721,0 -76.622863,45.565023,0 -76.637229,45.572412,0 -76.647461,45.580836,0 -76.654980,45.592049,0 -76.666348,45.621298,0 -76.672395,45.630238,0 -76.690171,45.647938,0 -76.698440,45.661503,0 -76.702548,45.691811,0 -76.706940,45.708011,0 -76.715286,45.721964,0 -76.725750,45.731498,0 -76.738695,45.737570,0 -76.754508,45.741110,0 -76.765360,45.760101,0 -76.773422,45.779377,0 -76.778435,45.799505,0 -76.781070,45.843714,0 -76.785954,45.861697,0 -76.797322,45.875546,0 -76.817735,45.885882,0 -76.856983,45.894718,0 -76.877550,45.895907,0 -76.902406,45.892496,0 -76.908892,45.890171,0 -76.923335,45.883763,0 -76.929537,45.868415,0 -76.927082,45.854927,0 -76.921785,45.839295,0 -76.917418,45.824025,0 -76.918013,45.811468,0 -76.935815,45.794363,0 -76.963746,45.788420,0 -76.993460,45.790229,0 -77.016611,45.796223,0 -77.056376,45.810537,0 -77.097847,45.824438,0 -77.138516,45.839786,0 -77.176033,45.858622,0 -77.200734,45.873789,0 -77.226495,45.890843,0 -77.250964,45.909446,0 -77.271893,45.929238,0 -77.282538,45.947325,0 -77.284786,45.964714,0 -77.284993,45.982181,0 -77.289360,46.000345,0 -77.307033,46.019827,0 -77.335300,46.036803,0 -77.346824,46.047629,0 -77.357986,46.058843,0 -77.372894,46.063804,0 -77.397492,46.073054,0 -77.408189,46.078118,0 -77.469038,46.115067,0 -77.658407,46.183900,0 -77.683909,46.187310,0 -77.681997,46.186690,0 -77.722408,46.193718,0 -77.920897,46.235628,0 -78.045541,46.238212,0 -78.110808,46.262603,0 -78.243513,46.272344,0 -78.292864,46.265600,0 -78.320692,46.265962,0 -78.332913,46.275780,0 -78.345057,46.289010,0 -78.372782,46.293815,0 -78.422288,46.293454,0 -78.694028,46.336500,0 -78.719789,46.347094,0 -78.730770,46.364819,0 -78.737333,46.385748,0 -78.754050,46.401406,0 -78.891226,46.470084,0 -78.931688,46.499746,0 -78.964141,46.533026,0 -78.991607,46.573385,0 -79.001348,46.595761,0 -79.005120,46.618395,0 -79.013802,46.638342,0 -79.033982,46.653768,0 -79.073385,46.676428,0 -79.096200,46.704333,0 -79.163586,46.823912,0 -79.204591,46.854763,0 -79.250532,46.889593,0 -79.292054,46.928867,0 -79.325773,46.977546,0 -79.356468,47.015218,0 -79.396337,47.049893,0 -79.431296,47.086997,0 -79.447161,47.131749,0 -79.445068,47.162496,0 -79.440029,47.193554,0 -79.436412,47.225102,0 -79.438841,47.257167,0 -79.445378,47.274686,0 -79.455971,47.290395,0 -79.468916,47.304865,0 -79.482585,47.318507,0 -79.504806,47.340935,0 -79.528008,47.365688,0 -79.554105,47.391578,0 -79.571262,47.417571,0 -79.580331,47.451833,0 -79.572786,47.484027,0 -79.554234,47.513612,0 -79.530489,47.540251,0 -79.516510,47.565727,0 -79.512919,47.596837,0 -79.514573,47.629703,0 -79.516562,47.660037,0 -79.516562,47.685823,0 -79.516200,47.711817,0 -79.516252,47.737681,0 -79.517389,47.763390,0 -79.520800,47.819510,0 -79.520800,47.872479,0 -79.520800,47.985133,0 -79.520800,48.097788,0 -79.520800,48.210443,0 -79.520800,48.323097,0 -79.520800,48.435752,0 -79.520800,48.548406,0 -79.520800,48.661061,0 -79.520800,48.773716,0 -79.520800,48.886370,0 -79.520800,48.999025,0 -79.520800,49.111680,0 -79.520800,49.224334,0 -79.520800,49.336989,0 -79.520800,49.449643,0 -79.520800,49.562298,0 -79.520800,49.674953,0 -79.520800,49.787607,0 -79.520800,49.900262,0 -79.520800,50.012917,0 -79.520800,50.125571,0 -79.520800,50.238226,0 -79.520800,50.350880,0 -79.520800,50.463535,0 -79.520800,50.576190,0 -79.520800,50.688844,0 -79.520800,50.801499,0 -79.520800,50.914154,0 -79.520823,50.942898,0 -79.423004,50.856635,0</coordinates>
          </LinearRing>
        </outerBoundaryIs>
      </Polygon>
    </Placemark>
    <Placemark>
      <name>Quebec Republic</name>
      <Polygon>
        <outerBoundaryIs>
          <LinearRing>
            <coordinates>-63.576130,54.978708,0 -63.596170,54.960490,0 -63.597992,54.944095,0 -63.594348,54.918590,0 -63.605279,54.902194,0 -63.659931,54.902194,0 -63.690901,54.916768,0 -63.738267,54.933164,0 -63.772880,54.942273,0 -63.814781,54.940451,0 -63.820246,54.918590,0 -63.845751,54.880333,0 -63.836642,54.845720,0 -63.823890,54.829324,0 -63.838464,54.812928,0 -63.884008,54.796532,0 -63.904047,54.781958,0 -63.896760,54.763741,0 -63.871255,54.747345,0 -63.789276,54.710910,0 -63.758306,54.679940,0 -63.729158,54.647148,0 -63.740089,54.623465,0 -63.802028,54.641683,0 -63.858503,54.628930,0 -63.881353,54.613351,0 -63.898582,54.601604,0 -63.965987,54.607069,0 -64.051609,54.607069,0 -64.113549,54.630752,0 -64.144519,54.667187,0 -64.162876,54.689216,0 -64.180954,54.710910,0 -64.244716,54.732771,0 -64.313943,54.765562,0 -64.392278,54.789245,0 -64.457861,54.794710,0 -64.503405,54.763741,0 -64.538019,54.740058,0 -64.576276,54.727305,0 -64.631022,54.734149,0 -64.634572,54.734592,0 -64.674391,54.735920,0 -64.689225,54.736414,0 -64.714729,54.729127,0 -64.767560,54.738236,0 -64.771371,54.750429,0 -64.776669,54.767384,0 -64.765739,54.789245,0 -64.758452,54.816571,0 -64.782134,54.834789,0 -64.811283,54.840254,0 -64.847718,54.849363,0 -64.855005,54.873046,0 -64.871401,54.889442,0 -64.940627,54.929521,0 -65.004389,54.938629,0 -65.053576,54.949560,0 -65.102764,54.956847,0 -65.162882,54.929521,0 -65.193852,54.880333,0 -65.221178,54.851185,0 -65.274009,54.836611,0 -65.295870,54.825680,0 -65.317731,54.836611,0 -65.352345,54.825680,0 -65.379671,54.823859,0 -65.399711,54.823859,0 -65.425215,54.832967,0 -65.472581,54.842076,0 -65.481690,54.816571,0 -65.458007,54.796532,0 -65.445255,54.780136,0 -65.445260,54.745520,0 -65.479868,54.730949,0 -65.545451,54.725484,0 -65.550240,54.727878,0 -65.574599,54.740058,0 -65.625609,54.749166,0 -65.651113,54.730949,0 -65.662044,54.720018,0 -65.678440,54.714553,0 -65.680606,54.714824,0 -65.698000,54.722810,0 -65.712676,54.738158,0 -65.734251,54.759345,0 -65.761898,54.778517,0 -65.791534,54.796397,0 -65.819052,54.816344,0 -65.840188,54.841872,0 -65.846699,54.856213,0 -65.849283,54.868951,0 -65.849489,54.881922,0 -65.848662,54.897011,0 -65.855975,54.907502,0 -65.873571,54.913341,0 -65.892898,54.916261,0 -65.905610,54.917630,0 -65.928503,54.922074,0 -65.949690,54.926053,0 -65.971110,54.927759,0 -65.994700,54.925433,0 -66.005862,54.921506,0 -66.017309,54.915821,0 -66.028755,54.911403,0 -66.039917,54.911016,0 -66.059321,54.918819,0 -66.078881,54.930859,0 -66.097846,54.944347,0 -66.115261,54.956594,0 -66.134123,54.965482,0 -66.155026,54.970598,0 -66.176549,54.973802,0 -66.197194,54.976800,0 -66.254322,54.998116,0 -66.256807,55.000000,0 -63.577768,55.000000,0 -63.576130,54.978708,0</coordinates>
          </LinearRing>
        </outerBoundaryIs>
      </Polygon>
    </Placemark>
    <Placemark>
      <name>Quebec Republic</name>
      <Polygon>
        <outerBoundaryIs>
          <LinearRing>
            <coordinates>-66.664788,54.996178,0 -66.660758,54.984241,0 -66.675124,54.974474,0 -66.703959,54.969100,0 -66.728195,54.959850,0 -66.728815,54.938662,0 -66.693236,54.903574,0 -66.638356,54.851691,0 -66.607117,54.803942,0 -66.642464,54.781204,0 -66.661429,54.782548,0 -66.683263,54.784977,0 -66.704424,54.784098,0 -66.721064,54.775468,0 -66.720341,54.766890,0 -66.710160,54.757485,0 -66.700497,54.748235,0 -66.701349,54.740173,0 -66.737006,54.733895,0 -66.785039,54.745806,0 -66.833254,54.764409,0 -66.869401,54.778388,0 -66.903430,54.788206,0 -66.936167,54.799084,0 -66.966501,54.814329,0 -66.993295,54.837015,0 -67.002080,54.851510,0 -67.008902,54.868770,0 -67.015878,54.884867,0 -67.025180,54.896029,0 -67.044481,54.904918,0 -67.065436,54.910240,0 -67.086726,54.914891,0 -67.106880,54.921713,0 -67.137989,54.938662,0 -67.167032,54.957111,0 -67.196746,54.974629,0 -67.230051,54.988944,0 -67.246923,54.992768,0 -67.272684,54.998426,0 -67.277733,55.000000,0 -66.668289,55.000000,0 -66.664788,54.996178,0</coordinates>
          </LinearRing>
        </outerBoundaryIs>
      </Polygon>
    </Placemark>
    <Placemark>
      <name>Quebec Republic</name>
      <Polygon>
        <outerBoundaryIs>
          <LinearRing>
            <coordinates>-59.362457,50.604682,0 -59.365712,50.605862,0 -59.367584,50.610053,0 -59.375396,50.620510,0 -59.383372,50.638821,0 -59.376291,50.652330,0 -59.359364,50.655951,0 -59.337514,50.644436,0 -59.314443,50.603461,0 -59.306508,50.596625,0 -59.295969,50.572333,0 -59.298004,50.564114,0 -59.303212,50.560858,0 -59.310048,50.559027,0 -59.317047,50.554999,0 -59.327463,50.546210,0 -59.341054,50.538031,0 -59.352935,50.537543,0 -59.358022,50.551581,0 -59.353668,50.564276,0 -59.323883,50.610256,0 -59.335520,50.616034,0 -59.342519,50.612738,0 -59.346791,50.606513,0 -59.350575,50.603461,0 -59.362457,50.604682,0</coordinates>
          </LinearRing>
        </outerBoundaryIs>
      </Polygon>
    </Placemark>
    <Placemark>
      <name>Quebec Republic</name>
      <Polygon>
        <outerBoundaryIs>
          <LinearRing>
            <coordinates>-58.408599,51.247260,0 -58.455719,51.225043,0 -58.474192,51.220404,0 -58.562896,51.233385,0 -58.553700,51.245307,0 -58.535878,51.258002,0 -58.502105,51.275051,0 -58.479482,51.277981,0 -58.433583,51.276190,0 -58.412099,51.281806,0 -58.412099,51.267564,0 -58.409535,51.263414,0 -58.408274,51.258857,0 -58.405507,51.255439,0 -58.398427,51.254543,0 -58.408599,51.247260,0</coordinates>
          </LinearRing>
        </outerBoundaryIs>
      </Polygon>
    </Placemark>
    <Placemark>
      <name>Quebec Republic</name>
      <Polygon>
        <outerBoundaryIs>
          <LinearRing>
            <coordinates>-73.987294,45.324693,0 -73.983306,45.326239,0 -73.920644,45.333808,0 -73.921864,45.327338,0 -73.924672,45.321967,0 -73.928863,45.317206,0 -73.934316,45.312690,0 -73.938059,45.310248,0 -73.948313,45.302069,0 -73.968658,45.289862,0 -73.983713,45.277045,0 -73.993276,45.272121,0 -74.003000,45.268704,0 -74.028717,45.264106,0 -74.047841,45.257636,0 -74.081044,45.252753,0 -74.139394,45.251166,0 -74.146555,45.252590,0 -74.153188,45.255601,0 -74.158681,45.260077,0 -74.165028,45.269721,0 -74.166249,45.279120,0 -74.162587,45.287787,0 -74.154205,45.295111,0 -74.141713,45.302191,0 -74.128407,45.307563,0 -74.121083,45.309068,0 -74.043568,45.305650,0 -74.032338,45.307196,0 -74.001210,45.316718,0 -73.995188,45.320136,0 -73.987294,45.324693,0</coordinates>
          </LinearRing>
        </outerBoundaryIs>
      </Polygon>
    </Placemark>
    <Placemark>
      <name>Quebec Republic</name>
      <Polygon>
        <outerBoundaryIs>
          <LinearRing>
            <coordinates>-73.875844,45.393988,0 -73.862416,45.389594,0 -73.858062,45.388902,0 -73.857900,45.385321,0 -73.858062,45.381781,0 -73.871897,45.380764,0 -73.878407,45.379218,0 -73.900706,45.368883,0 -73.906361,45.367336,0 -73.914784,45.366197,0 -73.931630,45.366889,0 -73.948476,45.369696,0 -73.951080,45.370795,0 -73.953359,45.372626,0 -73.959340,45.379096,0 -73.975209,45.391262,0 -73.981353,45.398505,0 -73.984527,45.406399,0 -73.981353,45.413398,0 -73.979115,45.414700,0 -73.976674,45.415351,0 -73.973988,45.415473,0 -73.917307,45.409980,0 -73.907297,45.406928,0 -73.902821,45.404771,0 -73.892893,45.398342,0 -73.889027,45.396715,0 -73.875844,45.393988,0</coordinates>
          </LinearRing>
        </outerBoundaryIs>
      </Polygon>
    </Placemark>
    <Placemark>
      <name>Quebec Republic</name>
      <Polygon>
        <outerBoundaryIs>
          <LinearRing>
            <coordinates>-73.936513,45.489651,0 -73.940989,45.491400,0 -73.944732,45.494208,0 -73.947336,45.498236,0 -73.946929,45.503241,0 -73.943186,45.507554,0 -73.938100,45.510932,0 -73.933827,45.513007,0 -73.896311,45.524482,0 -73.891021,45.524970,0 -73.886464,45.523383,0 -73.885121,45.512397,0 -73.899281,45.500922,0 -73.918324,45.492092,0 -73.931793,45.488837,0 -73.936513,45.489651,0</coordinates>
          </LinearRing>
        </outerBoundaryIs>
      </Polygon>
    </Placemark>
    <Placemark>
      <name>Quebec Republic</name>
      <Polygon>
        <outerBoundaryIs>
          <LinearRing>
            <coordinates>-73.864898,45.554389,0 -73.866444,45.560777,0 -73.863515,45.567857,0 -73.848622,45.584133,0 -73.827707,45.601223,0 -73.805979,45.613105,0 -73.758941,45.652533,0 -73.740875,45.664252,0 -73.717763,45.675849,0 -73.676137,45.690497,0 -73.666168,45.692206,0 -73.659250,45.691718,0 -73.645579,45.688910,0 -73.638295,45.689114,0 -73.585357,45.700629,0 -73.574330,45.701646,0 -73.564849,45.698676,0 -73.563791,45.692328,0 -73.572865,45.686103,0 -73.593821,45.677924,0 -73.612945,45.667914,0 -73.636464,45.649319,0 -73.642079,45.643215,0 -73.643951,45.640082,0 -73.648305,45.630683,0 -73.684560,45.587470,0 -73.706207,45.569485,0 -73.718332,45.562445,0 -73.731353,45.556952,0 -73.747222,45.552436,0 -73.779937,45.547105,0 -73.842681,45.545844,0 -73.857289,45.549384,0 -73.864898,45.554389,0</coordinates>
          </LinearRing>
        </outerBoundaryIs>
      </Polygon>
    </Placemark>
    <Placemark>
      <name>Quebec Republic</name>
      <Polygon>
        <outerBoundaryIs>
          <LinearRing>
            <coordinates>-73.479563,45.714423,0 -73.470611,45.713284,0 -73.468984,45.705552,0 -73.476471,45.689276,0 -73.479400,45.678290,0 -73.499582,45.626776,0 -73.501576,45.608954,0 -73.504058,45.600409,0 -73.506947,45.595689,0 -73.526723,45.576402,0 -73.532541,45.567694,0 -73.537017,45.558173,0 -73.540639,45.547797,0 -73.543080,45.536444,0 -73.543691,45.525539,0 -73.539133,45.492662,0 -73.539418,45.487372,0 -73.541371,45.482611,0 -73.544749,45.479071,0 -73.548980,45.476630,0 -73.567860,45.469387,0 -73.572011,45.466620,0 -73.575795,45.463121,0 -73.585113,45.451402,0 -73.588735,45.447943,0 -73.598215,45.443061,0 -73.608551,45.441636,0 -73.619211,45.442572,0 -73.716908,45.464545,0 -73.794830,45.467231,0 -73.800649,45.466702,0 -73.812001,45.463853,0 -73.850413,45.448879,0 -73.924916,45.429999,0 -73.943227,45.431138,0 -73.955434,45.430243,0 -73.958567,45.430976,0 -73.968332,45.437079,0 -73.970082,45.438870,0 -73.971018,45.440253,0 -73.972483,45.443264,0 -73.973622,45.444648,0 -73.962270,45.448879,0 -73.897572,45.484036,0 -73.874989,45.493109,0 -73.870676,45.496324,0 -73.854848,45.516303,0 -73.849843,45.520738,0 -73.843739,45.522650,0 -73.823476,45.522528,0 -73.802846,45.525702,0 -73.797027,45.525580,0 -73.786000,45.524156,0 -73.780181,45.524319,0 -73.766835,45.527248,0 -73.716705,45.544420,0 -73.694000,45.555325,0 -73.667958,45.575588,0 -73.648671,45.598863,0 -73.642730,45.609320,0 -73.625315,45.630316,0 -73.620717,45.638332,0 -73.609527,45.646674,0 -73.541127,45.685777,0 -73.524037,45.699530,0 -73.516672,45.704047,0 -73.508656,45.707465,0 -73.499257,45.709947,0 -73.479563,45.714423,0</coordinates>
          </LinearRing>
        </outerBoundaryIs>
      </Polygon>
    </Placemark>
    <Placemark>
      <name>Quebec Republic</name>
      <Polygon>
        <outerBoundaryIs>
          <LinearRing>
            <coordinates>-70.828481,47.030097,0 -70.815745,47.023627,0 -70.809682,47.013414,0 -70.815338,46.999091,0 -70.827952,46.987006,0 -70.861928,46.945950,0 -70.874257,46.936998,0 -70.891265,46.931708,0 -70.952504,46.895453,0 -71.031239,46.862942,0 -71.071767,46.858140,0 -71.114003,46.859442,0 -71.124745,46.877021,0 -71.085113,46.905707,0 -70.993479,46.950019,0 -70.924062,47.003241,0 -70.885406,47.026557,0 -70.843251,47.033189,0 -70.828481,47.030097,0</coordinates>
          </LinearRing>
        </outerBoundaryIs>
      </Polygon>
    </Placemark>
    <Placemark>
      <name>Quebec Republic</name>
      <Polygon>
        <outerBoundaryIs>
          <LinearRing>
            <coordinates>-61.690704,47.534044,0 -61.699127,47.527493,0 -61.743520,47.483140,0 -61.766916,47.471381,0 -61.790761,47.464545,0 -61.835683,47.432807,0 -61.859364,47.423651,0 -61.822174,47.415351,0 -61.785390,47.433824,0 -61.671539,47.537991,0 -61.636220,47.557074,0 -61.592519,47.560777,0 -61.625315,47.549262,0 -61.656361,47.530666,0 -61.708608,47.485745,0 -61.765045,47.411078,0 -61.778228,47.405829,0 -61.821523,47.409980,0 -61.836497,47.401435,0 -61.847971,47.382636,0 -61.856516,47.363918,0 -61.862782,47.355373,0 -61.901926,47.353705,0 -61.916900,47.348700,0 -61.931386,47.338324,0 -61.940500,47.326606,0 -61.956288,47.296291,0 -61.965566,47.283026,0 -61.959340,47.274075,0 -61.940989,47.262274,0 -61.920277,47.260077,0 -61.907216,47.279690,0 -61.896596,47.265204,0 -61.883412,47.255927,0 -61.866811,47.249945,0 -61.825063,47.242621,0 -61.810658,47.244330,0 -61.798451,47.251654,0 -61.784291,47.266018,0 -61.793040,47.240302,0 -61.816029,47.228339,0 -61.845367,47.225002,0 -61.873036,47.225043,0 -61.874867,47.237616,0 -61.895090,47.233710,0 -61.938222,47.218207,0 -61.988840,47.217231,0 -62.010569,47.224799,0 -62.017079,47.245510,0 -61.989735,47.273424,0 -61.967763,47.307563,0 -61.959055,47.317532,0 -61.949452,47.336168,0 -61.948557,47.382758,0 -61.941314,47.402533,0 -61.925526,47.413153,0 -61.901235,47.422065,0 -61.875600,47.428168,0 -61.856028,47.430487,0 -61.839263,47.436672,0 -61.700714,47.531887,0 -61.693512,47.536811,0 -61.562123,47.627143,0 -61.537262,47.636542,0 -61.505930,47.641425,0 -61.386342,47.643988,0 -61.382192,47.636664,0 -61.388661,47.625718,0 -61.400054,47.616034,0 -61.432525,47.608100,0 -61.448476,47.600531,0 -61.455312,47.584662,0 -61.469472,47.569485,0 -61.501088,47.556789,0 -61.533844,47.552069,0 -61.551503,47.560777,0 -61.527415,47.568793,0 -61.502309,47.582668,0 -61.481313,47.600979,0 -61.468984,47.622260,0 -61.497222,47.624335,0 -61.526601,47.622138,0 -61.554596,47.614976,0 -61.578847,47.601752,0 -61.620717,47.568183,0 -61.645985,47.552924,0 -61.671010,47.546536,0 -61.690704,47.534044,0</coordinates>
          </LinearRing>
        </outerBoundaryIs>
      </Polygon>
    </Placemark>
    <Placemark>
      <name>Quebec Republic</name>
      <Polygon>
        <outerBoundaryIs>
          <LinearRing>
            <coordinates>-64.335439,49.815497,0 -64.367177,49.825629,0 -64.388743,49.819403,0 -64.374420,49.794623,0 -64.397532,49.797838,0 -64.424713,49.808498,0 -64.447499,49.823391,0 -64.457021,49.839301,0 -64.470611,49.852444,0 -64.496205,49.858629,0 -64.510569,49.868069,0 -64.490549,49.890855,0 -64.451283,49.909491,0 -64.350901,49.927436,0 -64.293853,49.931098,0 -64.269114,49.929592,0 -64.257721,49.931220,0 -64.245188,49.937486,0 -64.237782,49.944485,0 -64.229360,49.950019,0 -64.213694,49.952338,0 -64.132802,49.950141,0 -64.027008,49.920966,0 -64.000803,49.918158,0 -63.991933,49.916205,0 -63.944651,49.896064,0 -63.698150,49.867255,0 -63.605336,49.850246,0 -63.512847,49.845526,0 -63.374664,49.829413,0 -63.208608,49.790758,0 -63.124094,49.783881,0 -63.044911,49.753730,0 -62.962148,49.740546,0 -62.938832,49.729438,0 -62.904652,49.701850,0 -62.892974,49.697455,0 -62.846303,49.698432,0 -62.775746,49.669176,0 -62.757558,49.664293,0 -62.730702,49.663153,0 -62.707916,49.659369,0 -62.687611,49.653022,0 -62.617258,49.620510,0 -62.589711,49.612698,0 -62.534250,49.604682,0 -62.512807,49.592271,0 -62.475738,49.561916,0 -62.469838,49.560004,0 -62.454091,49.557929,0 -62.448394,49.555080,0 -62.445424,49.549791,0 -62.443430,49.538479,0 -62.441640,49.534613,0 -62.397288,49.496731,0 -62.385894,49.490424,0 -62.374745,49.489976,0 -62.352854,49.493598,0 -62.339223,49.490912,0 -62.311269,49.472561,0 -62.299875,49.469631,0 -62.275746,49.468248,0 -62.264150,49.465725,0 -62.253814,49.458564,0 -62.226226,49.430894,0 -62.220082,49.427802,0 -62.213287,49.421047,0 -62.204335,49.414211,0 -62.191762,49.411078,0 -62.178090,49.409247,0 -62.133127,49.396796,0 -62.018056,49.388373,0 -62.006093,49.384223,0 -61.971791,49.366929,0 -61.951039,49.352973,0 -61.941314,49.349026,0 -61.904164,49.354193,0 -61.882639,49.354478,0 -61.865631,49.337633,0 -61.817860,49.308051,0 -61.826527,49.294989,0 -61.818918,49.286770,0 -61.790517,49.273871,0 -61.787221,49.268948,0 -61.780629,49.252997,0 -61.776845,49.246568,0 -61.771718,49.243354,0 -61.749501,49.232896,0 -61.737375,49.221340,0 -61.708608,49.184516,0 -61.684682,49.165839,0 -61.660756,49.151028,0 -61.671010,49.141059,0 -61.692983,49.129625,0 -61.702382,49.123033,0 -61.707509,49.111518,0 -61.704905,49.102973,0 -61.707021,49.097602,0 -61.726226,49.095771,0 -61.745473,49.097724,0 -61.757314,49.096869,0 -61.811635,49.069037,0 -61.824208,49.070014,0 -61.866200,49.082099,0 -61.882069,49.083686,0 -62.050649,49.074530,0 -62.129994,49.082099,0 -62.248199,49.067939,0 -62.276845,49.071601,0 -62.303334,49.079779,0 -62.322133,49.092027,0 -62.342600,49.102200,0 -62.416900,49.112006,0 -62.506256,49.138577,0 -62.681752,49.148505,0 -62.884511,49.196519,0 -63.093332,49.232896,0 -63.164662,49.262926,0 -63.212392,49.272895,0 -63.277699,49.314887,0 -63.334218,49.324408,0 -63.363637,49.340155,0 -63.382924,49.347805,0 -63.403798,49.353583,0 -63.462066,49.359361,0 -63.586781,49.389960,0 -63.573150,49.404853,0 -63.584584,49.419135,0 -63.603871,49.433498,0 -63.614125,49.448635,0 -63.614898,49.467719,0 -63.618520,49.483791,0 -63.626780,49.498440,0 -63.641428,49.513495,0 -63.677235,49.541693,0 -63.764231,49.601996,0 -63.925160,49.674872,0 -64.058827,49.714545,0 -64.177968,49.740953,0 -64.302398,49.778998,0 -64.319203,49.791246,0 -64.335439,49.815497,0</coordinates>
          </LinearRing>
        </outerBoundaryIs>
      </Polygon>
    </Placemark>
    <Placemark>
      <name>Quebec Republic</name>
      <Polygon>
        <outerBoundaryIs>
          <LinearRing>
            <coordinates>-63.912262,50.205959,0 -63.926991,50.221422,0 -63.924794,50.239651,0 -63.901479,50.253974,0 -63.898590,50.249986,0 -63.895619,50.248358,0 -63.888417,50.246527,0 -63.857533,50.217434,0 -63.856068,50.204657,0 -63.884674,50.199368,0 -63.912262,50.205959,0</coordinates>
          </LinearRing>
        </outerBoundaryIs>
      </Polygon>
    </Placemark>
    <Placemark>
      <name>Quebec Republic</name>
      <Polygon>
        <outerBoundaryIs>
          <LinearRing>
            <coordinates>-70.339711,47.427558,0 -70.323883,47.427436,0 -70.329945,47.418362,0 -70.373891,47.383857,0 -70.393178,47.372748,0 -70.411692,47.370185,0 -70.427602,47.372016,0 -70.435658,47.377021,0 -70.436594,47.386542,0 -70.433583,47.395941,0 -70.425364,47.404975,0 -70.411000,47.414374,0 -70.390736,47.422512,0 -70.369781,47.426825,0 -70.339711,47.427558,0</coordinates>
          </LinearRing>
        </outerBoundaryIs>
      </Polygon>
    </Placemark>
    <Placemark>
      <name>Quebec Republic</name>
      <Polygon>
        <outerBoundaryIs>
          <LinearRing>
            <coordinates>-58.851636,50.812654,0 -58.846323,50.789443,0 -58.861108,50.779595,0 -58.880863,50.784737,0 -58.885608,50.794251,0 -58.861186,50.833051,0 -58.851636,50.812654,0</coordinates>
          </LinearRing>
        </outerBoundaryIs>
      </Polygon>
    </Placemark>
    <Placemark>
      <name>Quebec Republic</name>
      <Polygon>
        <outerBoundaryIs>
          <LinearRing>
            <coordinates>-58.427357,51.167123,0 -58.457035,51.140671,0 -58.495659,51.120955,0 -58.569156,51.100745,0 -58.581479,51.080003,0 -58.621209,51.091776,0 -58.587327,51.119685,0 -58.546952,51.150419,0 -58.462634,51.176264,0 -58.427357,51.167123,0</coordinates>
          </LinearRing>
        </outerBoundaryIs>
      </Polygon>
    </Placemark>
    <Placemark>
      <name>Quebec Republic</name>
      <Polygon>
        <outerBoundaryIs>
          <LinearRing>
            <coordinates>-58.307071,51.235822,0 -58.326294,51.220491,0 -58.362905,51.202219,0 -58.411010,51.201632,0 -58.413882,51.222177,0 -58.388163,51.238934,0 -58.307577,51.252270,0 -58.307071,51.235822,0</coordinates>
          </LinearRing>
        </outerBoundaryIs>
      </Polygon>
    </Placemark>
  </Document>
</kml>
