<?xml version="1.0" encoding="UTF-8"?>
<kml xmlns="http://www.opengis.net/kml/2.2">
<Document>
  <Placemark>
    <name>Saudi Arabia</name>
    <Polygon>
      <outerBoundaryIs>
        <LinearRing>
          <coordinates>44.1855163466,19.4600513836,0 44.1780007990,19.4622333168,0 44.1779903239,19.4622405818,0 44.1673940558,19.4758077662,0 44.1673659354,19.4758407217,0 44.1673350678,19.4758711194,0 44.1498350678,19.4916711194,0 44.1498052134,19.4916960363,0 44.1497735130,19.4917185578,0 44.1397169025,19.4982902043,0 44.1337535534,19.5042535534,0 44.1337175917,19.5042861807,0 44.1336786347,19.5043151659,0 44.1336370499,19.5043402355,0 44.1207537510,19.5112773965,0 44.1194695795,19.5133320709,0 44.1201146473,19.5146808491,0 44.1257223532,19.5157941436,0 44.1323605272,19.5166036771,0 44.1324118923,19.5166126807,0 44.1324620403,19.5166269853,0 44.1325104257,19.5166464352,0 44.1325565221,19.5166708189,0 44.1412565221,19.5218708189,0 44.1412961695,19.5218971556,0 44.1413331330,19.5219271429,0 44.1413670776,19.5219605092,0 44.1413976957,19.5219969520,0 44.1414247098,19.5220361410,0 44.1414478751,19.5220777212,0 44.1481478751,19.5355777212,0 44.1481683838,19.5356250239,0 44.1481839123,19.5356741869,0 44.1481942955,19.5357246877,0 44.1481994232,19.5357759893,0 44.1486919042,19.5460195946,0 44.1538321713,19.5527116405,0 44.1625394261,19.5574610522,0 44.1625834883,19.5574881330,0 44.1626245173,19.5575196205,0 44.1626620742,19.5575551779,0 44.1626957571,19.5575944246,0 44.1627252057,19.5576369408,0 44.1627501048,19.5576822716,0 44.1627701881,19.5577299320,0 44.1643878277,19.5622022296,0 44.1731046935,19.5651078516,0 44.2088486507,19.5686023725,0 44.2088995861,19.5686100178,0 44.2089494648,19.5686228624,0 44.2172494648,19.5712228624,0 44.2172900604,19.5712375316,0 44.2173292396,19.5712556474,0 44.2173667103,19.5712770749,0 44.2174021932,19.5713016544,0 44.2464021932,19.5933016544,0 44.2464425020,19.5933357303,0 44.2464789939,19.5933738656,0 44.2465112624,19.5934156353,0 44.2465389478,19.5934605739,0 44.2537389478,19.6066605739,0 44.2537590892,19.6067019163,0 44.2537753469,19.6067449344,0 44.2537875834,19.6067892642,0 44.2537956953,19.6068345308,0 44.2544956953,19.6121345308,0 44.2544995931,19.6121798329,0 44.2544993594,19.6122253019,0 44.2544949960,19.6122705615,0 44.2544865391,19.6123152376,0 44.2544740585,19.6123589608,0 44.2544576575,19.6124013693,0 44.2522576575,19.6174013693,0 44.2522324368,19.6174509949,0 44.2522018559,19.6174975094,0 44.2521662940,19.6175403362,0 44.2403662940,19.6302403362,0 44.2403310977,19.6302746656,0 44.2402927000,19.6303053723,0 44.2402514721,19.6303321594,0 44.2173579710,19.6436538088,0 44.2177606489,19.6457477339,0 44.2253440030,19.6529371475,0 44.2253736389,19.6529677441,0 44.2254005630,19.6530007521,0 44.2254245799,19.6530359320,0 44.2305245799,19.6612359320,0 44.2305488289,19.6612796534,0 44.2305685903,19.6613255778,0 44.2305836667,19.6613732461,0 44.2305939072,19.6614221818,0 44.2305992095,19.6614718955,0 44.2305995206,19.6615218902,0 44.2305948373,19.6615716661,0 44.2285073716,19.6759851200,0 44.2354897868,19.7099994572,0 44.2354984606,19.7100607952,0 44.2375984606,19.7367607952,0 44.2375999190,19.7368089974,0 44.2375967271,19.7368571159,0 44.2375889144,19.7369047030,0 44.2375765537,19.7369513162,0 44.2375597599,19.7369965218,0 44.2375386893,19.7370398993,0 44.2375135379,19.7370810452,0 44.2235135379,19.7576810452,0 44.2234865493,19.7577171429,0 44.2234564197,19.7577506637,0 44.2234233939,19.7577813350,0 44.2233877403,19.7578089077,0 44.2233497486,19.7578331577,0 44.2122497486,19.7642331577,0 44.2122121598,19.7642527563,0 44.2121730459,19.7642691003,0 44.1898381860,19.7725081820,0 44.1887797107,19.7742723074,0 44.1868058293,19.7873986193,0 44.1884445591,19.7979057692,0 44.1952355691,19.7998187298,0 44.1952818950,19.7998342595,0 44.1953264840,19.7998542366,0 44.1953689103,19.7998784704,0 44.1954087688,19.7999067293,0 44.1954456788,19.7999387436,0 44.1954792879,19.7999742076,0 44.1955092752,19.8000127826,0 44.1955353542,19.8000541002,0 44.1955572761,19.8000977660,0 44.1955748314,19.8001433629,0 44.1955878524,19.8001904555,0 44.1955962150,19.8002385942,0 44.1955998392,19.8002873192,0 44.1955986903,19.8003361654,0 44.1955927795,19.8003846662,0 44.1955821631,19.8004323585,0 44.1942383470,19.8053276884,0 44.1955383599,19.8075214601,0 44.2078742545,19.8043160702,0 44.2079244564,19.8043057398,0 44.2079754522,19.8043006030,0 44.2080267059,19.8043007137,0 44.2080776790,19.8043060709,0 44.2081278358,19.8043166182,0 44.2081766494,19.8043322447,0 44.2082236068,19.8043527864,0 44.2098236068,19.8051527864,0 44.2098656421,19.8051764032,0 44.2099052072,19.8052039589,0 44.2099419342,19.8052351973,0 44.2099754817,19.8052698281,0 44.2100055376,19.8053075290,0 44.2100318224,19.8053479496,0 44.2100540918,19.8053907139,0 44.2100721386,19.8054354244,0 44.2100857951,19.8054816653,0 44.2119720089,19.8132250694,0 44.2175455816,19.8241731585,0 44.2175653959,19.8242172252,0 44.2175808645,19.8242629986,0 44.2175918427,19.8243100514,0 44.2175982282,19.8243579441,0 44.2175999612,19.8244062295,0 44.2175970256,19.8244544567,0 44.2175894489,19.8245021754,0 44.2175773017,19.8245489400,0 44.2175606974,19.8245943138,0 44.2175397913,19.8246378732,0 44.2175147784,19.8246792112,0 44.2174858923,19.8247179421,0 44.2174534027,19.8247537040,0 44.2174176132,19.8247861630,0 44.2173788577,19.8248150161,0 44.2173374984,19.8248399938,0 44.2172939212,19.8248608628,0 44.2172485333,19.8248774284,0 44.2083983494,19.8276308189,0 44.2065112718,19.8300570615,0 44.2072989458,19.8421675482,0 44.2072997168,19.8422168276,0 44.2072956324,19.8422659435,0 44.2072867323,19.8423144187,0 44.2072731031,19.8423617822,0 44.2072548771,19.8424075737,0 44.2072322314,19.8424513484,0 44.2072053860,19.8424926810,0 44.2071746019,19.8425311698,0 44.2010746019,19.8494311698,0 44.2010399491,19.8494666533,0 44.2010019513,19.8494985291,0 44.2009609824,19.8495264835,0 44.1943467152,19.8535740201,0 44.1856537977,19.8656255649,0 44.1802780068,19.8831466612,0 44.1802627912,19.8831892731,0 44.1802437857,19.8832303351,0 44.1802211460,19.8832695108,0 44.1801950574,19.8833064794,0 44.1801657337,19.8833409382,0 44.1747139635,19.8891892007,0 44.1711875377,19.8961440961,0 44.1703127560,19.9044059234,0 44.1787461463,19.9210742712,0 44.1787666253,19.9211203871,0 44.1787823521,19.9211683321,0 44.1787931665,19.9212176181,0 44.1787989584,19.9212677431,0 44.1787996688,19.9213181966,0 44.1787952904,19.9213684648,0 44.1787858679,19.9214180357,0 44.1744858679,19.9391180357,0 44.1744742930,19.9391582597,0 44.1744593945,19.9391973746,0 44.1744412766,19.9392351064,0 44.1679412766,19.9514351064,0 44.1679155921,19.9514779986,0 44.1678857526,19.9515181115,0 44.1678520565,19.9515550440,0 44.1678148405,19.9515884269,0 44.1677744769,19.9516179263,0 44.1677313692,19.9516432475,0 44.1676859482,19.9516641371,0 44.1676386682,19.9516803864,0 44.1581614176,19.9544160877,0 44.1556562547,19.9600045280,0 44.1556338994,19.9600484578,0 44.1556073275,19.9600899730,0 44.1555767969,19.9601286702,0 44.1555426045,19.9601641732,0 44.1555050826,19.9601961371,0 44.1554645958,19.9602242512,0 44.1554215375,19.9602482423,0 44.1553763263,19.9602678772,0 44.1553294014,19.9602829651,0 44.1552812190,19.9602933594,0 44.1552322473,19.9602989590,0 44.1551829622,19.9602997096,0 44.1551338426,19.9602956039,0 44.1550853661,19.9602866817,0 44.1550380035,19.9602730297,0 44.1482220678,19.9579388052,0 44.1438766389,19.9716510475,0 44.1438587514,19.9716988647,0 44.1438360810,19.9717446085,0 44.1438088642,19.9717878021,0 44.1437773846,19.9718279952,0 44.1437419706,19.9718647686,0 44.1278588662,19.9867551790,0 44.1239902903,20.0060980581,0 44.1239781133,20.0061463137,0 44.1239611993,20.0061931197,0 44.1239397160,20.0062380123,0 44.1239138761,20.0062805469,0 44.1138138761,20.0211805469,0 44.1137879026,20.0212154863,0 44.1137589881,20.0212480338,0 44.1137273520,20.0212779427,0 44.1010657093,20.0322447198,0 44.0935269961,20.0420648857,0 44.0860650898,20.0572871745,0 44.0813868799,20.0719190224,0 44.0797029298,20.0817255554,0 44.0803926308,20.0917754831,0 44.0853551832,20.1026930985,0 44.0853726039,20.1027367655,0 44.0853858463,20.1027818756,0 44.0853947932,20.1028280301,0 44.0861947932,20.1083280301,0 44.0861996029,20.1083800760,0 44.0861989531,20.1084323396,0 44.0854989531,20.1192323396,0 44.0854916057,20.1192912352,0 44.0854773312,20.1193488452,0 44.0826009323,20.1285731590,0 44.0829999626,20.1611938842,0 44.0829984109,20.1612398325,0 44.0829926453,20.1612854439,0 44.0829827145,20.1613303329,0 44.0775827145,20.1813303329,0 44.0775703207,20.1813697011,0 44.0775547221,20.1814079129,0 44.0775360252,20.1814447080,0 44.0720609712,20.1912002587,0 44.0578943712,20.2356953547,0 44.0551986740,20.2726363897,0 44.0551938012,20.2726784878,0 44.0551853810,20.2727200221,0 44.0551734738,20.2727606941,0 44.0496004945,20.2891810795,0 44.0496999910,20.3057970060,0 44.0496973368,20.3058515374,0 44.0496887529,20.3059054543,0 44.0496743416,20.3059581139,0 44.0440919713,20.3227052250,0 44.0433043091,20.3305818473,0 44.0458926540,20.3455146066,0 44.0458984476,20.3455606301,0 44.0458999511,20.3456069923,0 44.0456999511,20.3599069923,0 44.0456967863,20.3599565988,0 44.0456887115,20.3600056458,0 44.0456758068,20.3600536487,0 44.0456581995,20.3601001331,0 44.0419081387,20.3686857986,0 44.0430985083,20.3840614058,0 44.0430996258,20.3841193411,0 44.0430940328,20.3841770165,0 44.0349031408,20.4367185926,0 44.0365916796,20.4575770132,0 44.0388258035,20.4627252119,0 44.0514143171,20.4766023135,0 44.0709413024,20.4873620809,0 44.0709824769,20.4873874387,0 44.0710210093,20.4874166554,0 44.0710565391,20.4874494578,0 44.0710887341,20.4874855388,0 44.0711172930,20.4875245612,0 44.0711419489,20.4875661599,0 44.0711624710,20.4876099458,0 44.0711786674,20.4876555094,0 44.0711903866,20.4877024244,0 44.0711975190,20.4877502521,0 44.0711999979,20.4877985451,0 44.0711978001,20.4878468518,0 44.0704136060,20.4961789133,0 44.0736244485,20.5013357208,0 44.0736476944,20.5013773574,0 44.0736668681,20.5014210191,0 44.0736817953,20.5014663088,0 44.0736923400,20.5015128146,0 44.0736984065,20.5015601134,0 44.0736999395,20.5016077750,0 44.0736969252,20.5016553658,0 44.0736893908,20.5017024531,0 44.0736774050,20.5017486085,0 44.0736610767,20.5017934121,0 44.0736405546,20.5018364565,0 44.0736160251,20.5018773501,0 44.0726160251,20.5033773501,0 44.0725849797,20.5034190464,0 44.0725497728,20.5034572940,0 44.0725107850,20.5034916793,0 44.0724684377,20.5035218307,0 44.0669684377,20.5070218307,0 44.0669252621,20.5070463821,0 44.0668798636,20.5070665288,0 44.0668326903,20.5070820719,0 44.0667842077,20.5070928581,0 44.0667348941,20.5070987809,0 44.0424941867,20.5087946329,0 44.0267871744,20.5137652064,0 44.0110213338,20.5215483429,0 44.0109723341,20.5215693623,0 44.0109213747,20.5215850445,0 44.0108690351,20.5215952112,0 44.0108159105,20.5215997468,0 44.0107626050,20.5215985997,0 43.9867626050,20.5197985997,0 43.9867042827,20.5197907527,0 43.9866472862,20.5197761077,0 43.9834637719,20.5187549804,0 43.9784971451,20.5183289218,0 43.9690940544,20.5190412771,0 43.9689293594,20.5193032918,0 43.9700926540,20.5260146066,0 43.9700985891,20.5260624640,0 43.9700998861,20.5261106706,0 43.9700965331,20.5261587778,0 43.9700885613,20.5262063384,0 43.9700760448,20.5262529097,0 43.9700591000,20.5262980586,0 43.9700378845,20.5263413652,0 43.9700125958,20.5263824265,0 43.9699834690,20.5264208606,0 43.9699507751,20.5264563101,0 43.9699148182,20.5264884450,0 43.9546818149,20.5388341470,0 43.9489267519,20.5482605433,0 43.9488952813,20.5483061906,0 43.9488589502,20.5483480729,0 43.9296907147,20.5681153158,0 43.9237160251,20.5770773501,0 43.9236867736,20.5771168693,0 43.9236537822,20.5771533245,0 43.9236173697,20.5771863631,0 43.9068704621,20.5909427515,0 43.8939098229,20.6094864353,0 43.8938795506,20.6095254863,0 43.8938455719,20.6095613587,0 43.8938082184,20.6095937022,0 43.8937678551,20.6096222010,0 43.8937248759,20.6096465768,0 43.8936797008,20.6096665915,0 43.8788797008,20.6153665915,0 43.8788356305,20.6153812529,0 43.8787903898,20.6153917618,0 43.8787443693,20.6153980275,0 43.8786979659,20.6153999959,0 43.8786515800,20.6153976500,0 43.8602831710,20.6136104534,0 43.8501038914,20.6181565395,0 43.8500558122,20.6181751027,0 43.8500060775,20.6181886180,0 43.8499552158,20.6181969419,0 43.8409552158,20.6191969419,0 43.8408994344,20.6191999997,0 43.8408436601,20.6191968157,0 43.8312467506,20.6181085063,0 43.8220770398,20.6209076812,0 43.8177653757,20.6318828262,0 43.8177492086,20.6319195714,0 43.8177301458,20.6319549012,0 43.8168933887,20.6333669288,0 43.8152000000,20.6379000000,0 43.8192000000,20.6409000000,0 43.8259000000,20.6797000000,0 43.8302000000,20.6905000000,0 43.8302000000,20.7239000000,0 43.8248000000,20.7401000000,0 43.8226000000,20.7520000000,0 43.8118000000,20.7714000000,0 43.8032000000,20.7983000000,0 43.8032000000,20.8188000000,0 43.7935000000,20.8436000000,0 43.7946000000,20.8501000000,0 43.7913000000,20.8652000000,0 43.7849000000,20.8738000000,0 43.7784000000,20.8782000000,0 43.7741000000,20.8846000000,0 43.7730000000,20.8922000000,0 43.7633000000,20.9084000000,0 43.7547000000,20.9148000000,0 43.7396000000,20.9396000000,0 43.7158000000,20.9709000000,0 43.7024000000,20.9844000000,0 43.6926000000,20.9918000000,0 43.6861000000,21.0071000000,0 43.6773000000,21.0189000000,0 43.6754000000,21.0243000000,0 43.6651000000,21.0369000000,0 43.6403000000,21.0625000000,0 43.6201000000,21.0777000000,0 43.5853000000,21.0976000000,0 43.5804000000,21.1018000000,0 43.5720000000,21.1167000000,0 43.5674000000,21.1308000000,0 43.5658000000,21.1518000000,0 43.5781000000,21.1995000000,0 43.5980000000,21.2414000000,0 43.6140000000,21.2838000000,0 43.6174000000,21.2981000000,0 43.6491000000,21.3496000000,0 43.6604000000,21.3714000000,0 43.6656000000,21.3859000000,0 43.6676000000,21.3992000000,0 43.6664000000,21.4089000000,0 43.6636000000,21.4152000000,0 43.6570000000,21.4233000000,0 43.6319000000,21.4394000000,0 43.6041000000,21.4521000000,0 43.5516000000,21.4709000000,0 43.5310000000,21.4796000000,0 43.5177000000,21.4872000000,0 43.4999000000,21.4993000000,0 43.4850000000,21.5218000000,0 43.4844000000,21.5256000000,0 43.4899000000,21.5669000000,0 43.4900000000,21.5954000000,0 43.4825000000,21.6524000000,0 43.4686000000,21.7168000000,0 43.4624000000,21.7308000000,0 43.4562000000,21.7398000000,0 43.4524000000,21.7430000000,0 43.4364000000,21.7500000000,0 43.4264000000,21.7577000000,0 43.4244000000,21.7627000000,0 43.4364000000,21.7685000000,0 43.4589000000,21.7701000000,0 43.4854000000,21.7771000000,0 43.4935000000,21.7845000000,0 43.4955000000,21.7896000000,0 43.4959000000,21.7978000000,0 43.4880000000,21.8181000000,0 43.4867000000,21.8338000000,0 43.4909000000,21.8723000000,0 43.4982000000,21.8882000000,0 43.4984000000,21.8954000000,0 43.4939000000,21.9122000000,0 43.4814000000,21.9357000000,0 43.4897000000,21.9544000000,0 43.4902000000,21.9617000000,0 43.4817000000,21.9725000000,0 43.4731000000,21.9904000000,0 43.4640000000,22.0002000000,0 43.4542000000,22.0051000000,0 43.3989000000,22.0135000000,0 43.3814000000,22.0191000000,0 43.3779000000,22.0226000000,0 43.3737000000,22.0359000000,0 43.3599000000,22.1094000000,0 43.3448000000,22.1650000000,0 43.3377000000,22.1717000000,0 43.3377000000,22.1883000000,0 43.3322000000,22.2027000000,0 43.3249000000,22.2133000000,0 43.3136000000,22.2375000000,0 43.2941000000,22.2459000000,0 43.2912000000,22.2486000000,0 43.2865000000,22.2552000000,0 43.2850000000,22.2639000000,0 43.2832000000,22.2663000000,0 43.2779000000,22.2683000000,0 43.2699000000,22.2814000000,0 43.2708000000,22.2891000000,0 43.2737000000,22.2925000000,0 43.3021000000,22.3089000000,0 43.3125000000,22.3255000000,0 43.3182000000,22.3297000000,0 43.3322000000,22.3341000000,0 43.3544000000,22.3364000000,0 43.3681000000,22.3403000000,0 43.3768000000,22.3470000000,0 43.3785000000,22.3512000000,0 43.3781000000,22.3563000000,0 43.3748000000,22.3612000000,0 43.3657000000,22.3676000000,0 43.3360000000,22.3814000000,0 43.3335000000,22.3849000000,0 43.3282000000,22.4082000000,0 43.3149000000,22.4321000000,0 43.3025000000,22.4299000000,0 43.2876000000,22.4246000000,0 43.2679000000,22.4221000000,0 43.2544000000,22.4186000000,0 43.2478000000,22.4181000000,0 43.2407000000,22.4219000000,0 43.2358000000,22.4323000000,0 43.2318000000,22.4465000000,0 43.2322000000,22.4846000000,0 43.2274000000,22.4976000000,0 43.1968000000,22.5258000000,0 43.1815000000,22.5481000000,0 43.1663000000,22.5669000000,0 43.1545000000,22.5787000000,0 43.1474000000,22.5916000000,0 43.1461000000,22.6052000000,0 43.1519000000,22.6173000000,0 43.1616000000,22.6233000000,0 43.1756000000,22.6268000000,0 43.2109000000,22.6292000000,0 43.2250000000,22.6351000000,0 43.2368000000,22.6433000000,0 43.2446000000,22.6553000000,0 43.2446000000,22.6764000000,0 43.2418000000,22.6826000000,0 43.2318000000,22.6921000000,0 43.2204000000,22.6993000000,0 43.1944000000,22.7065000000,0 43.1157000000,22.7147000000,0 43.0183000000,22.7162000000,0 42.9831000000,22.7205000000,0 42.9547000000,22.7297000000,0 42.9305000000,22.7427000000,0 42.9247000000,22.7463000000,0 42.9157000000,22.7582000000,0 42.9111000000,22.7697000000,0 42.9082000000,22.7879000000,0 42.9037000000,22.8005000000,0 42.9029000000,22.8176000000,0 42.8973000000,22.8337000000,0 42.8882000000,22.8575000000,0 42.8798000000,22.8741000000,0 42.8687000000,22.8934000000,0 42.8634000000,22.8996000000,0 42.8459000000,22.9025000000,0 42.8164000000,22.9113000000,0 42.8104000000,22.9011000000,0 42.8029000000,22.8932000000,0 42.7900000000,22.8854000000,0 42.7832000000,22.8838000000,0 42.7743000000,22.8838000000,0 42.7575000000,22.8883000000,0 42.7515000000,22.8920000000,0 42.7468000000,22.8978000000,0 42.7433000000,22.9084000000,0 42.7421000000,22.9213000000,0 42.7484000000,22.9430000000,0 42.7399000000,22.9466000000,0 42.7260000000,22.9563000000,0 42.7226000000,22.9616000000,0 42.7282000000,22.9652000000,0 42.7264000000,22.9696000000,0 42.7269000000,22.9736000000,0 42.7348000000,23.0021000000,0 42.7345000000,23.0186000000,0 42.7310000000,23.0424000000,0 42.7285000000,23.0501000000,0 42.7223000000,23.0644000000,0 42.7152000000,23.0727000000,0 42.7067000000,23.0789000000,0 42.6894000000,23.0851000000,0 42.6579000000,23.0859000000,0 42.6376000000,23.0892000000,0 42.5899000000,23.0907000000,0 42.5443000000,23.1012000000,0 42.4925000000,23.1069000000,0 42.4853000000,23.1085000000,0 42.4690000000,23.1162000000,0 42.4575000000,23.1410000000,0 42.4558000000,23.1573000000,0 42.4522000000,23.1698000000,0 42.4520000000,23.1865000000,0 42.4447000000,23.2141000000,0 42.4290000000,23.2370000000,0 42.4254000000,23.2495000000,0 42.4104000000,23.2828000000,0 42.4104000000,23.3048000000,0 42.4165000000,23.3306000000,0 42.4169000000,23.3416000000,0 42.4126000000,23.3524000000,0 42.4040000000,23.3650000000,0 42.3997000000,23.3799000000,0 42.4000000000,23.3949000000,0 42.4029000000,23.4045000000,0 42.4034000000,23.4127000000,0 42.3995000000,23.4363000000,0 42.3942000000,23.4417000000,0 42.3866000000,23.4435000000,0 42.3561000000,23.4400000000,0 42.3354000000,23.4430000000,0 42.3257000000,23.4492000000,0 42.3229000000,23.4537000000,0 42.3229000000,23.4563000000,0 42.3273000000,23.4626000000,0 42.3256000000,23.4673000000,0 42.3049000000,23.4677000000,0 42.2745000000,23.4908000000,0 42.2695000000,23.5056000000,0 42.2666000000,23.5209000000,0 42.2516000000,23.5604000000,0 42.2451000000,23.5959000000,0 42.2408000000,23.6076000000,0 42.2373000000,23.6116000000,0 42.2322000000,23.6122000000,0 42.2178000000,23.6067000000,0 42.2003000000,23.6044000000,0 42.1792000000,23.5947000000,0 42.1705000000,23.5946000000,0 42.1462000000,23.6011000000,0 42.1174000000,23.5941000000,0 42.0761000000,23.5964000000,0 42.0433000000,23.5914000000,0 42.0253000000,23.5914000000,0 41.9998000000,23.5884000000,0 41.9921000000,23.5892000000,0 41.9471000000,23.5998000000,0 41.8570000000,23.6255000000,0 41.8113000000,23.6374000000,0 41.7750000000,23.6449000000,0 41.7412000000,23.6549000000,0 41.7324000000,23.6643000000,0 41.7331000000,23.6768000000,0 41.7389000000,23.6845000000,0 41.7095000000,23.6876000000,0 41.6958000000,23.6815000000,0 41.7042000000,23.6880000000,0 41.7056000000,23.7079000000,0 41.6991000000,23.7119000000,0 41.6900000000,23.7208000000,0 41.6821000000,23.7208000000,0 41.6815000000,23.7274000000,0 41.6881000000,23.7511000000,0 41.6943000000,23.7581000000,0 41.7041000000,23.7647000000,0 41.7129000000,23.7679000000,0 41.7323000000,23.7681000000,0 41.7393000000,23.7707000000,0 41.7464000000,23.7681000000,0 41.7544000000,23.7699000000,0 41.7647000000,23.7827000000,0 41.7874000000,23.7976000000,0 41.7901000000,23.7969000000,0 41.7942000000,23.7867000000,0 41.7962000000,23.7747000000,0 41.7942000000,23.7649000000,0 41.7969000000,23.7613000000,0 41.8075000000,23.7556000000,0 41.8620000000,23.7563000000,0 41.8826000000,23.7475000000,0 41.8939000000,23.7463000000,0 41.9226000000,23.7613000000,0 41.9295000000,23.7743000000,0 41.9343000000,23.7961000000,0 41.9335000000,23.8004000000,0 41.9245000000,23.8122000000,0 41.9213000000,23.8205000000,0 41.9198000000,23.8267000000,0 41.9223000000,23.8310000000,0 41.9333000000,23.8347000000,0 41.9698000000,23.8382000000,0 41.9745000000,23.8402000000,0 41.9784000000,23.8480000000,0 41.9844000000,23.8535000000,0 41.9926000000,23.8530000000,0 41.9989000000,23.8462000000,0 42.0293000000,23.8486000000,0 42.0369000000,23.8508000000,0 42.0499000000,23.8667000000,0 42.0921000000,23.9057000000,0 42.1038000000,23.9083000000,0 42.1144000000,23.9352000000,0 42.1141000000,23.9472000000,0 42.1019000000,23.9606000000,0 42.1014000000,23.9733000000,0 42.1072000000,23.9883000000,0 42.1165000000,24.0022000000,0 42.1213000000,24.0143000000,0 42.1263000000,24.0193000000,0 42.1307000000,24.0359000000,0 42.1384000000,24.0506000000,0 42.1475000000,24.0627000000,0 42.1531000000,24.0735000000,0 42.1570000000,24.0750000000,0 42.1587000000,24.0783000000,0 42.1585000000,24.0800000000,0 42.1540000000,24.0832000000,0 42.1337000000,24.0876000000,0 42.1093000000,24.0956000000,0 42.0993000000,24.0968000000,0 42.0935000000,24.0958000000,0 42.0894000000,24.1016000000,0 42.1008000000,24.1457000000,0 42.1039000000,24.1508000000,0 42.1175000000,24.1623000000,0 42.1224000000,24.1770000000,0 42.1248000000,24.1802000000,0 42.1361000000,24.1874000000,0 42.1477000000,24.2065000000,0 42.1538000000,24.2386000000,0 42.1566000000,24.2849000000,0 42.1530000000,24.3043000000,0 42.1487000000,24.3557000000,0 42.1434000000,24.3633000000,0 42.1316000000,24.3643000000,0 42.1168000000,24.3629000000,0 42.1125000000,24.3676000000,0 42.1125000000,24.3738000000,0 42.1254000000,24.3828000000,0 42.1273000000,24.3943000000,0 42.1216000000,24.3976000000,0 42.1125000000,24.3952000000,0 42.0949000000,24.3971000000,0 42.0987000000,24.4057000000,0 42.1087000000,24.4133000000,0 42.1373000000,24.4285000000,0 42.1377000000,24.4333000000,0 42.1363000000,24.4399000000,0 42.1073000000,24.4799000000,0 42.0963000000,24.5051000000,0 42.0944000000,24.5166000000,0 42.0959000000,24.5523000000,0 42.0921000000,24.5699000000,0 42.0883000000,24.5775000000,0 42.0797000000,24.5822000000,0 42.0702000000,24.5851000000,0 42.0645000000,24.5899000000,0 42.0640000000,24.5941000000,0 42.0794000000,24.6075000000,0 42.0809000000,24.6106000000,0 42.0786000000,24.6435000000,0 42.0831000000,24.6525000000,0 42.0987000000,24.6664000000,0 42.1127000000,24.6748000000,0 42.1166000000,24.6793000000,0 42.1194000000,24.6843000000,0 42.1222000000,24.7066000000,0 42.1339000000,24.7173000000,0 42.0843000000,24.8835000000,0 41.9504000000,25.1506000000,0 41.8510000000,25.2175000000,0 41.8169000000,25.2173000000,0 41.7839000000,25.2008000000,0 41.7334000000,25.2000000000,0 41.7338000000,25.1840000000,0 41.6174000000,25.2008000000,0 41.5001000000,25.3009000000,0 41.4840000000,25.3337000000,0 41.4502000000,25.3843000000,0 41.4340000000,25.4007000000,0 41.3839000000,25.4670000000,0 41.3505000000,25.5000000000,0 41.3006000000,25.5341000000,0 41.3006031403,25.5341134399,0 41.2565000000,25.4947000000,0 41.2544000000,25.4971000000,0 41.2461000000,25.4982000000,0 41.2381000000,25.5014000000,0 41.2208000000,25.5019000000,0 41.1943000000,25.5111000000,0 41.1736000000,25.5139000000,0 41.1590000000,25.5196000000,0 41.1509000000,25.5189000000,0 41.1387000000,25.5221000000,0 41.1202000000,25.5322000000,0 41.1167000000,25.5327000000,0 41.0993000000,25.5332000000,0 41.0953000000,25.5351000000,0 41.0726000000,25.5332000000,0 41.0649000000,25.5279000000,0 41.0580000000,25.5255000000,0 41.0548000000,25.5263000000,0 41.0495000000,25.5322000000,0 41.0453000000,25.5337000000,0 41.0419000000,25.5388000000,0 41.0313000000,25.5419000000,0 41.0154000000,25.5520000000,0 41.0072000000,25.5544000000,0 40.9715000000,25.5710000000,0 40.9677000000,25.5735000000,0 40.9666000000,25.5817000000,0 40.9651000000,25.5832000000,0 40.9538000000,25.5880000000,0 40.9468000000,25.5892000000,0 40.9316000000,25.5962000000,0 40.9176000000,25.5972000000,0 40.9118000000,25.5940000000,0 40.9096000000,25.5982000000,0 40.9050000000,25.5983000000,0 40.8922000000,25.5882000000,0 40.8848000000,25.5847000000,0 40.8767000000,25.5852000000,0 40.8622000000,25.5950000000,0 40.8553000000,25.5953000000,0 40.8538000000,25.5913000000,0 40.8607000000,25.5807000000,0 40.8583000000,25.5699000000,0 40.8530000000,25.5670000000,0 40.8385000000,25.5667000000,0 40.8305000000,25.5622000000,0 40.8157000000,25.5467000000,0 40.7992000000,25.5241000000,0 40.7920000000,25.5189000000,0 40.7819000000,25.5156000000,0 40.7729000000,25.5072000000,0 40.7714000000,25.4989000000,0 40.7762000000,25.4921000000,0 40.7759000000,25.4776000000,0 40.7682000000,25.4646000000,0 40.7544000000,25.4344000000,0 40.7489000000,25.4283000000,0 40.7434000000,25.4253000000,0 40.7278000000,25.4223000000,0 40.7181000000,25.4163000000,0 40.6940000000,25.4163000000,0 40.6763000000,25.4138000000,0 40.6540000000,25.4186000000,0 40.6433000000,25.4168000000,0 40.6305000000,25.4120000000,0 40.6188000000,25.4113000000,0 40.6088000000,25.4050000000,0 40.6020000000,25.4036000000,0 40.5920000000,25.4061000000,0 40.5526000000,25.4253000000,0 40.5415000000,25.4348000000,0 40.5296000000,25.4408000000,0 40.5159000000,25.4436000000,0 40.5027000000,25.4428000000,0 40.4962000000,25.4448000000,0 40.4932000000,25.4431000000,0 40.4916000000,25.4396000000,0 40.4879000000,25.4123000000,0 40.4831000000,25.4028000000,0 40.4778000000,25.3968000000,0 40.4498000000,25.3836000000,0 40.4486000000,25.3805000000,0 40.4566000000,25.3668000000,0 40.4693000000,25.3557000000,0 40.4861000000,25.3342000000,0 40.4871000000,25.3203000000,0 40.4841000000,25.2984000000,0 40.4764000000,25.2872000000,0 40.4734000000,25.2767000000,0 40.4641000000,25.2884000000,0 40.4523000000,25.2965000000,0 40.4256000000,25.3043000000,0 40.3993000000,25.3172000000,0 40.3786000000,25.3243000000,0 40.3753000000,25.3303000000,0 40.3755000000,25.3360000000,0 40.3780000000,25.3428000000,0 40.3766000000,25.3465000000,0 40.3748000000,25.3473000000,0 40.3587000000,25.3387000000,0 40.3368000000,25.3433000000,0 40.3232000000,25.3430000000,0 40.3077000000,25.3273000000,0 40.3045000000,25.3177000000,0 40.3073000000,25.3009000000,0 40.3175000000,25.2975000000,0 40.3220000000,25.2937000000,0 40.3297000000,25.2722000000,0 40.3302000000,25.2611000000,0 40.3267000000,25.2562000000,0 40.3230000000,25.2544000000,0 40.3140000000,25.2584000000,0 40.3082000000,25.2631000000,0 40.2929000000,25.2822000000,0 40.2842000000,25.2882000000,0 40.2616000000,25.2904000000,0 40.2402000000,25.2875000000,0 40.2354000000,25.2904000000,0 40.2319000000,25.2957000000,0 40.2304000000,25.3040000000,0 40.2231000000,25.3154000000,0 40.2216000000,25.3288000000,0 40.2222000000,25.3527000000,0 40.2194000000,25.3585000000,0 40.2151000000,25.3621000000,0 40.1826000000,25.3638000000,0 40.1701000000,25.3668000000,0 40.1408000000,25.3665000000,0 40.1355000000,25.3647000000,0 40.1241000000,25.3503000000,0 40.0918000000,25.3478000000,0 40.0788000000,25.3412000000,0 40.0675000000,25.3318000000,0 40.0625000000,25.3330000000,0 40.0537000000,25.3397000000,0 40.0274000000,25.3671000000,0 40.0200000000,25.3696000000,0 39.9984000000,25.3658000000,0 39.9896000000,25.3668000000,0 39.9791000000,25.3718000000,0 39.9644000000,25.3735000000,0 39.9519000000,25.3725000000,0 39.9464000000,25.3695000000,0 39.9374000000,25.3586000000,0 39.9282000000,25.3562000000,0 39.9248000000,25.3708000000,0 39.9188000000,25.3783000000,0 39.9188000000,25.3823000000,0 39.9554000000,25.4088000000,0 39.9622000000,25.4193000000,0 39.9614000000,25.4313000000,0 39.9491000000,25.4439000000,0 39.9459000000,25.4519000000,0 39.9471000000,25.4563000000,0 39.9526000000,25.4608000000,0 39.9584000000,25.4721000000,0 39.9584000000,25.4756000000,0 39.9529000000,25.4861000000,0 39.9616000000,25.4971000000,0 39.9626000000,25.5066000000,0 39.9611000000,25.5219000000,0 39.9696000000,25.5412000000,0 39.9704000000,25.5582000000,0 39.9671000000,25.5733000000,0 39.9617000000,25.5833000000,0 39.9612000000,25.5920000000,0 39.9644000000,25.6107000000,0 39.9666000000,25.6386000000,0 39.9714000000,25.6601000000,0 39.9772000000,25.6678000000,0 39.9774000000,25.6773000000,0 39.9801000000,25.6894000000,0 39.9811000000,25.7211000000,0 39.9776000000,25.7379000000,0 39.9757000000,25.7406000000,0 39.9579000000,25.7512000000,0 39.9509000000,25.7582000000,0 39.9448000000,25.7661000000,0 39.9438000000,25.7727000000,0 39.9546000000,25.8067000000,0 39.9591000000,25.8142000000,0 39.9602000000,25.8222000000,0 39.9681000000,25.8438000000,0 39.9671000000,25.8488000000,0 39.9589000000,25.8558000000,0 39.9541000000,25.8630000000,0 39.9486000000,25.8818000000,0 39.9501000000,25.8940000000,0 39.9654000000,25.9186000000,0 39.9711000000,25.9311000000,0 39.9721000000,25.9371000000,0 39.9707000000,25.9393000000,0 39.9602000000,25.9423000000,0 39.9531000000,25.9509000000,0 39.9479000000,25.9961000000,0 39.9539000000,26.0149000000,0 39.9566000000,26.0292000000,0 39.9576000000,26.0645000000,0 39.9601000000,26.0760000000,0 39.9599000000,26.0850000000,0 39.9671000000,26.0980000000,0 39.9719000000,26.1153000000,0 39.9712000000,26.1188000000,0 39.9571000000,26.1270000000,0 39.9462000000,26.1465000000,0 39.9311000000,26.1640000000,0 39.9258000000,26.1728000000,0 39.9224000000,26.1991000000,0 39.9063000000,26.2171000000,0 39.8981000000,26.2294000000,0 39.8859000000,26.2389000000,0 39.8786000000,26.2469000000,0 39.8755000000,26.2558000000,0 39.8693000000,26.2658000000,0 39.8651000000,26.2817000000,0 39.8648000000,26.3069000000,0 39.8700000000,26.3420000000,0 39.8725000000,26.3485000000,0 39.8710000000,26.3745000000,0 39.8783000000,26.3872000000,0 39.8798000000,26.3975000000,0 39.8756000000,26.4047000000,0 39.8716000000,26.4077000000,0 39.8545000000,26.4148000000,0 39.8398000000,26.4260000000,0 39.8335000000,26.4361000000,0 39.8230000000,26.4616000000,0 39.8045000000,26.4801000000,0 39.7937000000,26.4871000000,0 39.7883000000,26.4936000000,0 39.7854000000,26.5024000000,0 39.7804000000,26.5366000000,0 39.7744000000,26.5571000000,0 39.7719000000,26.5830000000,0 39.7660000000,26.5940000000,0 39.7615000000,26.6012000000,0 39.7552000000,26.6052000000,0 39.7475000000,26.6070000000,0 39.7264000000,26.6054000000,0 39.7096000000,26.5995000000,0 39.6911000000,26.5997000000,0 39.6743000000,26.6107000000,0 39.6673000000,26.6214000000,0 39.6654000000,26.6315000000,0 39.6693000000,26.6463000000,0 39.6699000000,26.6603000000,0 39.6686000000,26.6727000000,0 39.6646000000,26.6812000000,0 39.6673000000,26.7005000000,0 39.6644000000,26.7208000000,0 39.6641000000,26.7461000000,0 39.6591000000,26.7771000000,0 39.6428000000,26.7793000000,0 39.6269000000,26.7776000000,0 39.6218000000,26.7801000000,0 39.6116000000,26.7904000000,0 39.6068000000,26.7921000000,0 39.5976000000,26.7901000000,0 39.5845000000,26.7776000000,0 39.5735000000,26.7763000000,0 39.5638000000,26.7668000000,0 39.5520000000,26.7641000000,0 39.5437000000,26.7649000000,0 39.5360000000,26.7689000000,0 39.5303000000,26.7688000000,0 39.5256000000,26.7741000000,0 39.5253000000,26.7789000000,0 39.5327000000,26.7901000000,0 39.5339000000,26.7975000000,0 39.5411000000,26.8096000000,0 39.5463000000,26.8167000000,0 39.5682000000,26.8381000000,0 39.5710000000,26.8429000000,0 39.5672000000,26.8510000000,0 39.5596000000,26.8515000000,0 39.5563000000,26.8541000000,0 39.5649000000,26.8667000000,0 39.5634000000,26.8800000000,0 39.5675000000,26.8976000000,0 39.5832000000,26.9088000000,0 39.5989000000,26.9150000000,0 39.6086000000,26.9240000000,0 39.6103000000,26.9300000000,0 39.6077000000,26.9433000000,0 39.6091000000,26.9509000000,0 39.6174000000,26.9723000000,0 39.6312000000,26.9976000000,0 39.6691000000,27.0359000000,0 39.6827000000,27.0456000000,0 39.6643000000,27.0718000000,0 39.6610000000,27.1434000000,0 39.6476000000,27.2033000000,0 39.6485000000,27.2524000000,0 39.6460000000,27.2990000000,0 39.6868000000,27.3580000000,0 39.8681000000,27.4021000000,0 39.9418000000,27.4140000000,0 39.9282000000,27.4449000000,0 39.9177000000,27.4549000000,0 39.9156000000,27.4630000000,0 39.9127000000,27.5030000000,0 39.9132000000,27.5234000000,0 39.9173000000,27.5448000000,0 39.9177000000,27.5658000000,0 39.9230000000,27.5786000000,0 39.9175000000,27.6139000000,0 39.9132000000,27.6253000000,0 39.8984000000,27.6350000000,0 39.8961000000,27.6388000000,0 39.8761000000,27.6914000000,0 39.8620000000,27.7057000000,0 39.8504000000,27.7121000000,0 39.8411000000,27.7200000000,0 39.8240000000,27.7490000000,0 39.8049000000,27.7866000000,0 39.7919000000,27.7999000000,0 39.7819000000,27.8068000000,0 39.7428000000,27.8256000000,0 39.7100000000,27.8475000000,0 39.6691000000,27.8718000000,0 39.6155000000,27.9003000000,0 39.5948000000,27.9141000000,0 39.5663000000,27.9439000000,0 39.5487000000,27.9574000000,0 39.5180000000,27.9727000000,0 39.4970000000,27.9803000000,0 39.4787000000,27.9831000000,0 39.4433000000,27.9834000000,0 39.4111000000,27.9862000000,0 39.3845000000,27.9831000000,0 39.3238000000,27.9798000000,0 39.2472000000,27.9796000000,0 39.2063000000,27.9874000000,0 39.1701000000,27.9889000000,0 39.1385000000,27.9941000000,0 39.1292000000,27.9977000000,0 39.1270000000,28.0015000000,0 39.1287000000,28.0031000000,0 39.1620000000,28.0100000000,0 39.1934000000,28.0134000000,0 39.2039000000,28.0162000000,0 39.2462000000,28.0176000000,0 39.2810000000,28.0229000000,0 39.3681000000,28.0476000000,0 39.3816000000,28.0550000000,0 39.3931000000,28.0676000000,0 39.4002000000,28.0790000000,0 39.4059000000,28.0926000000,0 39.4081000000,28.1107000000,0 39.4069000000,28.1145000000,0 39.3926000000,28.1300000000,0 39.3559000000,28.1497000000,0 39.3269000000,28.1609000000,0 39.2995000000,28.1761000000,0 39.2729000000,28.1883000000,0 39.2548000000,28.1997000000,0 39.2251000000,28.2137000000,0 39.1915000000,28.2285000000,0 39.1703000000,28.2320000000,0 39.1458000000,28.2454000000,0 39.1404000000,28.2504000000,0 39.1275000000,28.2575000000,0 39.1166000000,28.2613000000,0 39.1144000000,28.2632000000,0 39.1151000000,28.2692000000,0 39.1348000000,28.2961000000,0 39.1466000000,28.3070000000,0 39.1649000000,28.3188000000,0 39.1855000000,28.3409000000,0 39.2139000000,28.3679000000,0 39.2139000000,28.3853000000,0 39.2113000000,28.4033000000,0 39.2130000000,28.4138000000,0 39.2109000000,28.4268000000,0 39.2172000000,28.4498000000,0 39.2187000000,28.4724000000,0 39.2223000000,28.4850000000,0 39.2227000000,28.5084000000,0 39.2191000000,28.5170000000,0 39.2174000000,28.5444000000,0 39.2107000000,28.5800000000,0 39.2061000000,28.5945000000,0 39.1966000000,28.6137000000,0 39.1850000000,28.6257000000,0 39.1791000000,28.6287000000,0 39.1639000000,28.6293000000,0 39.1445000000,28.6261000000,0 39.1256000000,28.6261000000,0 39.0814000000,28.6139000000,0 39.0662000000,28.6057000000,0 39.0599000000,28.5992000000,0 39.0558000000,28.5975000000,0 39.0510000000,28.6407000000,0 39.0410000000,28.6637000000,0 39.0282000000,28.6864000000,0 39.0176000000,28.7189000000,0 39.0146000000,28.7401000000,0 39.0037000000,28.7695000000,0 38.9943000000,28.8051000000,0 38.9866000000,28.8523000000,0 38.9797000000,28.8493000000,0 38.9722000000,28.8511000000,0 38.9595000000,28.8663000000,0 38.9473000000,28.8769000000,0 38.9426000000,28.8786000000,0 38.9316000000,28.8790000000,0 38.9297000000,28.8816000000,0 38.9265000000,28.8945000000,0 38.9200000000,28.8961000000,0 38.9113000000,28.9030000000,0 38.9048000000,28.9021000000,0 38.8947000000,28.8980000000,0 38.8926000000,28.8988000000,0 38.8894000000,28.9035000000,0 38.8802000000,28.9088000000,0 38.8754000000,28.9189000000,0 38.8565000000,28.9353000000,0 38.8355000000,28.9344000000,0 38.8251000000,28.9367000000,0 38.8172000000,28.9366000000,0 38.7866000000,28.9336000000,0 38.7769000000,28.9302000000,0 38.7778000000,28.9400000000,0 38.7755000000,28.9487000000,0 38.7782000000,28.9746000000,0 38.7725000000,28.9915000000,0 38.7713000000,28.9995000000,0 38.7750000000,29.0081000000,0 38.7773000000,29.0100000000,0 38.7936000000,29.0132000000,0 38.7951000000,29.0174000000,0 38.7929000000,29.0237000000,0 38.7866000000,29.0258000000,0 38.7849000000,29.0321000000,0 38.7784000000,29.0422000000,0 38.7713000000,29.0860000000,0 38.7710000000,29.1385000000,0 38.7738000000,29.2472000000,0 38.7727000000,29.2540000000,0 38.7696000000,29.2573000000,0 38.7329000000,29.2655000000,0 38.7032000000,29.2679000000,0 38.6910000000,29.2719000000,0 38.6748000000,29.2738000000,0 38.6552000000,29.2799000000,0 38.6349000000,29.2898000000,0 38.6181000000,29.3033000000,0 38.5829000000,29.3243000000,0 38.5673000000,29.3306000000,0 38.5604000000,29.3300000000,0 38.5524000000,29.3197000000,0 38.5365000000,29.2893000000,0 38.5258000000,29.2736000000,0 38.4986000000,29.2491000000,0 38.4765000000,29.2177000000,0 38.4590000000,29.2019000000,0 38.4483000000,29.1962000000,0 38.4418000000,29.1960000000,0 38.4099000000,29.2093000000,0 38.3922000000,29.2135000000,0 38.3838000000,29.2108000000,0 38.3800000000,29.2068000000,0 38.3777000000,29.1960000000,0 38.3800000000,29.1796000000,0 38.3821000000,29.1752000000,0 38.3885000000,29.1642000000,0 38.4220000000,29.1299000000,0 38.4238000000,29.1210000000,0 38.4219000000,29.1153000000,0 38.4132000000,29.1079000000,0 38.3989000000,29.1036000000,0 38.3791000000,29.0896000000,0 38.3733000000,29.0767000000,0 38.3709000000,29.0651000000,0 38.3640000000,29.0474000000,0 38.3646000000,29.0308000000,0 38.3602000000,29.0224000000,0 38.3666000000,29.0115000000,0 38.3647000000,29.0052000000,0 38.3472000000,29.0051000000,0 38.3299000000,29.0127000000,0 38.3090000000,29.0064000000,0 38.3019000000,29.0106000000,0 38.2831000000,29.0163000000,0 38.2618000000,29.0169000000,0 38.2384000000,29.0151000000,0 38.2189000000,29.0205000000,0 38.2100000000,29.0163000000,0 38.2049000000,29.0169000000,0 38.2022000000,29.0203000000,0 38.2014000000,29.0283000000,0 38.2049000000,29.0380000000,0 38.2054000000,29.0483000000,0 38.1995000000,29.0612000000,0 38.1997000000,29.0671000000,0 38.2045000000,29.0785000000,0 38.2016000000,29.0920000000,0 38.2039000000,29.1002000000,0 38.1991000000,29.1153000000,0 38.1974000000,29.1282000000,0 38.2009000000,29.1391000000,0 38.2185000000,29.1602000000,0 38.2187000000,29.1653000000,0 38.2245000000,29.1846000000,0 38.2180000000,29.1867000000,0 38.2189000000,29.1914000000,0 38.2176000000,29.1945000000,0 38.2068000000,29.1958000000,0 38.1991000000,29.2026000000,0 38.1929000000,29.2053000000,0 38.1910000000,29.2110000000,0 38.1959000000,29.2150000000,0 38.2026000000,29.2144000000,0 38.2088000000,29.2203000000,0 38.2130000000,29.2188000000,0 38.2155000000,29.2150000000,0 38.2271000000,29.2175000000,0 38.2403000000,29.2297000000,0 38.2467000000,29.2488000000,0 38.2658000000,29.2726000000,0 38.3070000000,29.3149000000,0 38.3207000000,29.3333000000,0 38.3230000000,29.3504000000,0 38.2906000000,29.3863000000,0 38.2353000000,29.4194000000,0 38.2397000000,29.4482000000,0 38.2389000000,29.4604000000,0 38.2210000000,29.4762000000,0 38.1908000000,29.5131000000,0 38.1877000000,29.5202000000,0 38.1890000000,29.5375000000,0 38.1858000000,29.5453000000,0 38.1814000000,29.5459000000,0 38.1639000000,29.5392000000,0 38.1302000000,29.5415000000,0 38.1110000000,29.5535000000,0 38.1028000000,29.5620000000,0 38.0952000000,29.5672000000,0 38.0783000000,29.5660000000,0 38.0680000000,29.5714000000,0 38.0537000000,29.5841000000,0 38.0333000000,29.5822000000,0 38.0244000000,29.5830000000,0 38.0027000000,29.5957000000,0 37.9966000000,29.5976000000,0 37.9901000000,29.5954000000,0 37.9840000000,29.5887000000,0 37.9728000000,29.5858000000,0 37.9663000000,29.5725000000,0 37.9633000000,29.5702000000,0 37.9302000000,29.5579000000,0 37.9012000000,29.5582000000,0 37.8888000000,29.5546000000,0 37.8778000000,29.5540000000,0 37.8584000000,29.5582000000,0 37.8156000000,29.5620000000,0 37.7752000000,29.5613000000,0 37.7651000000,29.5630000000,0 37.7202000000,29.5639000000,0 37.7181000000,29.5693000000,0 37.7223000000,29.5818000000,0 37.7217000000,29.6009000000,0 37.7261000000,29.6134000000,0 37.7265000000,29.6191000000,0 37.7324000000,29.6302000000,0 37.7330000000,29.6372000000,0 37.7251000000,29.6566000000,0 37.7242000000,29.6721000000,0 37.7250000000,29.6789000000,0 37.7349000000,29.6991000000,0 37.7331000000,29.7079000000,0 37.7371000000,29.7170000000,0 37.7179000000,29.7353000000,0 37.7130000000,29.7454000000,0 37.7137000000,29.7507000000,0 37.7179000000,29.7575000000,0 37.7212000000,29.7674000000,0 37.7221000000,29.7872000000,0 37.7282000000,29.7966000000,0 37.7269000000,29.8065000000,0 37.7094000000,29.8177000000,0 37.6884000000,29.8255000000,0 37.6793000000,29.8356000000,0 37.6726000000,29.8400000000,0 37.6540000000,29.8482000000,0 37.6383000000,29.8489000000,0 37.6197000000,29.8548000000,0 37.6022000000,29.8655000000,0 37.5841000000,29.8818000000,0 37.5818000000,29.8908000000,0 37.5717000000,29.8963000000,0 37.5605000000,29.9068000000,0 37.5546000000,29.9083000000,0 37.5377000000,29.9268000000,0 37.5247000000,29.9284000000,0 37.4955000000,29.9278000000,0 37.4569000000,29.9207000000,0 37.4521000000,29.9129000000,0 37.4301000000,29.9070000000,0 37.4170000000,29.9052000000,0 37.4087000000,29.9124000000,0 37.4021000000,29.9237000000,0 37.3858000000,29.9435000000,0 37.3660000000,29.9756000000,0 37.5055000000,30.0008000000,0 37.5208000000,30.0425000000,0 37.6364000000,30.2767000000,0 37.6656000000,30.3326000000,0 37.9971000000,30.5007000000,0 37.9615000000,30.5377000000,0 37.9328000000,30.5763000000,0 37.9035000000,30.6064000000,0 37.6336000000,30.8781000000,0 37.5963000000,30.9133000000,0 37.5742000000,30.9371000000,0 37.5463000000,30.9611000000,0 37.5180000000,30.9931000000,0 37.4592000000,31.0500000000,0 37.3911000000,31.1217000000,0 37.3300000000,31.1782000000,0 37.3249000000,31.1851000000,0 37.2828000000,31.2278000000,0 37.2773000000,31.2356000000,0 37.2671000000,31.2449000000,0 37.2399000000,31.2784000000,0 37.1922000000,31.3171000000,0 37.0062000000,31.5006000000,0 37.0922000000,31.5219000000,0 37.1805000000,31.5458000000,0 37.3818000000,31.5946000000,0 37.4033000000,31.6017000000,0 37.6400000000,31.6635000000,0 37.6787000000,31.6721000000,0 37.8713000000,31.7216000000,0 37.9596000000,31.7436000000,0 37.9846000000,31.7447000000,0 38.0398000000,31.7635000000,0 38.6670000000,31.9193000000,0 39.0063000000,32.0006000000,0 39.1792000000,32.1354000000,0 39.2009000000,32.1543000000,0 39.7970000000,32.0545000000,0 40.4133000000,31.9481000000,0 40.9149000000,31.6694000000,0 41.4407000000,31.3732000000,0 42.0856000000,31.1117000000,0 42.5121000000,30.8109000000,0 42.9449000000,30.5022000000,0 43.3799000000,30.1884000000,0 43.8517000000,29.8442000000,0 44.5134000000,29.3545000000,0 44.5342000000,29.3344000000,0 44.6776000000,29.2250000000,0 44.7065000000,29.2049000000,0 44.7152000000,29.1960000000,0 44.7269000000,29.1917000000,0 44.7633000000,29.1918000000,0 44.7707000000,29.1896000000,0 44.7974000000,29.1872000000,0 44.8336000000,29.1870000000,0 44.9056000000,29.1823000000,0 44.9783000000,29.1747000000,0 45.0291000000,29.1723000000,0 45.0367000000,29.1699000000,0 45.0527000000,29.1684000000,0 45.1720000000,29.1593000000,0 45.1587000000,29.1455000000,0 45.1352000000,29.1332000000,0 45.1107000000,29.1053000000,0 45.0973000000,29.0986000000,0 45.0872000000,29.0908000000,0 45.0827000000,29.0807000000,0 45.0660000000,29.0684000000,0 45.0481000000,29.0617000000,0 45.0381000000,29.0372000000,0 45.0314000000,29.0148000000,0 45.0414000000,28.9880000000,0 45.0280000000,28.9512000000,0 45.0291000000,28.9266000000,0 45.0347000000,28.9121000000,0 45.0403000000,28.8898000000,0 45.0537000000,28.8685000000,0 45.0537000000,28.8563000000,0 45.0503000000,28.8406000000,0 45.0358000000,28.8138000000,0 45.0492000000,28.7770000000,0 45.0677000000,28.7455000000,0 45.0607000000,28.7197000000,0 45.0596000000,28.6989000000,0 45.0606000000,28.6842000000,0 45.0641000000,28.6803000000,0 44.8410000000,28.0040000000,0 44.8303000000,27.9808000000,0 44.8053000000,27.9576000000,0 44.8053000000,27.9451000000,0 44.7786000000,27.9308000000,0 44.7518000000,27.9665000000,0 44.7018000000,28.0218000000,0 44.6460000000,28.0121000000,0 44.5389000000,28.0896000000,0 44.6502000000,28.0090000000,0 44.6504000000,27.8521000000,0 44.6698000000,27.8342000000,0 44.7087000000,27.7258000000,0 44.7894000000,27.6709000000,0 44.8727170544,27.6260097273,0 44.8997000000,27.6414000000,0 44.9250000000,27.6395000000,0 44.9326000000,27.6409000000,0 44.9398000000,27.6448000000,0 44.9600000000,27.6625000000,0 44.9787000000,27.6846000000,0 44.9859000000,27.6956000000,0 44.9922000000,27.6990000000,0 45.0080000000,27.6961000000,0 45.0118000000,27.6966000000,0 45.0210000000,27.7019000000,0 45.0256000000,27.7021000000,0 45.0377000000,27.6856000000,0 45.0709000000,27.6667000000,0 45.0835000000,27.6358000000,0 45.1066000000,27.5917000000,0 45.1073000000,27.5763000000,0 45.1008000000,27.5657000000,0 45.0949000000,27.5468000000,0 45.0942000000,27.4999000000,0 45.1019000000,27.4901000000,0 45.1176000000,27.4781000000,0 45.1290000000,27.4662000000,0 45.1295000000,27.4637000000,0 45.1269000000,27.4580000000,0 45.1269000000,27.4401000000,0 45.1206000000,27.4361000000,0 45.1187000000,27.4328000000,0 45.1276000000,27.4125000000,0 45.1251000000,27.4018000000,0 45.1260000000,27.3945000000,0 45.1374000000,27.3747000000,0 45.1433000000,27.3599000000,0 45.1470000000,27.3419000000,0 45.1531000000,27.3350000000,0 45.1671000000,27.3111000000,0 45.1725000000,27.3074000000,0 45.1802000000,27.3053000000,0 45.1923000000,27.2976000000,0 45.2040000000,27.2854000000,0 45.2267000000,27.2679000000,0 45.2524000000,27.2445000000,0 45.2802000000,27.2452000000,0 45.3449000000,27.2277000000,0 45.4061000000,27.2272000000,0 45.4217000000,27.2207000000,0 45.4360000000,27.2179000000,0 45.4551000000,27.2181000000,0 45.4827000000,27.2214000000,0 45.5000000000,27.2286000000,0 45.5093000000,27.2359000000,0 45.5194000000,27.2385000000,0 45.5411000000,27.2378000000,0 45.5547000000,27.2322000000,0 45.5698000000,27.2191000000,0 45.5806000000,27.2048000000,0 45.5817000000,27.1985000000,0 45.5684000000,27.1768000000,0 45.5458000000,27.1467000000,0 45.5441000000,27.1403000000,0 45.5469000000,27.1378000000,0 45.5624000000,27.1319000000,0 45.5785000000,27.1219000000,0 45.6250000000,27.1009000000,0 45.6437000000,27.0894000000,0 45.6687000000,27.0777000000,0 45.6995000000,27.0731000000,0 45.7350000000,27.0558000000,0 45.7373000000,27.0537000000,0 45.7418000000,27.0411000000,0 45.7502000000,27.0280000000,0 45.7838000000,27.0000000000,0 45.7905000000,26.9977000000,0 45.8180000000,26.9826000000,0 45.8462000000,26.9595000000,0 45.8801000000,26.9377000000,0 45.8905000000,26.9269000000,0 45.9231000000,26.9105000000,0 45.9512000000,26.8913000000,0 45.9660000000,26.8840000000,0 45.9945000000,26.8638000000,0 46.0049000000,26.8524000000,0 46.0254000000,26.8400000000,0 46.0365000000,26.8262000000,0 46.0358000000,26.8108000000,0 46.0445000000,26.8031000000,0 46.0482000000,26.8021000000,0 46.0573000000,26.8038000000,0 46.0751000000,26.8122000000,0 46.0972000000,26.8175000000,0 46.1184000000,26.8323000000,0 46.1304000000,26.8457000000,0 46.1489000000,26.8605000000,0 46.1798000000,26.8783000000,0 46.1912000000,26.8816000000,0 46.1942000000,26.8799000000,0 46.1952000000,26.8769000000,0 46.1989000000,26.8484000000,0 46.2012000000,26.8440000000,0 46.2039000000,26.8407000000,0 46.2163000000,26.8353000000,0 46.2193000000,26.8320000000,0 46.2298000000,26.8105000000,0 46.2469000000,26.8065000000,0 46.2516000000,26.8038000000,0 46.2626000000,26.7850000000,0 46.2653000000,26.7830000000,0 46.2730000000,26.7890000000,0 46.2767000000,26.7950000000,0 46.2824000000,26.8118000000,0 46.2841000000,26.8138000000,0 46.2871000000,26.8142000000,0 46.3358000000,26.7826000000,0 46.3596000000,26.7712000000,0 46.3767000000,26.7595000000,0 46.4049000000,26.7450000000,0 46.4284000000,26.7356000000,0 46.4754000000,26.7122000000,0 46.4794000000,26.7112000000,0 46.4854000000,26.7132000000,0 46.4881000000,26.7125000000,0 46.4921000000,26.7081000000,0 46.5066000000,26.7000000000,0 46.5526000000,26.6802000000,0 46.5834000000,26.6643000000,0 46.6301000000,26.6475000000,0 46.6366000000,26.6478000000,0 46.6431000000,26.6679000000,0 46.6489000000,26.6753000000,0 46.6525000000,26.6766000000,0 46.7076000000,26.6565000000,0 46.7180000000,26.6514000000,0 46.7345000000,26.6475000000,0 46.7481000000,26.6468000000,0 46.7656000000,26.6501000000,0 46.8000000000,26.6523000000,0 46.8178000000,26.6478000000,0 46.8434000000,26.6381000000,0 46.8538000000,26.6403000000,0 46.8567000000,26.6429000000,0 46.8811000000,26.6689000000,0 46.8911000000,26.6818000000,0 46.9112000000,26.6669000000,0 46.9371000000,26.6316000000,0 46.9446000000,26.6241000000,0 46.9705000000,26.6024000000,0 46.9978000000,26.5833000000,0 47.0252000000,26.5928000000,0 47.0408000000,26.5940000000,0 47.0511000000,26.5796000000,0 47.0655000000,26.5704000000,0 47.0918000000,26.5778000000,0 47.1025000000,26.5833000000,0 47.1100000000,26.5816000000,0 47.1258000000,26.5372000000,0 47.1336000000,26.5233000000,0 47.1459000000,26.5090000000,0 47.1566000000,26.5058000000,0 47.1868000000,26.4815000000,0 47.1955000000,26.4734000000,0 47.2069000000,26.4584000000,0 47.2234000000,26.4510000000,0 47.2364000000,26.4422000000,0 47.2419000000,26.4367000000,0 47.2552000000,26.4156000000,0 47.2893000000,26.3819000000,0 47.2970000000,26.3803000000,0 47.3009000000,26.3822000000,0 47.3220000000,26.3968000000,0 47.3304000000,26.4069000000,0 47.3340000000,26.4082000000,0 47.3444000000,26.4085000000,0 47.3713000000,26.3952000000,0 47.3781000000,26.3933000000,0 47.4027000000,26.3904000000,0 47.4160000000,26.3923000000,0 47.4332000000,26.4020000000,0 47.4371000000,26.4027000000,0 47.4468000000,26.4004000000,0 47.4552000000,26.4017000000,0 47.4679000000,26.4085000000,0 47.4799000000,26.4186000000,0 47.4870000000,26.4205000000,0 47.4958000000,26.4134000000,0 47.4994000000,26.4059000000,0 47.5088000000,26.3955000000,0 47.5123000000,26.3861000000,0 47.5227000000,26.3715000000,0 47.5289000000,26.3527000000,0 47.5315000000,26.3313000000,0 47.5418000000,26.3106000000,0 47.5541000000,26.2921000000,0 47.5584000000,26.2652000000,0 47.5707000000,26.2341000000,0 47.5940000000,26.1916000000,0 47.5982000000,26.1803000000,0 47.6002000000,26.1640000000,0 47.6099000000,26.1400000000,0 47.6102000000,26.1209000000,0 47.6044000000,26.0982000000,0 47.5960000000,26.0924000000,0 47.5794000000,26.0891000000,0 47.5700000000,26.0797000000,0 47.5697000000,26.0755000000,0 47.5720000000,26.0661000000,0 47.5950000000,26.0272000000,0 47.6080000000,26.0117000000,0 47.6220000000,25.9868000000,0 47.6259000000,25.9696000000,0 47.6277000000,25.9495000000,0 47.6268000000,25.9345000000,0 47.6197000000,25.9172000000,0 47.6195000000,25.9047000000,0 47.6227000000,25.8879000000,0 47.6270000000,25.8788000000,0 47.6434000000,25.8636000000,0 47.6649000000,25.8480000000,0 47.6873000000,25.8347000000,0 47.7013000000,25.8228000000,0 47.7030000000,25.8090000000,0 47.6996000000,25.7918000000,0 47.6820000000,25.7733000000,0 47.6794000000,25.7685000000,0 47.6793000000,25.7632000000,0 47.6811000000,25.7593000000,0 47.6953000000,25.7483000000,0 47.7156000000,25.7362000000,0 47.7207000000,25.7289000000,0 47.7188000000,25.7237000000,0 47.7154000000,25.7209000000,0 47.7080000000,25.7162000000,0 47.6852000000,25.7080000000,0 47.6772000000,25.7022000000,0 47.6738000000,25.6974000000,0 47.6636000000,25.6602000000,0 47.6550000000,25.6085000000,0 47.6440000000,25.5766000000,0 47.6423000000,25.5647000000,0 47.6615000000,25.5307000000,0 47.6718000000,25.5182000000,0 47.7022000000,25.4744000000,0 47.7207000000,25.4382000000,0 47.7404000000,25.4092000000,0 47.7384000000,25.4049000000,0 47.7388000000,25.3959000000,0 47.7341000000,25.3864000000,0 47.7298000000,25.3843000000,0 47.7229000000,25.3856000000,0 47.7186000000,25.3838000000,0 47.7263000000,25.3718000000,0 47.7280000000,25.3602000000,0 47.7315000000,25.3568000000,0 47.7328000000,25.3525000000,0 47.7259000000,25.3477000000,0 47.7259000000,25.3293000000,0 47.7289000000,25.3250000000,0 47.7414000000,25.3198000000,0 47.7405000000,25.3065000000,0 47.7457000000,25.3017000000,0 47.7504000000,25.3017000000,0 47.7543000000,25.2966000000,0 47.7543000000,25.2923000000,0 47.7577000000,25.2936000000,0 47.7607000000,25.2880000000,0 47.7745000000,25.2755000000,0 47.7796000000,25.2682000000,0 47.6700000000,25.1840000000,0 47.6593000000,25.1792000000,0 47.6455000000,25.1698000000,0 47.6374000000,25.1620000000,0 47.6227000000,25.1534000000,0 47.6214000000,25.1483000000,0 47.6300000000,25.1354000000,0 47.6333000000,25.1238000000,0 47.6279000000,25.1202000000,0 47.6274000000,25.1161000000,0 47.6395000000,25.1006000000,0 47.6406000000,25.0944000000,0 47.6363000000,25.0862000000,0 47.6348000000,25.0717000000,0 47.6311000000,25.0580000000,0 47.6195000000,25.0358000000,0 47.6094000000,25.0269000000,0 47.6068000000,25.0237000000,0 47.6065000000,25.0200000000,0 47.6091000000,25.0149000000,0 47.6160000000,25.0097000000,0 47.6380000000,24.9830000000,0 47.6434000000,24.9786000000,0 47.6698000000,24.9715000000,0 47.6760000000,24.9671000000,0 47.6970000000,24.9421000000,0 47.7014000000,24.9350000000,0 47.7012000000,24.9257000000,0 47.7073000000,24.9059000000,0 47.7264000000,24.8787000000,0 47.7428000000,24.8494000000,0 47.7413000000,24.8281000000,0 47.7372000000,24.8092000000,0 47.7396000000,24.7989000000,0 47.7391000000,24.7918000000,0 47.7355000000,24.7843000000,0 47.7345000000,24.7757000000,0 47.7293000000,24.7644000000,0 47.7330000000,24.7404000000,0 47.7357000000,24.7333000000,0 47.7386000000,24.7081000000,0 47.7377000000,24.6687000000,0 47.7428000000,24.6540000000,0 47.7426000000,24.6303000000,0 47.7394000000,24.6110000000,0 47.7357000000,24.5992000000,0 47.7335000000,24.5950000000,0 47.7220000000,24.5857000000,0 47.7210000000,24.5826000000,0 47.7210000000,24.5786000000,0 47.7247000000,24.5693000000,0 47.7267000000,24.5502000000,0 47.7330000000,24.5319000000,0 47.7325000000,24.5218000000,0 47.7259000000,24.5128000000,0 47.7301000000,24.5094000000,0 47.7399000000,24.5096000000,0 47.7575000000,24.5194000000,0 47.7832000000,24.5265000000,0 47.8077000000,24.5299000000,0 47.8366000000,24.5370000000,0 47.8799000000,24.5392000000,0 47.9022000000,24.5466000000,0 47.9296000000,24.5581000000,0 47.9489000000,24.5728000000,0 47.9658000000,24.5826000000,0 47.9719000000,24.5840000000,0 47.9741000000,24.5823000000,0 47.9783000000,24.5613000000,0 47.9881000000,24.5341000000,0 47.9998000000,24.4866000000,0 48.0052000000,24.4748000000,0 48.0053000000,24.4623000000,0 48.0254000000,24.4251000000,0 48.0377000000,24.4092000000,0 48.0463000000,24.4010000000,0 48.0503000000,24.3891000000,0 48.0646000000,24.3653000000,0 48.0743000000,24.3519000000,0 48.0909000000,24.3369000000,0 48.0970000000,24.3243000000,0 48.1019000000,24.2928000000,0 48.1065000000,24.2815000000,0 48.1047000000,24.2742000000,0 48.0966000000,24.2626000000,0 48.0979000000,24.2467000000,0 48.1061000000,24.2271000000,0 48.1074000000,24.2196000000,0 48.1047000000,24.2019000000,0 48.1169000000,24.1792000000,0 48.1266000000,24.1706000000,0 48.1341000000,24.1605000000,0 48.1420000000,24.1424000000,0 48.1442000000,24.1358000000,0 48.1446000000,24.1142000000,0 48.1526000000,24.0849000000,0 48.1539000000,24.0608000000,0 48.1400000000,24.0313000000,0 48.1360000000,24.0073000000,0 48.1205000000,23.9921000000,0 48.1128000000,23.9742000000,0 48.1125000000,23.9659000000,0 48.1152000000,23.9536000000,0 48.1137000000,23.9357000000,0 48.1190000000,23.9204000000,0 48.1205000000,23.9054000000,0 48.1252000000,23.8957000000,0 48.1325000000,23.8860000000,0 48.1346000000,23.8781000000,0 48.1343000000,23.8622000000,0 48.1313000000,23.8469000000,0 48.1357000000,23.8366000000,0 48.1378000000,23.8243000000,0 48.1363000000,23.8202000000,0 48.1266000000,23.8110000000,0 48.1219000000,23.8025000000,0 48.1190000000,23.7755000000,0 48.1207000000,23.7661000000,0 48.1316000000,23.7567000000,0 48.1337000000,23.7517000000,0 48.1319000000,23.7338000000,0 48.1381000000,23.7011000000,0 48.1378000000,23.6891000000,0 48.1399000000,23.6811000000,0 48.1366000000,23.6720000000,0 48.1340000000,23.6397000000,0 48.1237000000,23.5715000000,0 48.1143000000,23.5345000000,0 48.1043000000,23.5092000000,0 48.1052000000,23.4933000000,0 48.1040000000,23.4842000000,0 48.1002000000,23.4640000000,0 48.0961000000,23.4525000000,0 48.0919000000,23.4237000000,0 48.0934000000,23.4090000000,0 48.0999000000,23.3958000000,0 48.1025000000,23.3864000000,0 48.1034000000,23.3561000000,0 48.1066000000,23.3326000000,0 48.1099000000,23.2770000000,0 48.1093000000,23.2521000000,0 48.1072000000,23.2335000000,0 48.1011000000,23.2059000000,0 48.0955000000,23.1897000000,0 48.0955000000,23.1777000000,0 48.0917000000,23.1633000000,0 48.0893000000,23.1266000000,0 48.0823000000,23.1098000000,0 48.0837000000,23.0895000000,0 48.0875000000,23.0784000000,0 48.0902000000,23.0572000000,0 48.0814000000,22.9966000000,0 48.0767000000,22.9778000000,0 48.0854000000,22.9594000000,0 48.0890000000,22.9469000000,0 48.0887000000,22.9350000000,0 48.0837000000,22.9150000000,0 48.0905000000,22.9015000000,0 48.0902000000,22.8961000000,0 48.0799000000,22.8637000000,0 48.0767000000,22.8413000000,0 48.0714000000,22.8259000000,0 48.0707000000,22.7990000000,0 48.0612000000,22.7572000000,0 48.0639000000,22.7352000000,0 48.0632000000,22.7286000000,0 48.0574000000,22.7073000000,0 48.0547000000,22.6854000000,0 48.0411000000,22.6491000000,0 48.0376000000,22.6301000000,0 48.0306000000,22.6083000000,0 48.0329000000,22.5737000000,0 48.0141000000,22.5264000000,0 48.0212000000,22.5074000000,0 48.0227000000,22.4977000000,0 48.0227000000,22.4912000000,0 48.0201000000,22.4812000000,0 48.0061000000,22.4518000000,0 47.9925000000,22.4349000000,0 47.9894000000,22.4224000000,0 47.9886000000,22.4016000000,0 47.9817000000,22.3833000000,0 47.9732000000,22.3675000000,0 47.9663000000,22.3582000000,0 47.9501000000,22.3433000000,0 47.9447000000,22.3310000000,0 47.9279000000,22.3032000000,0 47.9110000000,22.2826000000,0 47.9022000000,22.2595000000,0 47.8821000000,22.2280000000,0 47.8774000000,22.2131000000,0 47.8698000000,22.1634000000,0 47.8540000000,22.1304000000,0 47.8396000000,22.1084000000,0 47.8277000000,22.0859000000,0 47.8188000000,22.0559000000,0 47.8121000000,22.0168000000,0 47.8063000000,22.0000000000,0 47.8147000000,21.9837000000,0 47.8283000000,21.9688000000,0 47.8411000000,21.9614000000,0 47.8666000000,21.9427000000,0 47.8792000000,21.9364000000,0 47.8941000000,21.9255000000,0 47.9055000000,21.9144000000,0 47.9131000000,21.9100000000,0 47.9232000000,21.9000000000,0 47.9436000000,21.8877000000,0 47.9577000000,21.8885000000,0 47.9724000000,21.8956000000,0 47.9841000000,21.8942000000,0 47.9999000000,21.8965000000,0 48.0077000000,21.8948000000,0 48.0220000000,21.8976000000,0 48.0304000000,21.8961000000,0 48.0503000000,21.8873000000,0 48.0711000000,21.8805000000,0 48.0812000000,21.8792000000,0 48.1259000000,21.8828000000,0 48.1459000000,21.8866000000,0 48.1706000000,21.8849000000,0 48.1843000000,21.8856000000,0 48.1906000000,21.8877000000,0 48.2028000000,21.8868000000,0 48.2582000000,21.8881000000,0 48.2420000000,21.8807000000,0 48.2357000000,21.8754000000,0 48.2005000000,21.8535000000,0 48.1866000000,21.8373000000,0 48.1805000000,21.8337000000,0 48.1289000000,21.8137000000,0 48.0956000000,21.7950000000,0 48.0735000000,21.7790000000,0 48.0258000000,21.7398000000,0 48.0052000000,21.7215000000,0 47.9999000000,21.7146000000,0 47.9690000000,21.7127000000,0 47.9481000000,21.7071000000,0 47.9417000000,21.7028000000,0 47.9315000000,21.6841000000,0 47.9277000000,21.6720000000,0 47.9213000000,21.6641000000,0 47.9094000000,21.6318000000,0 47.8944000000,21.6079000000,0 47.8789000000,21.5886000000,0 47.8658000000,21.5661000000,0 47.8590000000,21.5492000000,0 47.8569000000,21.5392000000,0 47.8532000000,21.5126000000,0 47.8475000000,21.4917000000,0 47.8441000000,21.4635000000,0 47.8255000000,21.4168000000,0 47.8178000000,21.4030000000,0 47.8182000000,21.3963000000,0 47.8257000000,21.3895000000,0 47.8366000000,21.3868000000,0 47.8448000000,21.3822000000,0 47.8917000000,21.3720000000,0 47.8958000000,21.3677000000,0 47.8987000000,21.3606000000,0 47.8981000000,21.3309000000,0 47.8940000000,21.2935000000,0 47.8942000000,21.2806000000,0 47.8967000000,21.2712000000,0 47.8963000000,21.2572000000,0 47.8913000000,21.2256000000,0 47.8858000000,21.1330000000,0 47.8823000000,21.1220000000,0 47.8835000000,21.1109000000,0 47.8808000000,21.0900000000,0 47.8795000000,21.0547000000,0 47.9000000000,21.0340000000,0 48.1127000000,20.7893000000,0 48.1838000000,20.7075000000,0 47.5246398768,19.3335000161,0 47.5243999665,19.3335000000,0 47.5243912406,19.3334999233,0 45.4074239647,19.2964075052,0 45.4060935036,19.3045803378,0 45.4060828040,19.3046300010,0 45.4060671202,19.3046783221,0 45.4060466139,19.3047248022,0 45.4060214969,19.3047689616,0 45.4059920286,19.3048103443,0 45.4059585130,19.3048485232,0 45.4059212964,19.3048831040,0 45.4058807627,19.3049137297,0 45.4058373306,19.3049400843,0 45.4057914484,19.3049618956,0 45.4057435897,19.3049789384,0 45.4056942486,19.3049910369,0 45.4056439345,19.3049980660,0 45.4055931669,19.3049999533,0 45.3616931669,19.3043999533,0 45.3616480291,19.3043972917,0 45.3616033163,19.3043905632,0 45.3615593942,19.3043798229,0 45.3615166220,19.3043651586,0 45.1196156305,19.2090013038,0 45.0893960816,19.4489624741,0 45.0893873639,19.4490116978,0 45.0893737746,19.4490598050,0 45.0893554495,19.4491063148,0 45.0893325717,19.4491507623,0 45.0893053700,19.4491927032,0 45.0892741163,19.4492317182,0 45.0892391230,19.4492674175,0 45.0892007398,19.4492994441,0 45.0891593505,19.4493274779,0 45.0891153687,19.4493512387,0 45.0890692341,19.4493704889,0 45.0890214079,19.4493850362,0 45.0889723681,19.4493947351,0 45.0889226049,19.4493994888,0 45.0888726158,19.4493992495,0 44.5528839633,19.4199998720,0 44.3923953273,19.4184999782,0 44.3923389094,19.4184962539,0 44.3922832726,19.4184861838,0 44.3922291285,19.4184698967,0 44.3901281392,19.4177059006,0 44.3784874042,19.4184819496,0 44.3684379334,19.4344428738,0 44.3593712942,19.4531739525,0 44.3566836587,19.4634267843,0 44.3566709048,19.4634680733,0 44.3566546334,19.4635081068,0 44.3501958794,19.4776180003,0 44.3495996399,19.4933189737,0 44.3495950024,19.4933705170,0 44.3495850620,19.4934213049,0 44.3495699252,19.4934707933,0 44.3495497541,19.4935184520,0 44.3478497541,19.4970184520,0 44.3478259472,19.4970618568,0 44.3477979647,19.4971026947,0 44.3477660810,19.4971405652,0 44.3477306086,19.4971750972,0 44.3476918953,19.4972059521,0 44.3476503205,19.4972328275,0 44.3476062918,19.4972554599,0 44.3475602408,19.4972736274,0 44.3475126190,19.4972871519,0 44.3474638932,19.4972959009,0 44.3474145411,19.4972997885,0 44.3473650464,19.4972987767,0 44.3473158943,19.4972928755,0 44.3472675668,19.4972821426,0 44.3472205375,19.4972666832,0 44.3471752674,19.4972466489,0 44.3471322004,19.4972222362,0 44.3215548096,19.4810000000,0 44.3059000000,19.4810000000,0 44.3058529687,19.4809977831,0 44.3058063544,19.4809911522,0 44.3057605706,19.4809801660,0 44.3057160231,19.4809649220,0 44.3056731070,19.4809455553,0 44.3056322029,19.4809222377,0 44.3055936734,19.4808951759,0 44.3055578603,19.4808646100,0 44.3055250811,19.4808308108,0 44.3025250811,19.4774308108,0 44.3024935506,19.4773912025,0 44.3024661870,19.4773486087,0 44.3024432709,19.4773034662,0 44.3024250371,19.4772562378,0 44.2999715122,19.4697975222,0 44.2961489780,19.4667394948,0 44.2812960166,19.4610953695,0 44.2320928712,19.4586002810,0 44.1917366343,19.4594950977,0 44.1855163466,19.4600513836,0</coordinates>
        </LinearRing>
      </outerBoundaryIs>
    </Polygon>
  </Placemark>
</Document>
</kml>
