<?xml version='1.0' encoding='UTF-8'?>
<kml xmlns="http://www.opengis.net/kml/2.2" xmlns:gx="http://www.google.com/kml/ext/2.2" xmlns:kml="http://www.opengis.net/kml/2.2">
  <Document>
    <name>Sudan</name>
    <MultiGeometry>
      <Polygon>
        <outerBoundaryIs>
          <LinearRing>
            <coordinates>
23.005551,10.686817,0 23.109421,10.614495,0 23.291219,10.439726,0 23.644789,9.863068,0 23.674038,9.690340000000001,0 23.669077,9.652022000000001,0 23.606135,9.537171000000001,0 23.619984,9.447718999999999,0 23.646339,9.425033000000001,0 23.621845,9.340619999999999,0 23.63218,9.277574,0 23.549498,9.185254,0 23.474257,9.170681999999999,0 23.435706,9.018934,0 23.451416,8.974182000000001,0 23.478081,8.958912,0 23.505469,8.961081999999999,0 23.542573,8.997280999999999,0 23.560143,8.996454999999999,0 23.567481,8.974828,0 23.553632,8.883153999999999,0 23.482318,8.783393,0 23.49007,8.732595,0 23.525726,8.701485,0 23.59642,8.734145,0 23.72127,8.702002,0 23.803436,8.72213,0 24.114011,8.681642,0 24.170328,8.689327,0 24.182999,8.717919,0 24.240566,8.761533999999999,0 24.380093,8.844215999999999,0 24.493833,8.858349,0 24.558377,8.886746,0 24.559307,8.999865,0 24.659869,9.176985999999999,0 24.680178,9.373357,0 24.792522,9.520402000000001,0 24.796398,9.818859,0 24.913859,9.890715,0 24.976284,9.967351000000001,0 25.028994,10.092047,0 25.017057,10.168011,0 25.07695,10.286867,0 25.232754,10.322317,0 25.327425,10.316581,0 25.82848,10.419546,0 25.893644,10.351333,0 25.905426,10.181266,0 26.010794,10.122691,0 26.102623,9.987841,0 26.179466,9.95898,0 26.556859,9.520454000000001,0 26.625744,9.480663,0 26.694318,9.476941999999999,0 27.080393,9.606831,0 27.33924,9.612799000000001,0 27.769602,9.583318,0 27.895072,9.595409999999999,0 27.997076,9.384930000000001,0 28.04511,9.331407,0 28.843841,9.324545000000001,0 28.828745,9.427474,0 28.913833,9.529031,0 29.009474,9.603239,0 29.132258,9.667731,0 29.252354,9.711164999999999,0 29.483089,9.761679000000001,0 29.567321,9.841364,0 29.613882,9.914460999999999,0 29.61543199999999,10.058147,0 30.012979,10.270485,0 30.484578,9.972028,0 30.765284,9.724290999999999,0 30.83696,9.749354,0 31.164382,9.764004999999999,0 31.234817,9.792323,0 31.664816,10.214236,0 31.864184,10.472127,0 31.942887,10.655552,0 32.414073,11.050851,0 32.430713,11.082193,0 32.435363,11.107023,0 32.364153,11.240013,0 32.348754,11.30758,0 32.359812,11.573481,0 32.34834,11.703163,0 32.082207,11.999811,0 32.746662,12.002731,0 32.725733,12.132336,0 32.731779,12.216155,0 33.209218,12.210367,0 33.203017,12.128098,0 33.144984,11.934673,0 33.132427,11.686213,0 33.083231,11.599164,0 33.182088,10.843241,0 33.140023,10.739036,0 33.3813,10.645785,0 33.468995,10.543905,0 33.916978,10.174522,0 33.966794,10.047269,0 33.956097,9.933994,0 33.973254,9.854851999999999,0 33.904886,9.710699999999999,0 33.883905,9.619853000000001,0 33.881425,9.499215,0 33.900855,9.45529,0 34.070698,9.454592,0 34.066892,9.531176,0 34.098208,9.67972,0 34.221921,10.02603,0 34.303466,10.113544,0 34.301813,10.160285,0 34.325894,10.223563,0 34.276181,10.488715,0 34.279489,10.565506,0 34.420048,10.780816,0 34.574768,10.884143,0 34.750674,10.743945,0 34.754395,10.684129,0 34.772895,10.688263,0 34.798527,10.729656,0 34.838524,10.72914,0 34.861572,10.787586,0 34.933816,10.845308,0 34.95831,10.903418,0 34.913558,10.952976,0 34.984148,11.186398,0 34.944254,11.253242,0 35.073135,11.54896,0 35.040579,11.727399,0 35.072722,11.818866,0 35.126672,11.862946,0 35.215555,11.896588,0 35.245734,11.929867,0 35.251419,11.971725,0 35.317358,12.023712,0 35.353738,12.14603,0 35.412546,12.198636,0 35.428772,12.266953,0 35.616875,12.575151,0 35.672375,12.604296,0 35.687671,12.659228,0 36.029976,12.717158,0 36.099429,12.69566,0 36.123614,12.721447,0 36.143044,12.856942,0 36.114415,12.933889,0 36.149865,12.980242,0 36.136946,13.032436,0 36.233581,13.36164,0 36.391298,13.599352,0 36.398429,13.67604,0 36.458167,13.820139,0 36.432122,13.969924,0 36.52638,14.263523,0 36.425094,15.133444,0 36.524933,15.247908,0 36.575576,15.393428,0 36.627872,15.445622,0 36.61671,15.531534,0 36.670971,15.723124,0 36.759544,15.837484,0 36.885944,16.184853,0 36.954261,16.278284,0 36.928216,16.361121,0 36.933693,16.418069,0 36.876539,16.513567,0 36.892352,16.636867,0 36.960359,16.705648,0 36.999736,16.842126,0 36.990641,16.913646,0 36.96811,16.946615,0 36.997049,16.999532,0 36.973484,17.062526,0 37.000459,17.072602,0 37.133991,17.01643,0 37.233417,17.024647,0 37.309795,17.055343,0 37.403432,17.029918,0 37.45976,17.09472,0 37.494693,17.174612,0 37.505648,17.236778,0 37.496036,17.312174,0 37.720415,17.38385,0 37.763927,17.45909,0 37.79886,17.477126,0 37.849193,17.444001,0 37.895909,17.442554,0 37.946862,17.495729,0 38.038846,17.548181,0 38.071195,17.538104,0 38.076466,17.479864,0 38.107989,17.493817,0 38.119461,17.545597,0 38.160595,17.557327,0 38.209688,17.522291,0 38.233356,17.525701,0 38.250202,17.541824,0 38.25661,17.602544,0 38.343737,17.655926,0 38.371332,17.698817,0 38.459285,17.890744,0 38.603852,18.013861,0 38.584483,18.077135,0 38.542817,18.118394,0 38.52589,18.128363,0 38.541677,18.085883,0 38.531993,18.070705,0 38.512218,18.073717,0 38.49171,18.141425,0 38.475597,18.130561,0 38.433849,18.142279,0 38.443207,18.155707,0 38.391449,18.224189,0 38.376231,18.190619,0 38.265147,18.223944,0 38.217296,18.217719,0 38.276215,18.242011,0 38.27947,18.273017,0 38.312348,18.295966,0 38.306163,18.306545,0 38.251161,18.280825,0 38.245434,18.243906,0 38.151674,18.249331,0 38.103624,18.291663,0 38.076119,18.348119,0 38.082957,18.382879,0 38.121858,18.413301,0 38.038198,18.461086,0 37.925505,18.585044,0 37.812755,18.615627,0 37.785159,18.64016,0 37.758067,18.628648,0 37.765573,18.667295,0 37.740733,18.709174,0 37.701671,18.711168,0 37.674725,18.740953,0 37.539806,18.715888,0 37.434337,18.861721,0 37.379562,19.069301,0 37.355235,19.10163,0 37.36085,19.128323,0 37.333507,19.159654,0 37.285818,19.475287,0 37.243826,19.576158,0 37.238292,19.65526,0 37.263357,19.703762,0 37.26531,19.786851,0 37.188813,20.01317,0 37.224892,20.119532,0 37.175141,20.349189,0 37.178884,20.449937,0 37.182302,20.462836,0 37.222423,20.468248,0 37.228038,20.565009,0 37.169119,20.746405,0 37.147309,20.940863,0 37.086436,21.040595,0 37.117849,21.086127,0 37.104991,21.207506,0 37.12143,21.22427,0 37.148611,21.218736,0 37.15919,21.148017,0 37.175141,21.156724,0 37.229747,21.127834,0 37.272146,21.054267,0 37.250011,21.054999,0 37.209321,21.098619,0 37.189301,21.097235,0 37.251964,21.006049,0 37.303966,21.020901,0 37.312999,21.057685,0 37.198985,21.202135,0 37.113617,21.278062,0 36.98406,21.465806,0 36.887869,21.650133,0 36.896821,21.677883,0 36.874197,21.815253,0 36.873546,21.936103,0 36.840099,21.966132,0 36.87794,21.97602,0 36.883637,21.995714,0 31.435476,21.995351,0 31.491803,22.173221,0 31.460901,22.215493,0 31.42328,22.226965,0 31.359512,22.188104,0 31.248407,21.994369,0 24.981245,21.995351,0 24.980521,20.002062,0 23.981306,19.995421,0 23.984406,15.72116,0 23.972624,15.691085,0 23.945546,15.692222,0 23.82906699999999,15.731031,0 23.592699,15.749014,0 23.395812,15.688346,0 23.320571,15.681318,0 23.166782,15.712944,0 23.094642,15.704262,0 23.004518,15.611425,0 22.906746,15.541404,0 22.906849,15.481408,0 22.976406,15.373636,0 22.958009,15.201631,0 22.905506,15.112567,0 22.848765,15.087504,0 22.738901,14.97981,0 22.715337,14.899428,0 22.65890600000001,14.857415,0 22.650844,14.816151,0 22.676579,14.688975,0 22.465429,14.629289,0 22.382334,14.579111,0 22.363523,14.543532,0 22.424915,14.470436,0 22.45096,14.345792,0 22.418094,14.30595,0 22.429049,14.264608,0 22.457678,14.241147,0 22.531885,14.220632,0 22.546355,14.139707,0 22.214695,13.956617,0 22.074962,13.780323,0 22.112893,13.729835,0 22.132116,13.638652,0 22.195885,13.580464,0 22.215625,13.464993,0 22.275984,13.376316,0 22.267612,13.334562,0 22.139971,13.193511,0 22.016051,13.140233,0 21.964065,13.098349,0 21.85296,12.905725,0 21.809449,12.793665,0 21.880142,12.676282,0 21.935953,12.63954,0 22.019668,12.631426,0 22.105865,12.650392,0 22.144105,12.671269,0 22.204877,12.743358,0 22.33014,12.661451,0 22.445689,12.611066,0 22.372825,12.463116,0 22.407965,12.399761,0 22.484033,12.164737,0 22.458091,12.03043,0 22.612397,12.072804,0 22.537053,11.68089,0 22.541704,11.632986,0 22.592347,11.543663,0 22.628107,11.509841,0 22.743035,11.466097,0 22.76877,11.442326,0 22.771871,11.403181,0 22.900442,11.408245,0 22.914808,11.396101,0 22.953668,11.250942,0 22.952015,11.191049,0 22.863234,10.891817,0 23.005551,10.686817,0
</coordinates>
          </LinearRing>
        </outerBoundaryIs>
      </Polygon>
      <Polygon>
        <outerBoundaryIs>
          <LinearRing>
            <coordinates>
37.243419,20.804023,0 37.254405,20.749823,0 37.271821,20.766099,0 37.283539,20.83275,0 37.26531,20.855048,0 37.243419,20.804023,0
</coordinates>
          </LinearRing>
        </outerBoundaryIs>
      </Polygon>
    </MultiGeometry>
  </Document>
</kml>
