<?xml version='1.0' encoding='UTF-8'?>
<kml xmlns="http://www.opengis.net/kml/2.2">
  <Document><name>Tennessee</name><Placemark id="5C7726A3FD000762">
						<name>Tennessee</name>
						<description>See: 2050-snapshot/domains/borders-geopolitics.md#tennessee</description>
						<styleUrl>#__managed_style_02593136663F9977A256</styleUrl>
						<Polygon>
							<outerBoundaryIs>
								<LinearRing>
									<coordinates>
										-85.47410499999999,34.983063,0 -84.32186900000001,34.988408,0 -84.29024,35.225572,0 -84.22371800000001,35.269078,0 -84.188417,35.239979,0 -84.098068,35.247209,0 -84.052612,35.269982,0 -84.02141,35.301383,0 -84.038327,35.347813,0 -84.007586,35.371661,0 -84.02300700000001,35.411684,0 -83.963213,35.46452,0 -83.911773,35.476028,0 -83.88007399999999,35.518745,0 -83.82559000000001,35.523829,0 -83.771736,35.562118,0 -83.608889,35.579451,0 -83.58559,35.562941,0 -83.498335,35.562981,0 -83.445802,35.611803,0 -83.396626,35.62272,0 -83.35156000000001,35.659858,0 -83.29715400000001,35.65775,0 -83.258117,35.691924,0 -83.25124700000001,35.719916,0 -83.18568500000001,35.72989,0 -83.15920800000001,35.764892,0 -83.07402999999999,35.790016,0 -82.992053,35.773948,0 -82.916551,35.841369,0 -82.920609,35.868472,0 -82.897273,35.877882,0 -82.92001,35.928422,0 -82.87415900000001,35.952698,0 -82.821861,35.921839,0 -82.804997,35.927168,0 -82.774905,35.971978,0 -82.78555799999999,35.977795,0 -82.77600099999999,36.000103,0 -82.637165,36.065805,0 -82.590763,36.031906,0 -82.613862,36.004706,0 -82.610889,35.967409,0 -82.557874,35.953901,0 -82.460658,36.007809,0 -82.409458,36.083409,0 -82.35515700000001,36.115609,0 -82.289455,36.13571,0 -82.24752100000001,36.130865,0 -82.213852,36.159112,0 -82.176849,36.142214,0 -82.147948,36.149516,0 -82.127146,36.104417,0 -82.033141,36.120422,0 -81.908137,36.302013,0 -81.79359700000001,36.362209,0 -81.764927,36.338672,0 -81.707438,36.335171,0 -81.741995,36.41096,0 -81.695311,36.467912,0 -81.70796300000001,36.536209,0 -81.6469,36.611918,0 -81.92264400000001,36.616213,0 -81.934144,36.594213,0 -83.67539499999999,36.600784,0 -83.690714,36.582581,0 -84.7854,36.603375,0 -85.09612799999999,36.622483,0 -85.677789,36.618157,0 -86.50777100000001,36.652445,0 -86.56391600000001,36.633552,0 -86.589906,36.652486,0 -87.85320400000001,36.633247,0 -87.84956699999999,36.663701,0 -88.070532,36.678118,0 -88.032489,36.540662,0 -88.053292,36.497131,0 -89.300284,36.507147,0 -89.417275,36.499011,0 -89.471718,36.457001,0 -89.49319800000001,36.470124,0 -89.485427,36.497491,0 -89.539232,36.497934,0 -89.51972000000001,36.467002,0 -89.545255,36.427079,0 -89.51038,36.378356,0 -89.513178,36.359897,0 -89.53182200000001,36.339246,0 -89.60566799999999,36.342234,0 -89.620255,36.323006,0 -89.53948699999999,36.277368,0 -89.534745,36.252576,0 -89.602374,36.238106,0 -89.695235,36.252766,0 -89.70532799999999,36.239898,0 -89.592206,36.15012,0 -89.60193599999999,36.11947,0 -89.680029,36.082494,0 -89.70693199999999,36.000981,0 -89.733056,36.000809,0 -89.718497,35.963123,0 -89.644307,35.920943,0 -89.643585,35.889742,0 -89.669079,35.87451,0 -89.743132,35.911176,0 -89.773858,35.86766,0 -89.69741,35.836683,0 -89.69649699999999,35.820583,0 -89.72817000000001,35.802697,0 -89.781662,35.805228,0 -89.799565,35.788331,0 -89.79895,35.759356,0 -89.825451,35.745188,0 -89.911984,35.758313,0 -89.958336,35.72656,0 -89.955665,35.690089,0 -89.92735,35.659461,0 -89.898916,35.650904,0 -89.8622,35.670419,0 -89.851176,35.657432,0 -89.85661899999999,35.634444,0 -89.95789600000001,35.587261,0 -89.94199500000001,35.556903,0 -89.910681,35.547451,0 -89.90463800000001,35.519348,0 -89.958749,35.523837,0 -89.95849800000001,35.541703,0 -89.989363,35.560043,0 -90.034505,35.552631,0 -90.047678,35.50261,0 -90.00267499999998,35.430529,0 -90.048086,35.411737,0 -90.056782,35.403863,0 -90.04156899999998,35.396614,0 -90.06178800000001,35.386184,0 -90.067798,35.466224,0 -90.10772299999999,35.476935,0 -90.129435,35.442119,0 -90.16888000000002,35.421878,0 -90.179265,35.385194,0 -90.13551,35.376668,0 -90.14619099999999,35.399468,0 -90.12934199999998,35.41383,0 -90.08095299999999,35.385912,0 -90.109966,35.304988,0 -90.157325,35.301492,0 -90.16879400000001,35.279088,0 -90.15209400000001,35.255989,0 -90.105144,35.254417,0 -90.08635200000001,35.238183,0 -90.07546600000001,35.214047,0 -90.116743,35.186906,0 -90.06518199999999,35.139401,0 -90.095009,35.117535,0 -90.154697,35.130924,0 -90.17684300000001,35.112088,0 -90.177615,35.063842,0 -90.20731499999999,35.025773,0 -90.292348,35.041356,0 -90.31045300000001,35.002696,0 -89.15682700000001,34.993926,0 -87.85188599999999,35.005656,0 -85.47410499999999,34.983063,0 
									</coordinates>
								</LinearRing>
							</outerBoundaryIs>
						</Polygon>
					</Placemark>
				</Document>
</kml>
