<?xml version='1.0' encoding='UTF-8'?>
<kml xmlns="http://www.opengis.net/kml/2.2">
  <Document>
    <name>Texas</name>
    <Folder xmlns:gx="http://www.google.com/kml/ext/2.2" xmlns:atom="http://www.w3.org/2005/Atom" id="5C6AF8749E000A01">
					<name>Texas</name>
					<styleUrl>#__managed_style_2D1A677FEA3F8CDEB5E0</styleUrl>
					<Placemark id="5C6AF8749E000A02">
						<name>Texas</name>
						<description>See: 2050-snapshot/domains/borders-geopolitics.md#texas</description>
						<styleUrl>#__managed_style_4A720E13323F8CDEB5E9</styleUrl>
						<Polygon>
							<outerBoundaryIs>
								<LinearRing>
									<coordinates>
										-100.000381,34.560509,0 -100.000406,36.499702,0 -103.041698,36.500541,0 -103.043034,34.312749,0 -103.064061,33.03579,0 -103.064509,32.000424,0 -103.956485,32.000129,0 -103.852539,31.88161,0 -103.814697,31.902118,0 -103.778491,31.797431,0 -103.736133,31.762323,0 -103.68125,31.758661,0 -103.60625,31.714423,0 -103.601074,31.67768,0 -103.527686,31.639716,0 -103.510596,31.621283,0 -103.496094,31.541083,0 -103.433203,31.446796,0 -103.2396,31.436591,0 -103.221924,31.402411,0 -103.143848,31.37287,0 -103.006836,31.393573,0 -102.878174,31.334345,0 -102.811035,31.278266,0 -102.748877,31.295966,0 -102.735352,31.285102,0 -102.681812,31.32807,0 -102.636816,31.327997,0 -102.565112,31.277216,0 -102.45874,31.245429,0 -102.426807,31.216815,0 -102.400073,31.11037,0 -102.36658,31.086889,0 -102.130479,31.084047,0 -102.360903,31.08529100000001,0 -102.266895,31.045673,0 -102.200928,31.045526,0 -102.159106,31.014521,0 -102.090186,31.000434,0 -101.991309,31.005194,0 -101.951221,30.961786,0 -101.89707,30.943232,0 -101.830811,30.80836800000001,0 -101.821338,30.717157,0 -101.698901,30.677436,0 -101.660571,30.606513,0 -101.660986,30.544379,0 -101.712402,30.514228,0 -101.72478,30.479438,0 -101.715625,30.431952,0 -101.67334,30.359442,0 -101.724707,30.338886,0 -101.726978,30.320746,0 -101.708911,30.274042,0 -101.652832,30.244208,0 -101.631201,30.213251,0 -101.583545,30.199482,0 -101.546387,30.13703,0 -101.491699,30.121161,0 -101.48833,30.07287,0 -101.463184,30.053168,0 -101.510986,30.032099,0 -101.458911,29.971015,0 -101.468506,29.948798,0 -101.52207,29.914814,0 -101.519385,29.897895,0 -101.440527,29.89411,0 -101.37168,29.856879,0 -101.406299,29.813422,0 -101.338965,29.796503,0 -101.33042,29.7633,0 -101.338232,29.71308,0 -101.371254,29.688781,0 -101.365161,29.676874,0 -101.301929,29.649726,0 -101.312988,29.59809,0 -101.259619,29.620429,0 -101.219824,29.610468,0 -101.22356,29.540961,0 -101.164404,29.501532,0 -101.038989,29.46039499999999,0 -100.700051,29.62334,0 -98.98378700000001,29.62345,0 -98.985944,29.567048,0 -98.97138300000002,29.551842,0 -98.927161,29.56225,0 -98.779898,29.720662,0 -98.73815999999999,29.716576,0 -98.734126,29.729451,0 -98.65093800000001,29.754002,0 -98.643545,29.740357,0 -98.582849,29.741137,0 -98.55048899999998,29.760713,0 -98.52678099999999,29.740445,0 -98.445978,29.735884,0 -98.43834400000001,29.715627,0 -98.40804900000001,29.748471,0 -98.37521,29.719975,0 -98.35258899999999,29.734365,0 -98.34135000000001,29.70965,0 -98.38048700000002,29.703464,0 -98.38434100000001,29.676534,0 -98.342733,29.653442,0 -98.345252,29.618297,0 -98.31222200000001,29.601802,0 -98.29802100000001,29.561102,0 -98.255377,29.540491,0 -98.257518,29.555248,0 -98.22311200000001,29.549236,0 -98.185085,29.486089,0 -98.17023000000002,29.497864,0 -98.164638,29.478091,0 -98.12820600000001,29.482596,0 -98.11690200000001,29.463884,0 -98.327163,29.209858,0 -98.28910999999999,29.208686,0 -98.27074900000001,29.223618,0 -98.20556000000001,29.188972,0 -98.195447,29.144912,0 -98.17317,29.127683,0 -98.183002,29.114527,0 -98.155682,29.111444,0 -98.166079,29.058799,0 -98.111796,29.032111,0 -98.10077899999999,28.990189,0 -98.083406,28.985057,0 -98.09396700000002,28.963526,0 -98.06546099999998,28.952817,0 -98.06821100000001,28.939896,0 -98.00506899999999,28.979604,0 -97.94638399999999,28.930639,0 -97.872243,28.95265699999999,0 -97.82305500000001,28.928069,0 -97.8146,28.936342,0 -97.78650000000002,28.886136,0 -97.754881,28.878317,0 -97.753545,28.849674,0 -97.73510600000002,28.854882,0 -97.722032,28.84063,0 -97.72588399999999,28.811903,0 -97.689724,28.751274,0 -97.65742899999999,28.761178,0 -97.637197,28.716667,0 -97.611096,28.716453,0 -97.60939399999999,28.696757,0 -97.56194000000001,28.680817,0 -97.561258,28.666244,0 -97.540487,28.67406,0 -97.52652200000001,28.639978,0 -97.452254,28.641317,0 -97.435513,28.656386,0 -97.419078,28.632918,0 -97.388772,28.661467,0 -97.33239799999998,28.6343,0 -97.30546200000001,28.642261,0 -97.31063599999999,28.623666,0 -97.28061099999998,28.65529799999999,0 -97.26525700000002,28.634976,0 -97.251205,28.640619,0 -97.242074,28.609321,0 -97.21775300000002,28.602936,0 -97.186217,28.632296,0 -97.15562199999999,28.547914,0 -97.10456100000002,28.554761,0 -97.08209899999999,28.532237,0 -97.079628,28.545564,0 -97.04517800000001,28.550051,0 -97.05095900000002,28.53503,0 -97.03427600000001,28.534177,0 -97.02022900000001,28.509329,0 -96.91844500000001,28.487234,0 -96.90229600000001,28.508812,0 -96.88021300000001,28.50435,0 -96.826835,28.446416,0 -96.82313599999999,28.470299,0 -96.79307,28.480432,0 -96.74791099999999,28.409481,0 -96.70617100000001,28.404596,0 -96.70691100000001,28.354694,0 -96.684355,28.314464,0 -96.63239799999999,28.318712,0 -96.624674,28.303541,0 -96.573097,28.358773,0 -96.45295000000002,28.418679,0 -96.416348,28.413871,0 -96.47125200000002,28.367557,0 -96.43868900000001,28.368812,0 -96.440591,28.34298,0 -96.603639,28.292554,0 -96.611232,28.28013,0 -96.595946,28.277305,0 -96.648475,28.25204,0 -96.659375,28.227446,0 -96.70263299999999,28.215509,0 -96.697641,28.202209,0 -96.72037900000001,28.186001,0 -96.78641499999999,28.189745,0 -96.81695699999999,28.17508,0 -96.81933400000001,28.143333,0 -96.80198300000001,28.140818,0 -96.848941,28.060867,0 -96.63200999999999,28.222821,0 -96.442849,28.317666,0 -96.342483,28.418716,0 -96.20543799999999,28.497868,0 -95.83398,28.655623,0 -95.46321500000001,28.848863,0 -95.383683,28.87,0 -95.12383699999999,29.07064,0 -95.16706800000001,29.113057,0 -95.15696699999999,29.195046,0 -95.115756,29.199528,0 -95.10376199999999,29.175409,0 -95.04216299999999,29.206874,0 -94.94197699999999,29.313478,0 -94.90727899999999,29.308845,0 -94.928847,29.298361,0 -94.91834,29.293222,0 -94.900035,29.302364,0 -94.90659599999999,29.35598,0 -94.864366,29.370511,0 -94.889815,29.378196,0 -94.89202699999998,29.433681,0 -94.95184900000001,29.467527,0 -94.935568,29.481183,0 -94.92542700000001,29.470868,0 -94.909465,29.496838,0 -94.98201000000002,29.513165,0 -95.02099,29.551527,0 -94.98270599999998,29.601344,0 -95.015636,29.639457,0 -94.982783,29.681898,0 -95.01650500000001,29.706873,0 -94.94268099999999,29.697778,0 -94.92045400000001,29.657106,0 -94.901037,29.657589,0 -94.87255100000002,29.67125,0 -94.815219,29.758478,0 -94.726247,29.795108,0 -94.69594599999999,29.759147,0 -94.68936700000002,29.693255,0 -94.71343299999999,29.610141,0 -94.75116400000002,29.550483,0 -94.78814700000001,29.546897,0 -94.77899200000002,29.530157,0 -94.74065199999998,29.52693,0 -94.56096500000001,29.574434,0 -94.52153199999999,29.540816,0 -94.46983000000002,29.55712,0 -94.49328199999999,29.513569,0 -94.568973,29.53018,0 -94.606562,29.482786,0 -94.676654,29.473479,0 -94.703509,29.436493,0 -94.76649499999999,29.407613,0 -94.77869099999998,29.361483,0 -94.73341299999998,29.36799,0 -94.694158,29.415632,0 -94.631607,29.451802,0 -94.09576199999999,29.660524,0 -94.00140600000002,29.681486,0 -93.83772500000001,29.67902399999999,0 -93.87001999999998,29.735482,0 -93.891637,29.744618,0 -93.893862,29.767289,0 -93.92650399999999,29.78956,0 -93.92799200000002,29.80964,0 -93.83837399999999,29.882855,0 -93.786935,29.99058,0 -93.74206999999998,30.020771,0 -93.71732699999998,30.06571,0 -93.69939599999998,30.05925,0 -93.73408499999999,30.08613,0 -93.68855200000002,30.140374,0 -93.706532,30.147424,0 -93.705495,30.192921,0 -93.717839,30.193999,0 -93.70458400000001,30.289949,0 -93.74394100000001,30.304032,0 -93.76582199999999,30.333318,0 -93.751744,30.361046,0 -93.757654,30.390423,0 -93.72682400000001,30.429675,0 -93.6978,30.440583,0 -93.71742099999999,30.483822,0 -93.706507,30.50991,0 -93.740253,30.539569,0 -93.721936,30.580324,0 -93.67866200000002,30.594097,0 -93.68309999999998,30.640763,0 -93.629904,30.67994,0 -93.60954400000001,30.723139,0 -93.614448,30.75987,0 -93.592101,30.763675,0 -93.583775,30.801779,0 -93.55464499999999,30.823249,0 -93.57408,30.884529,0 -93.52601300000002,30.937535,0 -93.531758,30.958217,0 -93.57282300000001,30.970723,0 -93.564289,30.989601,0 -93.57820700000001,30.999995,0 -93.508292,31.032352,0 -93.53121899999998,31.051678,0 -93.518912,31.061863,0 -93.52774700000001,31.07457,0 -93.563472,31.093989,0 -93.53969999999998,31.114449,0 -93.54869999999998,31.155839,0 -93.53330699999998,31.184463,0 -93.588503,31.165581,0 -93.607288,31.205403,0 -93.59655599999999,31.229657,0 -93.61798400000002,31.232501,0 -93.62034299999999,31.271025,0 -93.64147199999999,31.269936,0 -93.68688,31.305166,0 -93.66843900000001,31.353012,0 -93.639257,31.37153500000001,0 -93.670108,31.3657,0 -93.674117,31.397681,0 -93.70487900000001,31.410881,0 -93.692526,31.438201,0 -93.70893700000001,31.441706,0 -93.703934,31.455493,0 -93.749476,31.46869,0 -93.75298799999999,31.48171,0 -93.711581,31.512789,0 -93.74219600000001,31.515469,0 -93.747737,31.53069,0 -93.78768699999999,31.527344,0 -93.83492400000002,31.586211,0 -93.83805700000001,31.60679500000001,0 -93.81683800000002,31.622509,0 -93.82646200000001,31.666919,0 -93.79454800000002,31.702076,0 -93.81629100000002,31.707497,0 -93.81346600000001,31.725884,0 -93.83610299999999,31.748521,0 -93.82344299999998,31.775098,0 -93.87325300000001,31.814886,0 -93.88078299999999,31.864753,0 -93.902458,31.875275,0 -93.897412,31.894436,0 -93.926654,31.888255,0 -93.92325599999999,31.907793,0 -93.97394199999999,31.921668,0 -94.01726499999999,31.989343,0 -94.041833,31.992402,0 -94.04345000000001,33.552253,0 -94.073826,33.555834,0 -94.05659799999999,33.567825,0 -94.09743999999999,33.573719,0 -94.12865799999999,33.550952,0 -94.13514200000002,33.571033,0 -94.151456,33.568387,0 -94.14216,33.58139,0 -94.183913,33.594682,0 -94.21719800000001,33.580737,0 -94.194399,33.573678,0 -94.196395,33.555123,0 -94.205634,33.567229,0 -94.250197,33.556765,0 -94.24277700000002,33.589709,0 -94.27560099999999,33.557964,0 -94.29090099999999,33.558872,0 -94.287025,33.58241,0 -94.30958200000001,33.551673,0 -94.34402300000001,33.567824,0 -94.35594500000001,33.54318,0 -94.38608599999999,33.544923,0 -94.401616,33.559378,0 -94.38009099999999,33.568943,0 -94.382887,33.583268,0 -94.412175,33.568691,0 -94.43003899999999,33.591124,0 -94.471974,33.602665,0 -94.44863700000001,33.642766,0 -94.504615,33.620682,0 -94.51725999999998,33.632729,0 -94.52737599999999,33.615833,0 -94.521837,33.640728,0 -94.569523,33.627832,0 -94.54636600000001,33.659161,0 -94.59083,33.645563,0 -94.56033900000001,33.666591,0 -94.579864,33.666167,0 -94.58707199999999,33.68582,0 -94.59797,33.663381,0 -94.62237899999998,33.682428,0 -94.655891,33.660166,0 -94.671048,33.668388,0 -94.645535,33.673531,0 -94.64432200000002,33.701666,0 -94.65096100000001,33.686558,0 -94.716188,33.687902,0 -94.70172900000001,33.703413,0 -94.73230899999999,33.715987,0 -94.716594,33.695164,0 -94.73585600000001,33.691625,0 -94.753801,33.707729,0 -94.735178,33.726616,0 -94.752129,33.713835,0 -94.752512,33.734468,0 -94.788251,33.735316,0 -94.75781299999998,33.750109,0 -94.76443999999999,33.760178,0 -94.802252,33.732788,0 -94.82178300000001,33.768752,0 -94.822473,33.732716,0 -94.860687,33.741945,0 -94.87708000000001,33.75222,0 -94.868144,33.768874,0 -94.876504,33.757405,0 -94.92195500000001,33.791599,0 -94.91476400000001,33.824487,0 -94.94787400000001,33.808356,0 -94.943831,33.8293,0 -94.964401,33.837021,0 -94.968895,33.860916,0 -94.98848700000001,33.851,0 -95.04656799999999,33.862565,0 -95.072413,33.902699,0 -95.06569,33.915966,0 -95.08960700000002,33.880857,0 -95.100168,33.896101,0 -95.08238700000001,33.921758,0 -95.122038,33.904795,0 -95.1247,33.934675,0 -95.21763300000001,33.962646,0 -95.25017099999999,33.938497,0 -95.25269400000001,33.894234,0 -95.28298100000001,33.907402,0 -95.28930200000001,33.873103,0 -95.326436,33.88607,0 -95.36251700000001,33.866581,0 -95.44092799999999,33.866429,0 -95.46421099999999,33.873372,0 -95.46167300000002,33.886998,0 -95.50230399999998,33.874742,0 -95.510739,33.897877,0 -95.545197,33.880294,0 -95.55447799999999,33.928072,0 -95.593827,33.943031,0 -95.62905499999999,33.90587,0 -95.665466,33.908978,0 -95.69788200000001,33.88611,0 -95.75636699999998,33.892625,0 -95.751746,33.855557,0 -95.77055599999998,33.845269,0 -95.805149,33.861304,0 -95.83751599999999,33.83564,0 -95.92956100000001,33.885,0 -95.94428399999998,33.859811,0 -95.98425300000001,33.852664,0 -96.003406,33.872344,0 -95.99585699999999,33.855693,0 -96.019599,33.840566,0 -96.02390699999999,33.857067,0 -96.048834,33.836468,0 -96.100095,33.847971,0 -96.09936,33.83047,0 -96.14807,33.837799,0 -96.15076500000001,33.816987,0 -96.17896399999999,33.810553,0 -96.170373,33.799382,0 -96.15635499999999,33.813349,0 -96.178059,33.760518,0 -96.229023,33.748021,0 -96.29370799999998,33.769409,0 -96.31692500000001,33.698997,0 -96.34830599999999,33.686379,0 -96.42264299999999,33.776041,0 -96.50026800000001,33.772583,0 -96.52665500000001,33.820891,0 -96.572937,33.819098,0 -96.62929,33.845488,0 -96.587934,33.894784,0 -96.628294,33.894477,0 -96.667187,33.91694,0 -96.699574,33.839049,0 -96.761588,33.824406,0 -96.794276,33.868886,0 -96.832157,33.874835,0 -96.845896,33.848975,0 -96.866438,33.853149,0 -96.91630000000001,33.957798,0 -96.97380700000001,33.935697,0 -96.981337,33.956378,0 -96.996183,33.941728,0 -96.98383500000001,33.890949,0 -97.021438,33.846379,0 -97.04124500000002,33.837761,0 -97.068071,33.860465,0 -97.08946400000001,33.849847,0 -97.048146,33.817456,0 -97.09211199999999,33.804097,0 -97.086195,33.743933,0 -97.126102,33.716941,0 -97.163149,33.729322,0 -97.19281700000001,33.761169,0 -97.20351399999998,33.821825,0 -97.16662900000001,33.847311,0 -97.18084500000001,33.895204,0 -97.210921,33.916064,0 -97.24494599999998,33.903092,0 -97.25662500000001,33.863286,0 -97.27560700000001,33.858168,0 -97.31014299999998,33.888532,0 -97.328729,33.855434,0 -97.33245700000002,33.884253,0 -97.36550699999999,33.823763,0 -97.42649299999999,33.819398,0 -97.46285700000001,33.841772,0 -97.451469,33.87093,0 -97.46037600000001,33.903948,0 -97.50096000000001,33.919643,0 -97.58107800000001,33.899679,0 -97.59711500000002,33.917868,0 -97.590422,33.954104,0 -97.671772,33.99137,0 -97.725289,33.941045,0 -97.76276799999998,33.934396,0 -97.76376999999999,33.914241,0 -97.78510100000001,33.916815,0 -97.782341,33.892306,0 -97.79776099999999,33.899286,0 -97.834333,33.857671,0 -97.871447,33.849001,0 -97.98454,33.900703,0 -97.957155,33.914454,0 -97.95339499999999,33.936445,0 -97.97417299999999,33.942832,0 -97.94573,33.989839,0 -97.97417299999999,34.006716,0 -98.027672,33.993357,0 -98.08820299999999,34.005481,0 -98.106261,34.034154,0 -98.08383899999998,34.041719,0 -98.12020800000001,34.072127,0 -98.089755,34.128211,0 -98.10946200000001,34.154111,0 -98.16912000000002,34.114171,0 -98.364023,34.157109,0 -98.39502400000001,34.131318,0 -98.411587,34.088057,0 -98.486328,34.062598,0 -98.56057399999999,34.123567,0 -98.550522,34.132194,0 -98.59978899999999,34.160571,0 -98.64807300000001,34.164441,0 -98.690595,34.132972,0 -98.757037,34.124633,0 -98.81295400000002,34.158444,0 -98.86811600000001,34.149635,0 -98.872922,34.166584,0 -98.952358,34.212579,0 -98.97413199999998,34.203566,0 -98.98729400000001,34.221223,0 -99.043471,34.198208,0 -99.07953500000001,34.211518,0 -99.12656699999998,34.203004,0 -99.13060900000001,34.219408,0 -99.189511,34.214312,0 -99.19626000000001,34.281463,0 -99.21144900000002,34.29275,0 -99.20690499999999,34.338277,0 -99.22924499999999,34.336516,0 -99.24285500000002,34.372676,0 -99.27485799999999,34.384922,0 -99.261321,34.403499,0 -99.31960599999999,34.408869,0 -99.36960999999999,34.458699,0 -99.39495599999999,34.442099,0 -99.387653,34.411984,0 -99.40295999999999,34.373481,0 -99.424897,34.385823,0 -99.436474,34.370539,0 -99.49987499999999,34.409608,0 -99.56969599999999,34.418418,0 -99.600026,34.374688,0 -99.69497,34.378333,0 -99.92321099999999,34.574552,0 -100.000381,34.560509,0 
									</coordinates>
								</LinearRing>
							</outerBoundaryIs>
						</Polygon>
					</Placemark>
					<Placemark id="5C6AF8749E000A03">
						<name>Texas</name>
						<description>See: 2050-snapshot/domains/borders-geopolitics.md#texas</description>
						<styleUrl>#__managed_style_4A720E13323F8CDEB5E9</styleUrl>
						<Polygon>
							<outerBoundaryIs>
								<LinearRing>
									<coordinates>
										-94.72617200000001,29.332517,0 -94.76656800000001,29.337344,0 -94.78903800000001,29.311898,0 -94.87436600000001,29.289927,0 -95.122265,29.088551,0 -94.72617200000001,29.332517,0 
									</coordinates>
								</LinearRing>
							</outerBoundaryIs>
						</Polygon>
					</Placemark>
					<Placemark id="5C6AF8749E000A04">
						<name>Texas</name>
						<description>See: 2050-snapshot/domains/borders-geopolitics.md#texas</description>
						<styleUrl>#__managed_style_4A720E13323F8CDEB5E9</styleUrl>
						<Polygon>
							<outerBoundaryIs>
								<LinearRing>
									<coordinates>
										-94.78240499999998,29.333907,0 -94.81447,29.34961,0 -94.821957,29.31324499999999,0 -94.784166,29.321017,0 -94.78240499999998,29.333907,0 
									</coordinates>
								</LinearRing>
							</outerBoundaryIs>
						</Polygon>
					</Placemark>
					<Placemark id="5C6AF8749E000A05">
						<name>Texas</name>
						<description>See: 2050-snapshot/domains/borders-geopolitics.md#texas</description>
						<styleUrl>#__managed_style_4A720E13323F8CDEB5E9</styleUrl>
						<Polygon>
							<outerBoundaryIs>
								<LinearRing>
									<coordinates>
										-94.94142700000002,29.653398,0 -94.94772500000001,29.670231,0 -94.97743499999999,29.685202,0 -94.94475400000002,29.613009,0 -94.95423899999999,29.6503,0 -94.94142700000002,29.653398,0 
									</coordinates>
								</LinearRing>
							</outerBoundaryIs>
						</Polygon>
					</Placemark>
				</Folder>
  </Document>
</kml>
