<?xml version="1.0" encoding="UTF-8"?>
<kml xmlns="http://www.opengis.net/kml/2.2">
  <Document>
    <Placemark><name>Åland-1</name><Polygon><outerBoundaryIs><LinearRing><coordinates>20.186371,60.187323,0 20.177989,60.173529,0 20.174571,60.170111,0 20.161957,60.167141,0 20.154633,60.169745,0 20.147797,60.174018,0 20.136974,60.176337,0 20.095470,60.176337,0 20.087087,60.182196,0 20.088878,60.195868,0 20.095551,60.210883,0 20.102306,60.220933,0 20.122895,60.230780,0 20.172374,60.232815,0 20.188243,60.245185,0 20.147716,60.244778,0 20.111013,60.239447,0 20.081879,60.223375,0 20.064708,60.190619,0 20.057872,60.190619,0 20.060883,60.214748,0 20.048188,60.226508,0 20.031912,60.236396,0 20.023692,60.255113,0 20.036388,60.271877,0 20.057140,60.293158,0 20.061290,60.310045,0 20.023692,60.313463,0 20.023692,60.306627,0 20.033865,60.293891,0 20.024913,60.276435,0 20.003266,60.267035,0 19.975922,60.278713,0 19.979747,60.261054,0 19.993988,60.241441,0 20.012950,60.225165,0 20.030528,60.217231,0 20.020763,60.210354,0 20.014903,60.202338,0 20.013194,60.193427,0 20.016287,60.183743,0 19.964122,60.194810,0 19.948009,60.204250,0 19.953868,60.209418,0 19.955740,60.212836,0 19.954845,60.224677,0 19.927745,60.222805,0 19.914561,60.218207,0 19.917247,60.207668,0 19.929698,60.196357,0 19.943614,60.186225,0 19.958832,60.179104,0 19.987315,60.173041,0 19.996593,60.166002,0 20.003917,60.158922,0 20.010020,60.155829,0 20.019867,60.158108,0 20.027517,60.163316,0 20.034923,60.169989,0 20.044200,60.176337,0 20.032970,60.144355,0 20.030121,60.128974,0 20.030528,60.114814,0 20.034190,60.111396,0 20.040863,60.109117,0 20.047537,60.105414,0 20.050466,60.097805,0 20.044770,60.087470,0 20.031586,60.087388,0 20.006358,60.094387,0 19.965994,60.091132,0 19.948985,60.083889,0 19.951427,60.070136,0 19.958181,60.053778,0 19.948497,60.047675,0 19.937755,60.050360,0 19.941173,60.060248,0 19.924001,60.091539,0 19.910330,60.101060,0 19.886567,60.101223,0 19.873302,60.096422,0 19.870291,60.091010,0 19.868337,60.085517,0 19.858653,60.080756,0 19.845063,60.078681,0 19.831716,60.079495,0 19.823253,60.084296,0 19.824474,60.094387,0 19.806977,60.099840,0 19.788910,60.096259,0 19.773448,60.086493,0 19.763031,60.073920,0 19.747569,60.101386,0 19.710297,60.145209,0 19.694672,60.170111,0 19.687999,60.199286,0 19.682384,60.211982,0 19.670909,60.217231,0 19.668793,60.224677,0 19.646983,60.265692,0 19.666677,60.266059,0 19.682872,60.264350,0 19.691417,60.256537,0 19.688487,60.238349,0 19.696300,60.248765,0 19.702485,60.260077,0 19.709321,60.268866,0 19.718923,60.272528,0 19.732107,60.273912,0 19.770518,60.286200,0 19.762869,60.290513,0 19.757823,60.295478,0 19.749360,60.306627,0 19.770030,60.303290,0 19.777354,60.299791,0 19.783458,60.303046,0 19.786306,60.303534,0 19.796560,60.299791,0 19.780772,60.270941,0 19.765147,60.248969,0 19.768077,60.240424,0 19.776378,60.233344,0 19.784190,60.224677,0 19.792003,60.200141,0 19.798595,60.193061,0 19.814220,60.190619,0 19.821788,60.195990,0 19.823497,60.208482,0 19.821300,60.222480,0 19.817638,60.232164,0 19.835460,60.226386,0 19.851817,60.217231,0 19.858653,60.245185,0 19.879731,60.258857,0 19.884613,60.272528,0 19.886404,60.293647,0 19.892833,60.306627,0 19.898123,60.291978,0 19.899587,60.284613,0 19.900157,60.275580,0 19.905528,60.271796,0 19.917247,60.272935,0 19.929047,60.277167,0 19.934337,60.282416,0 19.931488,60.299750,0 19.924001,60.314276,0 19.912934,60.325751,0 19.900157,60.333930,0 19.893321,60.339586,0 19.889496,60.344672,0 19.885102,60.345201,0 19.875987,60.337633,0 19.865082,60.319648,0 19.857677,60.313218,0 19.848399,60.317206,0 19.833344,60.334052,0 19.819184,60.346829,0 19.802013,60.354193,0 19.777354,60.355048,0 19.792979,60.360541,0 19.801768,60.368842,0 19.808360,60.378567,0 19.817638,60.388577,0 19.838145,60.400458,0 19.859630,60.405585,0 19.882335,60.405585,0 19.906423,60.402167,0 19.913585,60.388861,0 19.918468,60.370185,0 19.927501,60.356431,0 19.969981,60.361396,0 19.995616,60.356431,0 20.019705,60.346259,0 20.036794,60.333930,0 20.028494,60.354071,0 20.023692,60.361274,0 20.038422,60.359565,0 20.072032,60.349921,0 20.082205,60.351304,0 20.093028,60.355129,0 20.104666,60.349921,0 20.126150,60.333930,0 20.178071,60.322984,0 20.192068,60.312323,0 20.181407,60.286200,0 20.196300,60.290269,0 20.201915,60.292955,0 20.217621,60.286282,0 20.238048,60.281562,0 20.277599,60.278713,0 20.242849,60.245185,0 20.236013,60.232164,0 20.208751,60.224677,0 20.222016,60.209906,0 20.229747,60.204250,0 20.218923,60.201321,0 20.209646,60.200873,0 20.200938,60.199408,0 20.191661,60.193671,0 20.186371,60.187323,0</coordinates></LinearRing></outerBoundaryIs></Polygon></Placemark>
    <Placemark><name>Åland-2</name><Polygon><outerBoundaryIs><LinearRing><coordinates>21.415050,60.588446,0 21.419444,60.589911,0 21.428396,60.594062,0 21.414806,60.608303,0 21.445160,60.602200,0 21.462657,60.601752,0 21.469981,60.608303,0 21.421560,60.628730,0 21.399913,60.634101,0 21.379649,60.647040,0 21.363048,60.662787,0 21.353282,60.676581,0 21.354015,60.681708,0 21.355805,60.682929,0 21.356212,60.684394,0 21.353282,60.690172,0 21.425955,60.679633,0 21.438975,60.680325,0 21.445649,60.692857,0 21.440929,60.703030,0 21.431163,60.712958,0 21.422130,60.725002,0 21.469981,60.725002,0 21.469981,60.731147,0 21.448497,60.732245,0 21.427094,60.736518,0 21.406505,60.743476,0 21.387380,60.752346,0 21.403331,60.758246,0 21.411632,60.759670,0 21.422130,60.759101,0 21.400238,60.774563,0 21.387706,60.779242,0 21.374278,60.779608,0 21.380870,60.793402,0 21.374278,60.807603,0 21.360850,60.816230,0 21.346446,60.813137,0 21.339041,60.817125,0 21.333263,60.821845,0 21.328868,60.827541,0 21.325938,60.834866,0 21.336436,60.844713,0 21.318533,60.864691,0 21.332530,60.868354,0 21.382335,60.863186,0 21.407888,60.864569,0 21.428396,60.875800,0 21.417328,60.880316,0 21.405935,60.882025,0 21.380870,60.882025,0 21.373709,60.884589,0 21.353282,60.902533,0 21.363780,60.904853,0 21.381684,60.914618,0 21.390798,60.916815,0 21.399669,60.914049,0 21.407400,60.908271,0 21.416189,60.903225,0 21.428396,60.902533,0 21.422211,60.912909,0 21.417817,60.924302,0 21.412771,60.933498,0 21.404470,60.937242,0 21.392589,60.939032,0 21.387869,60.943671,0 21.385509,60.950263,0 21.380544,60.957709,0 21.340089,61.000000,0 21.500000,61.000000,0 21.500000,60.573762,0 21.486095,60.574164,0 21.454600,60.567694,0 21.442638,60.567328,0 21.434337,60.569892,0 21.418468,60.578437,0 21.408539,60.580390,0 21.408539,60.587836,0 21.415050,60.588446,0</coordinates></LinearRing></outerBoundaryIs></Polygon></Placemark>
    <Placemark><name>Åland-3</name><Polygon><outerBoundaryIs><LinearRing><coordinates>20.225218,60.005478,0 20.211791,59.991150,0 20.187641,59.976367,0 20.175121,59.971436,0 20.184037,59.992938,0 20.171495,59.998754,0 20.151813,59.992923,0 20.123179,59.988872,0 20.105255,59.996469,0 20.116869,60.005434,0 20.121318,60.016627,0 20.104258,60.028248,0 20.078257,60.028224,0 20.058457,60.039396,0 20.025256,60.042485,0 20.033650,60.063626,0 20.068193,60.072654,0 20.101269,60.094975,0 20.130042,60.086928,0 20.163259,60.087845,0 20.193191,60.065570,0 20.212658,60.035918,0 20.222526,60.014880,0 20.225218,60.005478,0</coordinates></LinearRing></outerBoundaryIs></Polygon></Placemark>
    <Placemark><name>Åland-4</name><Polygon><outerBoundaryIs><LinearRing><coordinates>19.671072,60.158108,0 19.663341,60.156684,0 19.654307,60.157538,0 19.646983,60.155829,0 19.632498,60.165432,0 19.609548,60.187486,0 19.591645,60.196763,0 19.599457,60.179877,0 19.603282,60.164008,0 19.599620,60.149115,0 19.584809,60.135321,0 19.565196,60.129950,0 19.544607,60.134752,0 19.527029,60.148627,0 19.516612,60.170111,0 19.513927,60.179104,0 19.513194,60.183783,0 19.517589,60.187649,0 19.530284,60.193671,0 19.537283,60.201117,0 19.536957,60.211127,0 19.535167,60.222073,0 19.537120,60.232164,0 19.542247,60.236965,0 19.560395,60.248969,0 19.567882,60.255113,0 19.578868,60.260484,0 19.593761,60.260484,0 19.608409,60.256903,0 19.628103,60.246649,0 19.634451,60.240139,0 19.638357,60.231635,0 19.639496,60.220933,0 19.643077,60.213446,0 19.660492,60.202826,0 19.667491,60.196763,0 19.670909,60.190579,0 19.673106,60.184231,0 19.674327,60.166327,0 19.671072,60.158108,0</coordinates></LinearRing></outerBoundaryIs></Polygon></Placemark>
    <Placemark><name>Åland-5</name><Polygon><outerBoundaryIs><LinearRing><coordinates>21.463145,60.525784,0 21.458507,60.516099,0 21.456309,60.506781,0 21.457530,60.498521,0 21.463145,60.492255,0 21.446462,60.493354,0 21.433604,60.489081,0 21.430675,60.481147,0 21.442638,60.471137,0 21.417654,60.477688,0 21.392263,60.489976,0 21.371267,60.508368,0 21.360118,60.533189,0 21.346934,60.522895,0 21.336111,60.519436,0 21.328624,60.525336,0 21.325938,60.543158,0 21.333832,60.557359,0 21.352550,60.561835,0 21.394216,60.559882,0 21.410981,60.542914,0 21.461925,60.539374,0 21.482270,60.525784,0 21.477794,60.525214,0 21.474783,60.524075,0 21.470714,60.523749,0 21.463145,60.525784,0</coordinates></LinearRing></outerBoundaryIs></Polygon></Placemark>
    <Placemark><name>Åland-6</name><Polygon><outerBoundaryIs><LinearRing><coordinates>21.293793,60.902981,0 21.292817,60.906155,0 21.291189,60.909980,0 21.297374,60.912299,0 21.306407,60.919338,0 21.312266,60.923000,0 21.283214,60.942816,0 21.264822,60.949612,0 21.243419,60.950873,0 21.270030,60.967963,0 21.285004,60.971991,0 21.304942,60.971381,0 21.321951,60.956244,0 21.337087,60.946723,0 21.374278,60.930406,0 21.354747,60.919867,0 21.338552,60.916693,0 21.327891,60.910142,0 21.325938,60.889472,0 21.318126,60.880194,0 21.297374,60.879136,0 21.275238,60.883287,0 21.264415,60.882025,0 21.231700,60.882025,0 21.216563,60.884101,0 21.202403,60.889472,0 21.227794,60.899726,0 21.276622,60.889106,0 21.298676,60.895697,0 21.295258,60.899644,0 21.293793,60.902981,0</coordinates></LinearRing></outerBoundaryIs></Polygon></Placemark>
    <Placemark><name>Åland-7</name><Polygon><outerBoundaryIs><LinearRing><coordinates>20.398576,59.981349,0 20.367135,59.981994,0 20.339325,59.980208,0 20.324819,59.977195,0 20.322366,59.962686,0 20.306648,59.953624,0 20.283707,59.958475,0 20.281315,59.976616,0 20.301908,59.998975,0 20.339447,60.020110,0 20.362418,60.017670,0 20.398457,60.009129,0 20.436746,60.004989,0 20.447059,59.995181,0 20.398576,59.981349,0</coordinates></LinearRing></outerBoundaryIs></Polygon></Placemark>
    <Placemark><name>Åland-8</name><Polygon><outerBoundaryIs><LinearRing><coordinates>20.242849,60.073920,0 20.208995,60.083319,0 20.201915,60.087551,0 20.198253,60.104071,0 20.204926,60.120347,0 20.215343,60.135688,0 20.222423,60.149604,0 20.244640,60.119696,0 20.258067,60.107978,0 20.263927,60.118232,0 20.253266,60.138577,0 20.255707,60.145413,0 20.277599,60.142157,0 20.297618,60.121527,0 20.285167,60.103583,0 20.268891,60.086005,0 20.277599,60.066474,0 20.266287,60.060492,0 20.259044,60.062567,0 20.252289,60.068345,0 20.242849,60.073920,0</coordinates></LinearRing></outerBoundaryIs></Polygon></Placemark>
    <Placemark><name>Åland-9</name><Polygon><outerBoundaryIs><LinearRing><coordinates>20.606293,60.022650,0 20.596446,60.016059,0 20.587169,60.008124,0 20.577485,60.006659,0 20.550466,60.018866,0 20.546153,60.016506,0 20.539887,60.009508,0 20.527029,60.005072,0 20.511892,60.006334,0 20.500824,60.012681,0 20.505544,60.024237,0 20.530935,60.048407,0 20.544932,60.056098,0 20.558360,60.057603,0 20.568207,60.056952,0 20.576182,60.059149,0 20.582856,60.059149,0 20.587087,60.055894,0 20.587901,60.051947,0 20.591075,60.050849,0 20.598643,60.052680,0 20.604991,60.052069,0 20.608653,60.047593,0 20.610118,60.044989,0 20.612559,60.043443,0 20.617931,60.042222,0 20.615245,60.041083,0 20.603363,60.039781,0 20.600922,60.039211,0 20.608246,60.035956,0 20.609874,60.029853,0 20.606293,60.022650,0</coordinates></LinearRing></outerBoundaryIs></Polygon></Placemark>
    <Placemark><name>Åland-10</name><Polygon><outerBoundaryIs><LinearRing><coordinates>19.042003,59.784980,0 19.085216,59.772203,0 19.074474,59.749701,0 19.057791,59.736151,0 19.035981,59.728502,0 19.000000,59.722907,0 19.000000,59.783990,0 19.042003,59.784980,0</coordinates></LinearRing></outerBoundaryIs></Polygon></Placemark>
    <Placemark><name>Åland-11</name><Polygon><outerBoundaryIs><LinearRing><coordinates>19.043630,59.882066,0 19.041759,59.886868,0 19.038829,59.898017,0 19.036794,59.902533,0 19.054535,59.900702,0 19.071625,59.896308,0 19.068207,59.881903,0 19.066661,59.841946,0 19.067882,59.833686,0 19.034679,59.835028,0 19.021251,59.840033,0 19.000000,59.857678,0 19.000000,59.914300,0 19.005544,59.911811,0 19.009532,59.909410,0 19.010020,59.906928,0 19.008962,59.898749,0 19.009532,59.896308,0 19.024425,59.884508,0 19.032074,59.881496,0 19.043630,59.882066,0</coordinates></LinearRing></outerBoundaryIs></Polygon></Placemark>
    <Placemark><name>Åland-12</name><Polygon><outerBoundaryIs><LinearRing><coordinates>20.380870,60.204047,0 20.385509,60.210761,0 20.386241,60.217231,0 20.387706,60.221869,0 20.387543,60.232978,0 20.382660,60.240709,0 20.353038,60.228827,0 20.345388,60.237698,0 20.347016,60.252875,0 20.358897,60.265692,0 20.379649,60.269680,0 20.410981,60.259508,0 20.427908,60.265692,0 20.434825,60.262397,0 20.438975,60.258205,0 20.440766,60.252631,0 20.441417,60.245185,0 20.392914,60.196763,0 20.380870,60.198879,0 20.380870,60.204047,0</coordinates></LinearRing></outerBoundaryIs></Polygon></Placemark>
    <Placemark><name>Åland-13</name><Polygon><outerBoundaryIs><LinearRing><coordinates>21.380544,60.162665,0 21.372244,60.170356,0 21.357107,60.174465,0 21.325694,60.176337,0 21.310557,60.179389,0 21.300792,60.185736,0 21.289724,60.190863,0 21.270681,60.190619,0 21.285167,60.203843,0 21.306407,60.209703,0 21.353282,60.211086,0 21.368907,60.196601,0 21.394379,60.190863,0 21.448904,60.190619,0 21.448904,60.183743,0 21.409353,60.184516,0 21.394216,60.178656,0 21.387380,60.162665,0 21.380544,60.162665,0</coordinates></LinearRing></outerBoundaryIs></Polygon></Placemark>
    <Placemark><name>Åland-14</name><Polygon><outerBoundaryIs><LinearRing><coordinates>21.250255,60.559882,0 21.278494,60.542304,0 21.304942,60.518948,0 21.307628,60.509589,0 21.324880,60.482082,0 21.319102,60.481676,0 21.300141,60.487738,0 21.265961,60.490058,0 21.250255,60.498440,0 21.260590,60.519721,0 21.252940,60.531399,0 21.238455,60.541938,0 21.229177,60.559882,0 21.250255,60.559882,0</coordinates></LinearRing></outerBoundaryIs></Polygon></Placemark>
    <Placemark><name>Åland-15</name><Polygon><outerBoundaryIs><LinearRing><coordinates>21.213878,60.616360,0 21.219086,60.622626,0 21.243419,60.628730,0 21.249197,60.635688,0 21.253266,60.643500,0 21.259288,60.647528,0 21.270681,60.643052,0 21.271495,60.634467,0 21.274913,60.626776,0 21.281261,60.620307,0 21.291189,60.615139,0 21.283376,60.600898,0 21.278331,60.586127,0 21.281505,60.575629,0 21.298676,60.574164,0 21.298676,60.567328,0 21.281016,60.566352,0 21.273285,60.572821,0 21.269786,60.581692,0 21.264415,60.587836,0 21.244395,60.590806,0 21.233165,60.593899,0 21.222911,60.601467,0 21.213878,60.616360,0</coordinates></LinearRing></outerBoundaryIs></Polygon></Placemark>
    <Placemark><name>Åland-16</name><Polygon><outerBoundaryIs><LinearRing><coordinates>20.850597,60.253607,0 20.838878,60.246812,0 20.823985,60.244452,0 20.811371,60.245185,0 20.818858,60.232164,0 20.790538,60.238715,0 20.781098,60.263658,0 20.787283,60.286322,0 20.805186,60.286200,0 20.815278,60.280992,0 20.845958,60.270331,0 20.853038,60.265692,0 20.850597,60.253607,0</coordinates></LinearRing></outerBoundaryIs></Polygon></Placemark>
    <Placemark><name>Åland-17</name><Polygon><outerBoundaryIs><LinearRing><coordinates>20.746918,60.351874,0 20.750662,60.354885,0 20.754893,60.360745,0 20.757172,60.366116,0 20.764334,60.367865,0 20.776134,60.366400,0 20.787364,60.361965,0 20.792003,60.352769,0 20.789399,60.342719,0 20.785330,60.333564,0 20.777354,60.326483,0 20.740001,60.312405,0 20.732677,60.314358,0 20.731456,60.320990,0 20.731781,60.324408,0 20.732677,60.332750,0 20.735362,60.337795,0 20.743500,60.348456,0 20.746918,60.351874,0</coordinates></LinearRing></outerBoundaryIs></Polygon></Placemark>
    <Placemark><name>Åland-18</name><Polygon><outerBoundaryIs><LinearRing><coordinates>20.913259,59.948432,0 20.915212,59.949368,0 20.919932,59.953315,0 20.934744,59.957994,0 20.978689,59.952053,0 20.989757,59.951890,0 20.995860,59.949897,0 20.996593,59.945014,0 20.983572,59.942776,0 20.969412,59.943834,0 20.969249,59.942084,0 20.984141,59.936265,0 20.991222,59.926744,0 20.982758,59.921536,0 20.932140,59.935858,0 20.918468,59.943061,0 20.913259,59.948432,0</coordinates></LinearRing></outerBoundaryIs></Polygon></Placemark>
    <Placemark><name>Åland-19</name><Polygon><outerBoundaryIs><LinearRing><coordinates>20.403494,60.040513,0 20.424083,60.055243,0 20.448904,60.065131,0 20.462576,60.066799,0 20.451020,60.040107,0 20.432140,60.025092,0 20.402354,60.021308,0 20.390147,60.028225,0 20.403494,60.040513,0</coordinates></LinearRing></outerBoundaryIs></Polygon></Placemark>
    <Placemark><name>Åland-20</name><Polygon><outerBoundaryIs><LinearRing><coordinates>20.516449,60.066962,0 20.518403,60.070380,0 20.533376,60.073635,0 20.541840,60.070990,0 20.535818,60.064154,0 20.526215,60.056830,0 20.521169,60.048041,0 20.519379,60.042955,0 20.500336,60.036363,0 20.471365,60.041327,0 20.469737,60.057359,0 20.488048,60.062405,0 20.522227,60.064765,0 20.525401,60.065497,0 20.516449,60.066962,0</coordinates></LinearRing></outerBoundaryIs></Polygon></Placemark>
    <Placemark><name>Åland-21</name><Polygon><outerBoundaryIs><LinearRing><coordinates>20.635509,60.143948,0 20.644054,60.149359,0 20.653575,60.151353,0 20.659923,60.149726,0 20.668630,60.145006,0 20.679454,60.136298,0 20.683360,60.130520,0 20.686534,60.126532,0 20.688243,60.117011,0 20.681977,60.110175,0 20.671560,60.109198,0 20.655772,60.115912,0 20.638682,60.131334,0 20.635509,60.143948,0</coordinates></LinearRing></outerBoundaryIs></Polygon></Placemark>
    <Placemark><name>Åland-22</name><Polygon><outerBoundaryIs><LinearRing><coordinates>21.333995,60.362982,0 21.331065,60.365180,0 21.323741,60.366685,0 21.303884,60.364244,0 21.294444,60.370510,0 21.296153,60.377590,0 21.302989,60.383694,0 21.307791,60.389594,0 21.319835,60.391506,0 21.338064,60.383368,0 21.352306,60.370429,0 21.357107,60.358140,0 21.355317,60.351793,0 21.352794,60.351630,0 21.345714,60.353827,0 21.338390,60.353095,0 21.333669,60.356024,0 21.333995,60.362982,0</coordinates></LinearRing></outerBoundaryIs></Polygon></Placemark>
    <Placemark><name>Åland-23</name><Polygon><outerBoundaryIs><LinearRing><coordinates>20.912852,59.920722,0 20.920177,59.909247,0 20.912364,59.904486,0 20.887706,59.909125,0 20.875255,59.914130,0 20.867931,59.917914,0 20.862071,59.928168,0 20.870860,59.936754,0 20.884532,59.939765,0 20.897472,59.940131,0 20.906586,59.933539,0 20.912852,59.920722,0</coordinates></LinearRing></outerBoundaryIs></Polygon></Placemark>
    <Placemark><name>Åland-24</name><Polygon><outerBoundaryIs><LinearRing><coordinates>20.292247,60.217556,0 20.307465,60.225328,0 20.317231,60.223782,0 20.318451,60.215806,0 20.318044,60.207261,0 20.312836,60.200263,0 20.306326,60.194810,0 20.302175,60.193183,0 20.289236,60.195909,0 20.281505,60.191921,0 20.277354,60.184149,0 20.267507,60.177965,0 20.252940,60.180162,0 20.252533,60.188096,0 20.271169,60.198513,0 20.272797,60.201117,0 20.281098,60.205837,0 20.292247,60.217556,0</coordinates></LinearRing></outerBoundaryIs></Polygon></Placemark>
    <Placemark><name>Åland-25</name><Polygon><outerBoundaryIs><LinearRing><coordinates>19.472667,60.238145,0 19.472667,60.245429,0 19.478852,60.257392,0 19.479503,60.264757,0 19.482677,60.269273,0 19.489675,60.265774,0 19.492524,60.259711,0 19.492035,60.255642,0 19.493663,60.253079,0 19.499685,60.255357,0 19.506928,60.260484,0 19.517263,60.263699,0 19.532563,60.264024,0 19.533865,60.262356,0 19.528250,60.259467,0 19.522878,60.258083,0 19.522227,60.254828,0 19.535004,60.238756,0 19.532725,60.235582,0 19.527029,60.236640,0 19.518728,60.236518,0 19.514903,60.238756,0 19.513276,60.247707,0 19.512055,60.249091,0 19.509613,60.245632,0 19.507660,60.237372,0 19.505382,60.234117,0 19.501638,60.233181,0 19.495128,60.231838,0 19.493012,60.233954,0 19.492279,60.239569,0 19.489675,60.244493,0 19.485688,60.239325,0 19.479666,60.238023,0 19.475434,60.236233,0 19.472667,60.238145,0</coordinates></LinearRing></outerBoundaryIs></Polygon></Placemark>
    <Placemark><name>Åland-26</name><Polygon><outerBoundaryIs><LinearRing><coordinates>20.668468,60.226711,0 20.683767,60.229397,0 20.705903,60.218248,0 20.716319,60.209296,0 20.707693,60.199652,0 20.686778,60.194566,0 20.670665,60.199205,0 20.664073,60.205024,0 20.663422,60.216376,0 20.668468,60.226711,0</coordinates></LinearRing></outerBoundaryIs></Polygon></Placemark>
    <Placemark><name>Åland-27</name><Polygon><outerBoundaryIs><LinearRing><coordinates>21.401703,60.367947,0 21.365733,60.381985,0 21.355805,60.393541,0 21.357921,60.399726,0 21.365245,60.405015,0 21.375255,60.404649,0 21.399913,60.397366,0 21.405610,60.392239,0 21.405121,60.373847,0 21.401703,60.367947,0</coordinates></LinearRing></outerBoundaryIs></Polygon></Placemark>
    <Placemark><name>Åland-28</name><Polygon><outerBoundaryIs><LinearRing><coordinates>21.201182,60.848293,0 21.195486,60.852240,0 21.186290,60.856513,0 21.189464,60.860541,0 21.206554,60.863186,0 21.221528,60.858954,0 21.224620,60.850287,0 21.226573,60.847113,0 21.235362,60.848619,0 21.242035,60.848212,0 21.245860,60.846015,0 21.251964,60.847113,0 21.259532,60.853095,0 21.267345,60.851060,0 21.267589,60.837795,0 21.263194,60.830268,0 21.250173,60.832953,0 21.209809,60.845282,0 21.205333,60.843248,0 21.202403,60.844916,0 21.201182,60.848293,0</coordinates></LinearRing></outerBoundaryIs></Polygon></Placemark>
    <Placemark><name>Åland-29</name><Polygon><outerBoundaryIs><LinearRing><coordinates>20.946300,60.468085,0 20.946869,60.464382,0 20.952485,60.456163,0 20.953787,60.451199,0 20.952647,60.446357,0 20.949962,60.441799,0 20.942882,60.438829,0 20.931895,60.442979,0 20.925955,60.449164,0 20.925873,60.452257,0 20.929861,60.453274,0 20.931000,60.453925,0 20.925955,60.455878,0 20.924978,60.458889,0 20.926524,60.461737,0 20.922537,60.468614,0 20.918549,60.471706,0 20.918305,60.475206,0 20.923839,60.475938,0 20.937836,60.468899,0 20.940684,60.472276,0 20.940603,60.477118,0 20.937755,60.478135,0 20.935232,60.480129,0 20.933767,60.485867,0 20.937185,60.489854,0 20.955089,60.487616,0 20.957937,60.484483,0 20.950287,60.472032,0 20.946300,60.468085,0</coordinates></LinearRing></outerBoundaryIs></Polygon></Placemark>
    <Placemark><name>Åland-30</name><Polygon><outerBoundaryIs><LinearRing><coordinates>21.426524,60.270494,0 21.385834,60.268622,0 21.382335,60.271226,0 21.380300,60.275743,0 21.379405,60.280178,0 21.384451,60.283474,0 21.416026,60.286282,0 21.419281,60.288845,0 21.430512,60.290391,0 21.444347,60.288845,0 21.446869,60.283596,0 21.443696,60.275010,0 21.426524,60.270494,0</coordinates></LinearRing></outerBoundaryIs></Polygon></Placemark>
    <Placemark><name>Åland-31</name><Polygon><outerBoundaryIs><LinearRing><coordinates>20.568289,60.105902,0 20.567963,60.099433,0 20.564057,60.093655,0 20.502126,60.100002,0 20.486176,60.104722,0 20.483653,60.107856,0 20.495535,60.111518,0 20.523204,60.112860,0 20.540375,60.105292,0 20.550710,60.104560,0 20.561209,60.106594,0 20.568289,60.105902,0</coordinates></LinearRing></outerBoundaryIs></Polygon></Placemark>
    <Placemark><name>Åland-32</name><Polygon><outerBoundaryIs><LinearRing><coordinates>21.076427,60.480414,0 21.084646,60.480780,0 21.088634,60.480129,0 21.094737,60.475572,0 21.096690,60.463446,0 21.088227,60.452216,0 21.078380,60.448961,0 21.064952,60.454779,0 21.059255,60.466742,0 21.064301,60.474351,0 21.076427,60.480414,0</coordinates></LinearRing></outerBoundaryIs></Polygon></Placemark>
    <Placemark><name>Åland-33</name><Polygon><outerBoundaryIs><LinearRing><coordinates>19.140147,59.860338,0 19.141205,59.852647,0 19.136648,59.846829,0 19.128103,59.844916,0 19.107595,59.828233,0 19.104828,59.830919,0 19.101817,59.829332,0 19.097260,59.828070,0 19.092214,59.832668,0 19.092621,59.837470,0 19.106049,59.846462,0 19.113373,59.858100,0 19.119314,59.860907,0 19.135265,59.864488,0 19.140147,59.860338,0</coordinates></LinearRing></outerBoundaryIs></Polygon></Placemark>
    <Placemark><name>Åland-34</name><Polygon><outerBoundaryIs><LinearRing><coordinates>20.404796,60.273790,0 20.397472,60.271959,0 20.386892,60.277859,0 20.383637,60.286119,0 20.383393,60.290066,0 20.380870,60.291938,0 20.377615,60.295844,0 20.366710,60.303697,0 20.370291,60.306505,0 20.383474,60.309801,0 20.392996,60.308051,0 20.401866,60.303697,0 20.406586,60.289171,0 20.403982,60.284735,0 20.402843,60.278754,0 20.404796,60.273790,0</coordinates></LinearRing></outerBoundaryIs></Polygon></Placemark>
    <Placemark><name>Åland-35</name><Polygon><outerBoundaryIs><LinearRing><coordinates>20.319672,60.332180,0 20.302419,60.333360,0 20.292817,60.339301,0 20.297537,60.349066,0 20.317475,60.361233,0 20.327973,60.363308,0 20.333751,60.359320,0 20.327078,60.339586,0 20.324474,60.335232,0 20.319672,60.332180,0</coordinates></LinearRing></outerBoundaryIs></Polygon></Placemark>
    <Placemark><name>Åland-36</name><Polygon><outerBoundaryIs><LinearRing><coordinates>20.970632,60.306098,0 20.968110,60.311510,0 20.966889,60.319200,0 20.969493,60.326565,0 20.989919,60.335232,0 20.993337,60.334011,0 20.996918,60.333726,0 20.999685,60.332506,0 20.994721,60.323920,0 20.995128,60.310940,0 20.994070,60.308254,0 20.996918,60.305162,0 20.992849,60.300564,0 20.983165,60.299954,0 20.970632,60.306098,0</coordinates></LinearRing></outerBoundaryIs></Polygon></Placemark>
    <Placemark><name>Åland-37</name><Polygon><outerBoundaryIs><LinearRing><coordinates>21.069265,60.516099,0 21.049083,60.521674,0 21.046235,60.523953,0 21.044119,60.528551,0 21.050141,60.533759,0 21.064708,60.536770,0 21.083181,60.534084,0 21.093191,60.526842,0 21.093923,60.521633,0 21.097585,60.518175,0 21.098562,60.515530,0 21.069265,60.516099,0</coordinates></LinearRing></outerBoundaryIs></Polygon></Placemark>
    <Placemark><name>Åland-38</name><Polygon><outerBoundaryIs><LinearRing><coordinates>20.377371,60.348944,0 20.382009,60.350002,0 20.386078,60.349636,0 20.384613,60.343085,0 20.379975,60.336534,0 20.371918,60.334052,0 20.338145,60.342637,0 20.337006,60.346829,0 20.338715,60.350491,0 20.338145,60.355373,0 20.342784,60.358995,0 20.368093,60.355455,0 20.377371,60.348944,0</coordinates></LinearRing></outerBoundaryIs></Polygon></Placemark>
    <Placemark><name>Åland-39</name><Polygon><outerBoundaryIs><LinearRing><coordinates>19.712413,60.375759,0 19.707042,60.376980,0 19.705007,60.382310,0 19.708588,60.390326,0 19.713064,60.393052,0 19.731293,60.395697,0 19.735688,60.400214,0 19.741059,60.401435,0 19.747081,60.397284,0 19.746511,60.392239,0 19.741547,60.388821,0 19.736908,60.376980,0 19.727631,60.372952,0 19.717377,60.372952,0 19.712413,60.375759,0</coordinates></LinearRing></outerBoundaryIs></Polygon></Placemark>
    <Placemark><name>Åland-40</name><Polygon><outerBoundaryIs><LinearRing><coordinates>20.440033,60.171536,0 20.435069,60.164089,0 20.426443,60.160305,0 20.402354,60.156480,0 20.393565,60.158840,0 20.390798,60.164374,0 20.395274,60.168118,0 20.414806,60.171658,0 20.417328,60.174343,0 20.419281,60.179796,0 20.423188,60.183051,0 20.428884,60.183295,0 20.432791,60.180609,0 20.433116,60.176581,0 20.434581,60.176134,0 20.439220,60.175727,0 20.440033,60.171536,0</coordinates></LinearRing></outerBoundaryIs></Polygon></Placemark>
    <Placemark><name>Åland-41</name><Polygon><outerBoundaryIs><LinearRing><coordinates>19.572927,60.348131,0 19.575206,60.350938,0 19.576996,60.354438,0 19.579275,60.356594,0 19.588390,60.359849,0 19.604096,60.365505,0 19.616059,60.366360,0 19.613780,60.361111,0 19.604421,60.354071,0 19.595714,60.343044,0 19.593354,60.329698,0 19.588227,60.330797,0 19.572927,60.348131,0</coordinates></LinearRing></outerBoundaryIs></Polygon></Placemark>
    <Placemark><name>Åland-42</name><Polygon><outerBoundaryIs><LinearRing><coordinates>21.044607,60.395982,0 21.041189,60.398464,0 21.039399,60.402777,0 21.031261,60.404202,0 21.030284,60.409654,0 21.027843,60.415758,0 21.034841,60.422105,0 21.046886,60.424669,0 21.059825,60.417873,0 21.063813,60.410224,0 21.056244,60.399888,0 21.044607,60.395982,0</coordinates></LinearRing></outerBoundaryIs></Polygon></Placemark>
    <Placemark><name>Åland-43</name><Polygon><outerBoundaryIs><LinearRing><coordinates>21.334727,60.767483,0 21.347992,60.768988,0 21.358002,60.765245,0 21.361339,60.761868,0 21.367524,60.758531,0 21.373383,60.753445,0 21.367279,60.746446,0 21.353526,60.744127,0 21.344493,60.748969,0 21.337901,60.754747,0 21.330333,60.758531,0 21.327810,60.763617,0 21.334727,60.767483,0</coordinates></LinearRing></outerBoundaryIs></Polygon></Placemark>
    <Placemark><name>Åland-44</name><Polygon><outerBoundaryIs><LinearRing><coordinates>20.935476,60.313015,0 20.929617,60.311306,0 20.921967,60.314724,0 20.916270,60.320176,0 20.913178,60.321763,0 20.910411,60.326483,0 20.907237,60.332709,0 20.909272,60.336208,0 20.910655,60.344184,0 20.915457,60.347439,0 20.924653,60.344550,0 20.929617,60.339219,0 20.936615,60.316148,0 20.935476,60.313015,0</coordinates></LinearRing></outerBoundaryIs></Polygon></Placemark>
    <Placemark><name>Åland-45</name><Polygon><outerBoundaryIs><LinearRing><coordinates>19.986339,60.013251,0 19.988862,60.016425,0 19.987315,60.019395,0 19.979177,60.021755,0 19.979096,60.024075,0 19.960297,60.028795,0 19.959239,60.032945,0 19.982107,60.029690,0 19.993500,60.025214,0 20.002045,60.025906,0 20.009858,60.023220,0 20.017182,60.017930,0 20.015473,60.010769,0 20.004242,60.006171,0 19.993826,60.006781,0 19.985850,60.009630,0 19.986339,60.013251,0</coordinates></LinearRing></outerBoundaryIs></Polygon></Placemark>
    <Placemark><name>Åland-46</name><Polygon><outerBoundaryIs><LinearRing><coordinates>19.164968,59.769151,0 19.164154,59.772406,0 19.163503,59.773668,0 19.157807,59.773708,0 19.161143,59.778022,0 19.177175,59.784532,0 19.191335,59.786160,0 19.198985,59.783433,0 19.200531,59.778876,0 19.196707,59.773383,0 19.184906,59.763699,0 19.179373,59.761379,0 19.173513,59.761664,0 19.168630,59.766669,0 19.164968,59.769151,0</coordinates></LinearRing></outerBoundaryIs></Polygon></Placemark>
    <Placemark><name>Åland-47</name><Polygon><outerBoundaryIs><LinearRing><coordinates>21.054047,60.355577,0 21.051362,60.362047,0 21.052582,60.366482,0 21.059581,60.367377,0 21.079600,60.354926,0 21.079112,60.351467,0 21.080089,60.346503,0 21.087413,60.341702,0 21.094981,60.340318,0 21.095795,60.338935,0 21.082042,60.333564,0 21.067882,60.340155,0 21.062348,60.344468,0 21.054047,60.355577,0</coordinates></LinearRing></outerBoundaryIs></Polygon></Placemark>
    <Placemark><name>Åland-48</name><Polygon><outerBoundaryIs><LinearRing><coordinates>20.084809,60.384060,0 20.076996,60.386990,0 20.074229,60.390733,0 20.104421,60.404568,0 20.113292,60.404446,0 20.117442,60.402208,0 20.115815,60.394884,0 20.108084,60.386339,0 20.099132,60.382148,0 20.092214,60.380764,0 20.087250,60.381659,0 20.084809,60.384060,0</coordinates></LinearRing></outerBoundaryIs></Polygon></Placemark>
    <Placemark><name>Åland-49</name><Polygon><outerBoundaryIs><LinearRing><coordinates>21.134858,60.802395,0 21.138031,60.804511,0 21.140880,60.807847,0 21.143647,60.808417,0 21.148692,60.804145,0 21.150157,60.800889,0 21.167166,60.789008,0 21.170502,60.788438,0 21.174246,60.788845,0 21.176850,60.784776,0 21.175629,60.781236,0 21.167654,60.781155,0 21.138194,60.786648,0 21.131196,60.795681,0 21.129731,60.801256,0 21.134858,60.802395,0</coordinates></LinearRing></outerBoundaryIs></Polygon></Placemark>
    <Placemark><name>Åland-50</name><Polygon><outerBoundaryIs><LinearRing><coordinates>21.421479,60.427802,0 21.428152,60.421983,0 21.435720,60.411444,0 21.436453,60.404120,0 21.429535,60.399766,0 21.421072,60.398830,0 21.413178,60.401272,0 21.410899,60.406399,0 21.412283,60.412462,0 21.410899,60.413275,0 21.405854,60.411526,0 21.401622,60.412746,0 21.402436,60.415147,0 21.415863,60.425198,0 21.421479,60.427802,0</coordinates></LinearRing></outerBoundaryIs></Polygon></Placemark>
    <Placemark><name>Åland-51</name><Polygon><outerBoundaryIs><LinearRing><coordinates>21.046723,60.505683,0 21.054454,60.504055,0 21.060069,60.500718,0 21.062511,60.496894,0 21.066905,60.495876,0 21.076508,60.494615,0 21.086762,60.489773,0 21.082449,60.484768,0 21.062511,60.484442,0 21.038910,60.495958,0 21.035004,60.501288,0 21.039399,60.505154,0 21.046723,60.505683,0</coordinates></LinearRing></outerBoundaryIs></Polygon></Placemark>
    <Placemark><name>Åland-52</name><Polygon><outerBoundaryIs><LinearRing><coordinates>19.051606,59.579942,0 19.057953,59.578315,0 19.068451,59.579495,0 19.076345,59.575792,0 19.075531,59.572984,0 19.057465,59.565253,0 19.052257,59.564683,0 19.030772,59.567857,0 19.021658,59.572659,0 19.024994,59.575751,0 19.051606,59.579942,0</coordinates></LinearRing></outerBoundaryIs></Polygon></Placemark>
    <Placemark><name>Åland-53</name><Polygon><outerBoundaryIs><LinearRing><coordinates>21.207612,60.397976,0 21.204112,60.396837,0 21.199474,60.402452,0 21.197927,60.409695,0 21.199799,60.413723,0 21.207612,60.413764,0 21.208344,60.415147,0 21.206554,60.418280,0 21.207612,60.422919,0 21.210623,60.427720,0 21.215668,60.429674,0 21.219493,60.427558,0 21.219493,60.423000,0 21.220551,60.415473,0 21.226085,60.405829,0 21.226573,60.400173,0 21.220388,60.401028,0 21.215668,60.403347,0 21.212250,60.403388,0 21.210704,60.401109,0 21.207612,60.397976,0</coordinates></LinearRing></outerBoundaryIs></Polygon></Placemark>
    <Placemark><name>Åland-54</name><Polygon><outerBoundaryIs><LinearRing><coordinates>19.147146,59.750841,0 19.152029,59.748318,0 19.149099,59.744249,0 19.135183,59.740505,0 19.116710,59.744412,0 19.107921,59.751532,0 19.107921,59.754665,0 19.111827,59.757717,0 19.117686,59.758409,0 19.146821,59.752794,0 19.147146,59.750841,0</coordinates></LinearRing></outerBoundaryIs></Polygon></Placemark>
    <Placemark><name>Åland-55</name><Polygon><outerBoundaryIs><LinearRing><coordinates>20.493582,60.297553,0 20.494314,60.299587,0 20.497976,60.301418,0 20.504324,60.299506,0 20.509939,60.296210,0 20.513194,60.292711,0 20.515310,60.288764,0 20.516449,60.284288,0 20.510265,60.279568,0 20.500987,60.277004,0 20.494802,60.273953,0 20.488617,60.274075,0 20.487234,60.278754,0 20.491466,60.285224,0 20.494884,60.287421,0 20.494884,60.289455,0 20.492931,60.293850,0 20.493582,60.297553,0</coordinates></LinearRing></outerBoundaryIs></Polygon></Placemark>
    <Placemark><name>Åland-56</name><Polygon><outerBoundaryIs><LinearRing><coordinates>20.992768,60.409410,0 20.990977,60.405707,0 20.980072,60.411404,0 20.972667,60.421698,0 20.976410,60.426907,0 20.984467,60.426337,0 20.993826,60.429958,0 21.003510,60.431912,0 21.010834,60.429185,0 21.010427,60.425523,0 20.999360,60.422797,0 20.999278,60.420966,0 21.000011,60.417833,0 20.993256,60.413764,0 20.992768,60.409410,0</coordinates></LinearRing></outerBoundaryIs></Polygon></Placemark>
    <Placemark><name>Åland-57</name><Polygon><outerBoundaryIs><LinearRing><coordinates>20.874197,60.341986,0 20.857026,60.369045,0 20.856944,60.375434,0 20.861664,60.381863,0 20.866059,60.385362,0 20.869314,60.382148,0 20.870697,60.379299,0 20.876475,60.365546,0 20.876150,60.359524,0 20.874604,60.356024,0 20.874197,60.353461,0 20.874441,60.351589,0 20.876069,60.348253,0 20.876475,60.342434,0 20.874197,60.341986,0</coordinates></LinearRing></outerBoundaryIs></Polygon></Placemark>
    <Placemark><name>Åland-58</name><Polygon><outerBoundaryIs><LinearRing><coordinates>21.479421,60.363959,0 21.476248,60.359809,0 21.471609,60.357937,0 21.467296,60.359768,0 21.468110,60.364732,0 21.472504,60.368679,0 21.474376,60.371324,0 21.473481,60.375841,0 21.467133,60.383450,0 21.467621,60.386786,0 21.480154,60.389431,0 21.485850,60.387356,0 21.489431,60.383450,0 21.486583,60.375474,0 21.489187,60.373643,0 21.489675,60.371039,0 21.479421,60.363959,0</coordinates></LinearRing></outerBoundaryIs></Polygon></Placemark>
    <Placemark><name>Åland-59</name><Polygon><outerBoundaryIs><LinearRing><coordinates>21.283702,60.811225,0 21.281749,60.808865,0 21.275076,60.805894,0 21.264252,60.803127,0 21.252696,60.803941,0 21.244802,60.806667,0 21.242524,60.810533,0 21.247000,60.813381,0 21.269705,60.819037,0 21.275971,60.816555,0 21.283702,60.811225,0</coordinates></LinearRing></outerBoundaryIs></Polygon></Placemark>
    <Placemark><name>Åland-60</name><Polygon><outerBoundaryIs><LinearRing><coordinates>20.328705,60.066677,0 20.325043,60.072292,0 20.330577,60.078030,0 20.331228,60.080512,0 20.335134,60.084540,0 20.344819,60.086168,0 20.350759,60.083319,0 20.353282,60.077419,0 20.352387,60.072984,0 20.345144,60.066921,0 20.340668,60.068590,0 20.337413,60.067043,0 20.328705,60.066677,0</coordinates></LinearRing></outerBoundaryIs></Polygon></Placemark>
    <Placemark><name>Åland-61</name><Polygon><outerBoundaryIs><LinearRing><coordinates>20.396983,60.049262,0 20.397797,60.044704,0 20.392182,60.039700,0 20.383962,60.039700,0 20.366059,60.033515,0 20.362071,60.038153,0 20.372000,60.045396,0 20.372406,60.048977,0 20.372081,60.051459,0 20.374278,60.053575,0 20.396983,60.049262,0</coordinates></LinearRing></outerBoundaryIs></Polygon></Placemark>
    <Placemark><name>Åland-62</name><Polygon><outerBoundaryIs><LinearRing><coordinates>20.422130,60.342515,0 20.416840,60.338243,0 20.406423,60.334703,0 20.396169,60.330959,0 20.389334,60.331204,0 20.389334,60.336941,0 20.390961,60.343085,0 20.393565,60.347602,0 20.398041,60.348415,0 20.417003,60.345567,0 20.422130,60.342515,0</coordinates></LinearRing></outerBoundaryIs></Polygon></Placemark>
    <Placemark><name>Åland-63</name><Polygon><outerBoundaryIs><LinearRing><coordinates>19.694509,60.380154,0 19.699799,60.376776,0 19.702159,60.374010,0 19.705903,60.371446,0 19.709321,60.367051,0 19.711274,60.361111,0 19.706554,60.358018,0 19.694184,60.360989,0 19.685557,60.366034,0 19.685069,60.369940,0 19.688975,60.379462,0 19.694509,60.380154,0</coordinates></LinearRing></outerBoundaryIs></Polygon></Placemark>
    <Placemark><name>Åland-64</name><Polygon><outerBoundaryIs><LinearRing><coordinates>20.600108,60.404527,0 20.605317,60.416205,0 20.610199,60.419135,0 20.616140,60.418891,0 20.619558,60.414781,0 20.625173,60.402045,0 20.620779,60.397040,0 20.613292,60.398220,0 20.611095,60.401923,0 20.609874,60.402289,0 20.603038,60.401882,0 20.600108,60.404527,0</coordinates></LinearRing></outerBoundaryIs></Polygon></Placemark>
    <Placemark><name>Åland-65</name><Polygon><outerBoundaryIs><LinearRing><coordinates>19.077973,59.785915,0 19.089692,59.791612,0 19.104340,59.789984,0 19.107107,59.786485,0 19.101899,59.782945,0 19.100434,59.778225,0 19.094493,59.775133,0 19.086192,59.774807,0 19.079112,59.777859,0 19.077973,59.785915,0</coordinates></LinearRing></outerBoundaryIs></Polygon></Placemark>
    <Placemark><name>Åland-66</name><Polygon><outerBoundaryIs><LinearRing><coordinates>20.784516,60.386135,0 20.785737,60.382351,0 20.780121,60.382961,0 20.771821,60.387152,0 20.766694,60.389960,0 20.762055,60.394721,0 20.761974,60.404161,0 20.768809,60.409939,0 20.776052,60.407579,0 20.776703,60.397773,0 20.781586,60.388861,0 20.784516,60.386135,0</coordinates></LinearRing></outerBoundaryIs></Polygon></Placemark>
    <Placemark><name>Åland-67</name><Polygon><outerBoundaryIs><LinearRing><coordinates>20.566905,60.158840,0 20.571381,60.161689,0 20.591726,60.169664,0 20.602468,60.169420,0 20.607839,60.166612,0 20.608979,60.162218,0 20.602061,60.159695,0 20.567068,60.156114,0 20.566905,60.158840,0</coordinates></LinearRing></outerBoundaryIs></Polygon></Placemark>
    <Placemark><name>Åland-68</name><Polygon><outerBoundaryIs><LinearRing><coordinates>19.040701,59.651964,0 19.042817,59.647488,0 19.050222,59.646552,0 19.050304,59.638129,0 19.045095,59.639512,0 19.041026,59.637803,0 19.028168,59.637641,0 19.021739,59.638780,0 19.020356,59.642890,0 19.027680,59.649400,0 19.032644,59.651964,0 19.035004,59.655056,0 19.040701,59.651964,0</coordinates></LinearRing></outerBoundaryIs></Polygon></Placemark>
    <Placemark><name>Åland-69</name><Polygon><outerBoundaryIs><LinearRing><coordinates>20.341482,60.175360,0 20.347748,60.177843,0 20.350190,60.175971,0 20.350434,60.168891,0 20.339447,60.160468,0 20.321462,60.159166,0 20.317719,60.162787,0 20.341482,60.175360,0</coordinates></LinearRing></outerBoundaryIs></Polygon></Placemark>
    <Placemark><name>Åland-70</name><Polygon><outerBoundaryIs><LinearRing><coordinates>21.287446,60.715684,0 21.292166,60.718777,0 21.303233,60.719794,0 21.317719,60.715684,0 21.319672,60.709866,0 21.297211,60.707546,0 21.287446,60.709581,0 21.284109,60.712307,0 21.287446,60.715684,0</coordinates></LinearRing></outerBoundaryIs></Polygon></Placemark>
    <Placemark><name>Åland-71</name><Polygon><outerBoundaryIs><LinearRing><coordinates>20.886241,60.534857,0 20.890473,60.533108,0 20.886485,60.522976,0 20.906261,60.519761,0 20.910818,60.517279,0 20.899832,60.516343,0 20.895681,60.516547,0 20.876394,60.521633,0 20.868663,60.527533,0 20.869640,60.532213,0 20.875580,60.533067,0 20.880951,60.532335,0 20.886241,60.534857,0</coordinates></LinearRing></outerBoundaryIs></Polygon></Placemark>
    <Placemark><name>Åland-72</name><Polygon><outerBoundaryIs><LinearRing><coordinates>21.297455,60.162746,0 21.301036,60.168077,0 21.306163,60.169053,0 21.314138,60.166287,0 21.316254,60.159451,0 21.307058,60.151313,0 21.296641,60.148871,0 21.293956,60.152859,0 21.296072,60.156480,0 21.297455,60.162746,0</coordinates></LinearRing></outerBoundaryIs></Polygon></Placemark>
    <Placemark><name>Åland-73</name><Polygon><outerBoundaryIs><LinearRing><coordinates>21.293386,60.823594,0 21.293468,60.821438,0 21.288422,60.823350,0 21.282563,60.829088,0 21.285004,60.831326,0 21.291352,60.829088,0 21.295746,60.829413,0 21.297537,60.833482,0 21.301117,60.838243,0 21.308930,60.836615,0 21.314708,60.831651,0 21.314138,60.828233,0 21.310639,60.824571,0 21.306163,60.822821,0 21.294851,60.823920,0 21.293386,60.823594,0</coordinates></LinearRing></outerBoundaryIs></Polygon></Placemark>
    <Placemark><name>Åland-74</name><Polygon><outerBoundaryIs><LinearRing><coordinates>20.282237,60.161241,0 20.292328,60.163194,0 20.306977,60.159451,0 20.314626,60.152777,0 20.306000,60.147447,0 20.298188,60.148342,0 20.291108,60.154731,0 20.280935,60.158596,0 20.282237,60.161241,0</coordinates></LinearRing></outerBoundaryIs></Polygon></Placemark>
    <Placemark><name>Åland-75</name><Polygon><outerBoundaryIs><LinearRing><coordinates>20.794037,60.066311,0 20.800222,60.072455,0 20.808197,60.076850,0 20.814545,60.077460,0 20.822113,60.072252,0 20.819509,60.071641,0 20.821218,60.070868,0 20.823334,60.068956,0 20.823334,60.067450,0 20.821625,60.065782,0 20.818370,60.066189,0 20.812348,60.064358,0 20.797293,60.062486,0 20.794037,60.066311,0</coordinates></LinearRing></outerBoundaryIs></Polygon></Placemark>
    <Placemark><name>Åland-76</name><Polygon><outerBoundaryIs><LinearRing><coordinates>20.728770,60.234687,0 20.731293,60.251166,0 20.735932,60.244249,0 20.738699,60.235582,0 20.744802,60.232082,0 20.746593,60.227973,0 20.745128,60.224392,0 20.742198,60.221788,0 20.735037,60.219550,0 20.728770,60.234687,0</coordinates></LinearRing></outerBoundaryIs></Polygon></Placemark>
    <Placemark><name>Åland-77</name><Polygon><outerBoundaryIs><LinearRing><coordinates>19.140880,59.582790,0 19.142833,59.588365,0 19.174246,59.600491,0 19.174571,59.598009,0 19.176117,59.594916,0 19.181488,59.594021,0 19.181814,59.593451,0 19.178071,59.590603,0 19.168305,59.587633,0 19.150890,59.586941,0 19.146251,59.584418,0 19.140880,59.582790,0</coordinates></LinearRing></outerBoundaryIs></Polygon></Placemark>
    <Placemark><name>Åland-78</name><Polygon><outerBoundaryIs><LinearRing><coordinates>21.273041,60.774970,0 21.279959,60.775743,0 21.298513,60.773261,0 21.300548,60.768907,0 21.298676,60.765326,0 21.296560,60.764838,0 21.295665,60.763129,0 21.289561,60.761990,0 21.276541,60.766872,0 21.271821,60.771064,0 21.273041,60.774970,0</coordinates></LinearRing></outerBoundaryIs></Polygon></Placemark>
    <Placemark><name>Åland-79</name><Polygon><outerBoundaryIs><LinearRing><coordinates>21.143647,60.340399,0 21.140880,60.348578,0 21.149913,60.356350,0 21.159272,60.359727,0 21.165131,60.358344,0 21.164236,60.353217,0 21.158132,60.351345,0 21.156342,60.349514,0 21.156912,60.344184,0 21.153250,60.340074,0 21.143647,60.340399,0</coordinates></LinearRing></outerBoundaryIs></Polygon></Placemark>
    <Placemark><name>Åland-80</name><Polygon><outerBoundaryIs><LinearRing><coordinates>21.004975,60.720445,0 21.005789,60.726793,0 21.016287,60.732693,0 21.026947,60.735745,0 21.028819,60.732123,0 21.021902,60.725165,0 21.020763,60.720608,0 21.016449,60.716539,0 21.009451,60.715725,0 21.004975,60.720445,0</coordinates></LinearRing></outerBoundaryIs></Polygon></Placemark>
  </Document>
</kml>