<?xml version="1.0" encoding="utf-8"?>
<kml xmlns="http://www.opengis.net/kml/2.2">
<Document>
<name>Coast Mountains Crest Line</name>
<description>Approximate western crest line of the Coast Mountains derived from GMBA Mountain Inventory v2 - Kitimat Ranges + Northern Pacific Ranges + Southern Pacific Ranges only. Excludes Boundary Ranges.</description>
<Placemark>
<name>Coast Mountains Crest</name>
<LineString>
<coordinates>
-122.361472,49.159387,0
-122.584898,49.257564,0
-123.288267,49.359452,0
-123.718141,49.459737,0
-123.992445,49.549743,0
-124.059706,49.645365,0
-124.319854,49.777945,0
-124.539308,49.875437,0
-124.699175,49.978232,0
-124.726022,50.117258,0
-124.616334,50.238334,0
-125.096855,50.348248,0
-126.057626,50.474668,0
-126.269930,50.594533,0
-126.178089,50.721677,0
-126.524691,50.855767,0
-127.180404,50.953039,0
-127.455326,51.067610,0
-127.657328,51.176043,0
-127.555208,51.297912,0
-127.667505,51.407132,0
-127.735604,51.535538,0
-127.787602,51.687976,0
-127.899080,51.813618,0
-127.787231,51.940608,0
-127.644157,52.062235,0
-127.887545,52.199226,0
-128.016687,52.318611,0
-128.236421,52.443397,0
-128.211535,52.609295,0
-128.256140,52.776971,0
-128.505334,52.933030,0
-128.528670,53.031357,0
-128.593318,53.139143,0
-128.803165,53.238382,0
-129.275488,53.359277,0
-129.461519,53.457112,0
-129.602575,53.558042,0
-129.732482,53.648354,0
-129.872277,53.751057,0
-130.026041,53.875923,0
-130.082453,53.990842,0
-130.255207,54.119673,0
-130.334992,54.236340,0
-130.434374,54.372912,0
-130.405207,54.498840,0
-130.367081,54.614599,0
-130.384455,54.719693,0
-130.180207,54.842038,0
-130.066450,54.951125,0
-129.518936,55.040744,0
-129.351004,55.140427,0
-129.021659,55.242600,0
-129.013732,55.364595,0
-128.934472,55.486397,0
-128.772143,55.586568,0
-128.852897,55.757401,0
</coordinates>
</LineString>
</Placemark>
</Document>
</kml>
