<?xml version="1.0" encoding="UTF-8"?>
<kml xmlns="http://www.opengis.net/kml/2.2">
  <Document>
    <Placemark>
      <name>Blue Ridge (Pennsylvania)</name>
      <LineString>
        <tessellate>1</tessellate>
        <coordinates>
          -77.490,39.680,0
          -77.490,39.780,0
          -77.530,39.870,0
          -77.370,39.930,0
          -77.405,40.010,0
          -77.360,40.110,0
          -77.270,40.200,0
          -77.270,40.280,0
          -77.170,40.310,0
          -77.060,40.345,0
          -76.950,40.370,0
          -76.780,40.440,0
          -76.600,40.515,0
          -76.460,40.545,0
          -76.340,40.575,0
          -76.180,40.650,0
          -76.060,40.695,0
          -75.950,40.740,0
          -75.870,40.800,0
          -75.790,40.860,0
          -75.680,40.920,0
          -75.580,40.950,0
          -75.380,40.985,0
          -75.200,41.020,0
          -75.080,41.050,0
          -75.020,41.160,0
          -74.970,41.260,0
          -74.920,41.380,0
        </coordinates>
      </LineString>
    </Placemark>
  </Document>
</kml>
